{
"type": "FeatureCollection",
"name": "protoblocks",
"crs": { "type": "name", "properties": { "name": "urn:ogc:def:crs:OGC:1.3:CRS84" } },
"xy_coordinate_resolution": 1e-15,
"features": [
{ "type": "Feature", "properties": { "osm_id": null, "name": null, "highway": null, "waterway": null, "aerialway": null, "barrier": null, "man_made": null, "railway": null, "z_order": null, "other_tags": null, "access": null, "bicycle": null, "boundary": null, "bridge": null, "cycleway": null, "cycleway:right": null, "destination": null, "destination:colour": null, "destination:ref": null, "destination:ref:to": null, "destination:symbol:to": null, "destination:to": null, "foot": null, "footway": null, "horse": null, "int_ref": null, "junction:ref": null, "lane_markings": null, "lanes": null, "layer": null, "lit": null, "maxspeed": null, "maxweight:signed": null, "maxweightrating:signed": null, "motor_vehicle": null, "name:etymology:wikidata": null, "nat_ref": null, "oneway": null, "operator": null, "operator:wikidata": null, "political_division": null, "ref": null, "segregated": null, "sidewalk": null, "smoothness": null, "source:maxspeed": null, "surface": null, "toll": null, "tunnel": null, "turn:lanes": null, "was:name": null, "width": null, "inc_sidewalk_len": 192.18498433879421, "sidewalks_ratio": 30.521952422822825 }, "geometry": { "type": "Polygon", "coordinates": [ [ [ 2.48016, 48.9084294 ], [ 2.4800804, 48.9084262 ], [ 2.4789239, 48.908384 ], [ 2.4788528, 48.9083814 ], [ 2.4788458, 48.9084541 ], [ 2.4787767, 48.9090792 ], [ 2.4798916, 48.9091249 ], [ 2.4799754, 48.9091283 ], [ 2.4801048, 48.9091336 ], [ 2.480113, 48.9090402 ], [ 2.4801449, 48.9086773 ], [ 2.4801455, 48.9085784 ], [ 2.48016, 48.9084294 ] ] ] } },
{ "type": "Feature", "properties": { "osm_id": null, "name": null, "highway": null, "waterway": null, "aerialway": null, "barrier": null, "man_made": null, "railway": null, "z_order": null, "other_tags": null, "access": null, "bicycle": null, "boundary": null, "bridge": null, "cycleway": null, "cycleway:right": null, "destination": null, "destination:colour": null, "destination:ref": null, "destination:ref:to": null, "destination:symbol:to": null, "destination:to": null, "foot": null, "footway": null, "horse": null, "int_ref": null, "junction:ref": null, "lane_markings": null, "lanes": null, "layer": null, "lit": null, "maxspeed": null, "maxweight:signed": null, "maxweightrating:signed": null, "motor_vehicle": null, "name:etymology:wikidata": null, "nat_ref": null, "oneway": null, "operator": null, "operator:wikidata": null, "political_division": null, "ref": null, "segregated": null, "sidewalk": null, "smoothness": null, "source:maxspeed": null, "surface": null, "toll": null, "tunnel": null, "turn:lanes": null, "was:name": null, "width": null, "inc_sidewalk_len": 191.2445429903004, "sidewalks_ratio": 15.358270615210095 }, "geometry": { "type": "Polygon", "coordinates": [ [ [ 2.4788528, 48.9083814 ], [ 2.4781172, 48.9083404 ], [ 2.4776305, 48.908334600000011 ], [ 2.4775737, 48.9083339 ], [ 2.4774984, 48.908329 ], [ 2.4762893, 48.9082497 ], [ 2.476275, 48.9083099 ], [ 2.4762582, 48.9083294 ], [ 2.4761939, 48.9089638 ], [ 2.4763865, 48.908973 ], [ 2.4774986, 48.9090268 ], [ 2.4787767, 48.9090792 ], [ 2.4788458, 48.9084541 ], [ 2.4788528, 48.9083814 ] ] ] } },
{ "type": "Feature", "properties": { "osm_id": null, "name": null, "highway": null, "waterway": null, "aerialway": null, "barrier": null, "man_made": null, "railway": null, "z_order": null, "other_tags": null, "access": null, "bicycle": null, "boundary": null, "bridge": null, "cycleway": null, "cycleway:right": null, "destination": null, "destination:colour": null, "destination:ref": null, "destination:ref:to": null, "destination:symbol:to": null, "destination:to": null, "foot": null, "footway": null, "horse": null, "int_ref": null, "junction:ref": null, "lane_markings": null, "lanes": null, "layer": null, "lit": null, "maxspeed": null, "maxweight:signed": null, "maxweightrating:signed": null, "motor_vehicle": null, "name:etymology:wikidata": null, "nat_ref": null, "oneway": null, "operator": null, "operator:wikidata": null, "political_division": null, "ref": null, "segregated": null, "sidewalk": null, "smoothness": null, "source:maxspeed": null, "surface": null, "toll": null, "tunnel": null, "turn:lanes": null, "was:name": null, "width": null, "inc_sidewalk_len": 283.98267978304716, "sidewalks_ratio": 7.0816338062590596 }, "geometry": { "type": "Polygon", "coordinates": [ [ [ 2.4762893, 48.9082497 ], [ 2.4761785, 48.9082433 ], [ 2.4749652, 48.9081829 ], [ 2.4748885, 48.9081791 ], [ 2.4740028, 48.9081349 ], [ 2.473568, 48.908113199999988 ], [ 2.4728478, 48.9081013 ], [ 2.4726724, 48.9080922 ], [ 2.4726212, 48.9080895 ], [ 2.4724714, 48.9082627 ], [ 2.4726759, 48.9085704 ], [ 2.4730621, 48.909161 ], [ 2.4731334, 48.9092482 ], [ 2.4732123, 48.90933170000001 ], [ 2.4735636, 48.9097706 ], [ 2.4736098, 48.9098217 ], [ 2.4740482, 48.9103064 ], [ 2.4741597, 48.910429699999987 ], [ 2.4741951, 48.910476 ], [ 2.4742478, 48.9105449 ], [ 2.4742854, 48.9105967 ], [ 2.4744354, 48.9107832 ], [ 2.4745293, 48.9108322 ], [ 2.4746535, 48.9108459 ], [ 2.4747723, 48.9108376 ], [ 2.4750548, 48.9107682 ], [ 2.4754512, 48.9105496 ], [ 2.4755245, 48.9105178 ], [ 2.4758776, 48.9103729 ], [ 2.4759987, 48.9103657 ], [ 2.4761087, 48.9103156 ], [ 2.4761696, 48.9103143 ], [ 2.4762721, 48.9102416 ], [ 2.4762918, 48.9102341 ], [ 2.4763929, 48.910202099999985 ], [ 2.4764487, 48.9101913 ], [ 2.4765061, 48.9101826 ], [ 2.4765428, 48.9101794 ], [ 2.47658, 48.9101786 ], [ 2.477162, 48.9102044 ], [ 2.4780298, 48.9102428 ], [ 2.4781857, 48.9102497 ], [ 2.4785555, 48.9102661 ], [ 2.4790195, 48.9102866 ], [ 2.479544, 48.9103097 ], [ 2.4796731, 48.9103156 ], [ 2.4801128, 48.910335 ], [ 2.480244, 48.9103277 ], [ 2.4801435, 48.9099871 ], [ 2.4801187, 48.9098854 ], [ 2.4801022, 48.9097618 ], [ 2.4799878, 48.9097573 ], [ 2.4796748, 48.90974210000001 ], [ 2.4790365, 48.909711 ], [ 2.4783799, 48.9096791 ], [ 2.4777542, 48.9096487 ], [ 2.4770943, 48.9096166 ], [ 2.4763256, 48.909577 ], [ 2.4760368, 48.9095679 ], [ 2.4758349, 48.9095616 ], [ 2.4758411, 48.9095053 ], [ 2.4751175, 48.909478 ], [ 2.4749788, 48.909298 ], [ 2.4747933, 48.9090573 ], [ 2.4748009, 48.9089001 ], [ 2.4748901, 48.9089041 ], [ 2.4750723, 48.9089124 ], [ 2.4758997, 48.908952 ], [ 2.4761939, 48.9089638 ], [ 2.4762582, 48.9083294 ], [ 2.476275, 48.9083099 ], [ 2.4762893, 48.9082497 ] ] ] } },
{ "type": "Feature", "properties": { "osm_id": null, "name": null, "highway": null, "waterway": null, "aerialway": null, "barrier": null, "man_made": null, "railway": null, "z_order": null, "other_tags": null, "access": null, "bicycle": null, "boundary": null, "bridge": null, "cycleway": null, "cycleway:right": null, "destination": null, "destination:colour": null, "destination:ref": null, "destination:ref:to": null, "destination:symbol:to": null, "destination:to": null, "foot": null, "footway": null, "horse": null, "int_ref": null, "junction:ref": null, "lane_markings": null, "lanes": null, "layer": null, "lit": null, "maxspeed": null, "maxweight:signed": null, "maxweightrating:signed": null, "motor_vehicle": null, "name:etymology:wikidata": null, "nat_ref": null, "oneway": null, "operator": null, "operator:wikidata": null, "political_division": null, "ref": null, "segregated": null, "sidewalk": null, "smoothness": null, "source:maxspeed": null, "surface": null, "toll": null, "tunnel": null, "turn:lanes": null, "was:name": null, "width": null, "inc_sidewalk_len": 0.0, "sidewalks_ratio": 0.0 }, "geometry": { "type": "Polygon", "coordinates": [ [ [ 2.4799754, 48.9091283 ], [ 2.4798916, 48.9091249 ], [ 2.4787767, 48.9090792 ], [ 2.4774986, 48.9090268 ], [ 2.4763865, 48.908973 ], [ 2.4763256, 48.909577 ], [ 2.4770943, 48.9096166 ], [ 2.4777542, 48.9096487 ], [ 2.4783799, 48.9096791 ], [ 2.4790365, 48.909711 ], [ 2.4796748, 48.90974210000001 ], [ 2.4799878, 48.9097573 ], [ 2.4801022, 48.9097618 ], [ 2.4800992, 48.909661 ], [ 2.4800865, 48.9093865 ], [ 2.4800912, 48.909319 ], [ 2.4801048, 48.9091336 ], [ 2.4799754, 48.9091283 ] ], [ [ 2.478564, 48.9093968 ], [ 2.4785895, 48.909139 ], [ 2.4787683, 48.9091447 ], [ 2.4789493, 48.9091506 ], [ 2.4789258, 48.9094085 ], [ 2.478564, 48.9093968 ] ], [ [ 2.477657, 48.9093591 ], [ 2.477248, 48.909343499999984 ], [ 2.4772765, 48.9093287 ], [ 2.4772805, 48.90931 ], [ 2.4772996, 48.9091128 ], [ 2.4773112, 48.9090916 ], [ 2.4773359, 48.9090817 ], [ 2.4774902, 48.909083799999983 ], [ 2.4775954, 48.9090904 ], [ 2.4776389, 48.9090956 ], [ 2.4776596, 48.9091144 ], [ 2.4776575, 48.9091344 ], [ 2.4776365, 48.909327799999986 ], [ 2.4776401, 48.9093478 ], [ 2.477657, 48.9093591 ] ] ] } },
{ "type": "Feature", "properties": { "osm_id": null, "name": null, "highway": null, "waterway": null, "aerialway": null, "barrier": null, "man_made": null, "railway": null, "z_order": null, "other_tags": null, "access": null, "bicycle": null, "boundary": null, "bridge": null, "cycleway": null, "cycleway:right": null, "destination": null, "destination:colour": null, "destination:ref": null, "destination:ref:to": null, "destination:symbol:to": null, "destination:to": null, "foot": null, "footway": null, "horse": null, "int_ref": null, "junction:ref": null, "lane_markings": null, "lanes": null, "layer": null, "lit": null, "maxspeed": null, "maxweight:signed": null, "maxweightrating:signed": null, "motor_vehicle": null, "name:etymology:wikidata": null, "nat_ref": null, "oneway": null, "operator": null, "operator:wikidata": null, "political_division": null, "ref": null, "segregated": null, "sidewalk": null, "smoothness": null, "source:maxspeed": null, "surface": null, "toll": null, "tunnel": null, "turn:lanes": null, "was:name": null, "width": null, "inc_sidewalk_len": 0.0, "sidewalks_ratio": 0.0 }, "geometry": { "type": "Polygon", "coordinates": [ [ [ 2.4763865, 48.908973 ], [ 2.4761939, 48.9089638 ], [ 2.4758997, 48.908952 ], [ 2.4758606, 48.9093281 ], [ 2.4758411, 48.9095053 ], [ 2.4758349, 48.9095616 ], [ 2.4760368, 48.9095679 ], [ 2.4763256, 48.909577 ], [ 2.4763865, 48.908973 ] ] ] } },
{ "type": "Feature", "properties": { "osm_id": null, "name": null, "highway": null, "waterway": null, "aerialway": null, "barrier": null, "man_made": null, "railway": null, "z_order": null, "other_tags": null, "access": null, "bicycle": null, "boundary": null, "bridge": null, "cycleway": null, "cycleway:right": null, "destination": null, "destination:colour": null, "destination:ref": null, "destination:ref:to": null, "destination:symbol:to": null, "destination:to": null, "foot": null, "footway": null, "horse": null, "int_ref": null, "junction:ref": null, "lane_markings": null, "lanes": null, "layer": null, "lit": null, "maxspeed": null, "maxweight:signed": null, "maxweightrating:signed": null, "motor_vehicle": null, "name:etymology:wikidata": null, "nat_ref": null, "oneway": null, "operator": null, "operator:wikidata": null, "political_division": null, "ref": null, "segregated": null, "sidewalk": null, "smoothness": null, "source:maxspeed": null, "surface": null, "toll": null, "tunnel": null, "turn:lanes": null, "was:name": null, "width": null, "inc_sidewalk_len": 0.0, "sidewalks_ratio": 0.0 }, "geometry": { "type": "Polygon", "coordinates": [ [ [ 2.4758997, 48.908952 ], [ 2.4750723, 48.9089124 ], [ 2.4748901, 48.9089041 ], [ 2.4748009, 48.9089001 ], [ 2.4747933, 48.9090573 ], [ 2.4749788, 48.909298 ], [ 2.4758606, 48.9093281 ], [ 2.4758997, 48.908952 ] ] ] } },
{ "type": "Feature", "properties": { "osm_id": null, "name": null, "highway": null, "waterway": null, "aerialway": null, "barrier": null, "man_made": null, "railway": null, "z_order": null, "other_tags": null, "access": null, "bicycle": null, "boundary": null, "bridge": null, "cycleway": null, "cycleway:right": null, "destination": null, "destination:colour": null, "destination:ref": null, "destination:ref:to": null, "destination:symbol:to": null, "destination:to": null, "foot": null, "footway": null, "horse": null, "int_ref": null, "junction:ref": null, "lane_markings": null, "lanes": null, "layer": null, "lit": null, "maxspeed": null, "maxweight:signed": null, "maxweightrating:signed": null, "motor_vehicle": null, "name:etymology:wikidata": null, "nat_ref": null, "oneway": null, "operator": null, "operator:wikidata": null, "political_division": null, "ref": null, "segregated": null, "sidewalk": null, "smoothness": null, "source:maxspeed": null, "surface": null, "toll": null, "tunnel": null, "turn:lanes": null, "was:name": null, "width": null, "inc_sidewalk_len": 0.0, "sidewalks_ratio": 0.0 }, "geometry": { "type": "Polygon", "coordinates": [ [ [ 2.477162, 48.9102044 ], [ 2.47658, 48.9101786 ], [ 2.4765428, 48.9101794 ], [ 2.4765061, 48.9101826 ], [ 2.4764487, 48.9101913 ], [ 2.4763929, 48.910202099999985 ], [ 2.4762918, 48.9102341 ], [ 2.4762721, 48.9102416 ], [ 2.4761696, 48.9103143 ], [ 2.4762066, 48.9103189 ], [ 2.4762426, 48.910326499999989 ], [ 2.4762802, 48.9103457 ], [ 2.4763128, 48.9103687 ], [ 2.4763573, 48.9104421 ], [ 2.4766194, 48.9108742 ], [ 2.4767018, 48.91101 ], [ 2.4772553, 48.9109552 ], [ 2.4773575, 48.9109451 ], [ 2.477343, 48.9108954 ], [ 2.4772652, 48.9105984 ], [ 2.4771746, 48.9102524 ], [ 2.477162, 48.9102044 ] ] ] } },
{ "type": "Feature", "properties": { "osm_id": null, "name": null, "highway": null, "waterway": null, "aerialway": null, "barrier": null, "man_made": null, "railway": null, "z_order": null, "other_tags": null, "access": null, "bicycle": null, "boundary": null, "bridge": null, "cycleway": null, "cycleway:right": null, "destination": null, "destination:colour": null, "destination:ref": null, "destination:ref:to": null, "destination:symbol:to": null, "destination:to": null, "foot": null, "footway": null, "horse": null, "int_ref": null, "junction:ref": null, "lane_markings": null, "lanes": null, "layer": null, "lit": null, "maxspeed": null, "maxweight:signed": null, "maxweightrating:signed": null, "motor_vehicle": null, "name:etymology:wikidata": null, "nat_ref": null, "oneway": null, "operator": null, "operator:wikidata": null, "political_division": null, "ref": null, "segregated": null, "sidewalk": null, "smoothness": null, "source:maxspeed": null, "surface": null, "toll": null, "tunnel": null, "turn:lanes": null, "was:name": null, "width": null, "inc_sidewalk_len": 0.0, "sidewalks_ratio": 0.0 }, "geometry": { "type": "Polygon", "coordinates": [ [ [ 2.4744888, 48.9109347 ], [ 2.4746707, 48.9109103 ], [ 2.4748694, 48.9108553 ], [ 2.4750548, 48.9107682 ], [ 2.4747723, 48.9108376 ], [ 2.4746535, 48.9108459 ], [ 2.4745293, 48.9108322 ], [ 2.4744354, 48.9107832 ], [ 2.4742854, 48.9105967 ], [ 2.4743792, 48.9107955 ], [ 2.4744888, 48.9109347 ] ] ] } },
{ "type": "Feature", "properties": { "osm_id": null, "name": null, "highway": null, "waterway": null, "aerialway": null, "barrier": null, "man_made": null, "railway": null, "z_order": null, "other_tags": null, "access": null, "bicycle": null, "boundary": null, "bridge": null, "cycleway": null, "cycleway:right": null, "destination": null, "destination:colour": null, "destination:ref": null, "destination:ref:to": null, "destination:symbol:to": null, "destination:to": null, "foot": null, "footway": null, "horse": null, "int_ref": null, "junction:ref": null, "lane_markings": null, "lanes": null, "layer": null, "lit": null, "maxspeed": null, "maxweight:signed": null, "maxweightrating:signed": null, "motor_vehicle": null, "name:etymology:wikidata": null, "nat_ref": null, "oneway": null, "operator": null, "operator:wikidata": null, "political_division": null, "ref": null, "segregated": null, "sidewalk": null, "smoothness": null, "source:maxspeed": null, "surface": null, "toll": null, "tunnel": null, "turn:lanes": null, "was:name": null, "width": null, "inc_sidewalk_len": 0.0, "sidewalks_ratio": 0.0 }, "geometry": { "type": "Polygon", "coordinates": [ [ [ 2.4750548, 48.9107682 ], [ 2.4748694, 48.9108553 ], [ 2.4746707, 48.9109103 ], [ 2.4744888, 48.9109347 ], [ 2.474546, 48.911024 ], [ 2.4746164, 48.9110344 ], [ 2.4746597, 48.9110386 ], [ 2.4747884, 48.9110174 ], [ 2.4749577, 48.9109547 ], [ 2.4751368, 48.9108533 ], [ 2.4755322, 48.910628899999985 ], [ 2.4759346, 48.9104215 ], [ 2.4759987, 48.9103657 ], [ 2.4758776, 48.9103729 ], [ 2.4755245, 48.9105178 ], [ 2.4754512, 48.9105496 ], [ 2.4750548, 48.9107682 ] ] ] } },
{ "type": "Feature", "properties": { "osm_id": null, "name": null, "highway": null, "waterway": null, "aerialway": null, "barrier": null, "man_made": null, "railway": null, "z_order": null, "other_tags": null, "access": null, "bicycle": null, "boundary": null, "bridge": null, "cycleway": null, "cycleway:right": null, "destination": null, "destination:colour": null, "destination:ref": null, "destination:ref:to": null, "destination:symbol:to": null, "destination:to": null, "foot": null, "footway": null, "horse": null, "int_ref": null, "junction:ref": null, "lane_markings": null, "lanes": null, "layer": null, "lit": null, "maxspeed": null, "maxweight:signed": null, "maxweightrating:signed": null, "motor_vehicle": null, "name:etymology:wikidata": null, "nat_ref": null, "oneway": null, "operator": null, "operator:wikidata": null, "political_division": null, "ref": null, "segregated": null, "sidewalk": null, "smoothness": null, "source:maxspeed": null, "surface": null, "toll": null, "tunnel": null, "turn:lanes": null, "was:name": null, "width": null, "inc_sidewalk_len": 0.0, "sidewalks_ratio": 0.0 }, "geometry": { "type": "Polygon", "coordinates": [ [ [ 2.4746379, 48.9111861 ], [ 2.4746785, 48.9111371 ], [ 2.4747235, 48.9110906 ], [ 2.4749577, 48.9109547 ], [ 2.4747884, 48.9110174 ], [ 2.4746597, 48.9110386 ], [ 2.4746164, 48.9110344 ], [ 2.474546, 48.911024 ], [ 2.4746379, 48.9111861 ] ] ] } },
{ "type": "Feature", "properties": { "osm_id": null, "name": null, "highway": null, "waterway": null, "aerialway": null, "barrier": null, "man_made": null, "railway": null, "z_order": null, "other_tags": null, "access": null, "bicycle": null, "boundary": null, "bridge": null, "cycleway": null, "cycleway:right": null, "destination": null, "destination:colour": null, "destination:ref": null, "destination:ref:to": null, "destination:symbol:to": null, "destination:to": null, "foot": null, "footway": null, "horse": null, "int_ref": null, "junction:ref": null, "lane_markings": null, "lanes": null, "layer": null, "lit": null, "maxspeed": null, "maxweight:signed": null, "maxweightrating:signed": null, "motor_vehicle": null, "name:etymology:wikidata": null, "nat_ref": null, "oneway": null, "operator": null, "operator:wikidata": null, "political_division": null, "ref": null, "segregated": null, "sidewalk": null, "smoothness": null, "source:maxspeed": null, "surface": null, "toll": null, "tunnel": null, "turn:lanes": null, "was:name": null, "width": null, "inc_sidewalk_len": 0.0, "sidewalks_ratio": 0.0 }, "geometry": { "type": "Polygon", "coordinates": [ [ [ 2.4758411, 48.9095053 ], [ 2.4758606, 48.9093281 ], [ 2.4749788, 48.909298 ], [ 2.4751175, 48.909478 ], [ 2.4758411, 48.9095053 ] ] ] } },
{ "type": "Feature", "properties": { "osm_id": null, "name": null, "highway": null, "waterway": null, "aerialway": null, "barrier": null, "man_made": null, "railway": null, "z_order": null, "other_tags": null, "access": null, "bicycle": null, "boundary": null, "bridge": null, "cycleway": null, "cycleway:right": null, "destination": null, "destination:colour": null, "destination:ref": null, "destination:ref:to": null, "destination:symbol:to": null, "destination:to": null, "foot": null, "footway": null, "horse": null, "int_ref": null, "junction:ref": null, "lane_markings": null, "lanes": null, "layer": null, "lit": null, "maxspeed": null, "maxweight:signed": null, "maxweightrating:signed": null, "motor_vehicle": null, "name:etymology:wikidata": null, "nat_ref": null, "oneway": null, "operator": null, "operator:wikidata": null, "political_division": null, "ref": null, "segregated": null, "sidewalk": null, "smoothness": null, "source:maxspeed": null, "surface": null, "toll": null, "tunnel": null, "turn:lanes": null, "was:name": null, "width": null, "inc_sidewalk_len": 0.0, "sidewalks_ratio": 0.0 }, "geometry": { "type": "Polygon", "coordinates": [ [ [ 2.4787683, 48.9091447 ], [ 2.4785895, 48.909139 ], [ 2.478564, 48.9093968 ], [ 2.4789258, 48.9094085 ], [ 2.4789493, 48.9091506 ], [ 2.4787683, 48.9091447 ] ] ] } },
{ "type": "Feature", "properties": { "osm_id": null, "name": null, "highway": null, "waterway": null, "aerialway": null, "barrier": null, "man_made": null, "railway": null, "z_order": null, "other_tags": null, "access": null, "bicycle": null, "boundary": null, "bridge": null, "cycleway": null, "cycleway:right": null, "destination": null, "destination:colour": null, "destination:ref": null, "destination:ref:to": null, "destination:symbol:to": null, "destination:to": null, "foot": null, "footway": null, "horse": null, "int_ref": null, "junction:ref": null, "lane_markings": null, "lanes": null, "layer": null, "lit": null, "maxspeed": null, "maxweight:signed": null, "maxweightrating:signed": null, "motor_vehicle": null, "name:etymology:wikidata": null, "nat_ref": null, "oneway": null, "operator": null, "operator:wikidata": null, "political_division": null, "ref": null, "segregated": null, "sidewalk": null, "smoothness": null, "source:maxspeed": null, "surface": null, "toll": null, "tunnel": null, "turn:lanes": null, "was:name": null, "width": null, "inc_sidewalk_len": 0.0, "sidewalks_ratio": 0.0 }, "geometry": { "type": "Polygon", "coordinates": [ [ [ 2.477248, 48.909343499999984 ], [ 2.477657, 48.9093591 ], [ 2.4776401, 48.9093478 ], [ 2.4776365, 48.909327799999986 ], [ 2.4776575, 48.9091344 ], [ 2.4776596, 48.9091144 ], [ 2.4776389, 48.9090956 ], [ 2.4775954, 48.9090904 ], [ 2.4774902, 48.909083799999983 ], [ 2.4773359, 48.9090817 ], [ 2.4773112, 48.9090916 ], [ 2.4772996, 48.9091128 ], [ 2.4772805, 48.90931 ], [ 2.4772765, 48.9093287 ], [ 2.477248, 48.909343499999984 ] ] ] } }
]
}
