{
"type": "FeatureCollection",
"name": "input_polygon",
"crs": { "type": "name", "properties": { "name": "urn:ogc:def:crs:OGC:1.3:CRS84" } },
"xy_coordinate_resolution": 1e-15,
"features": [
{ "type": "Feature", "properties": { }, "geometry": { "type": "Polygon", "coordinates": [ [ [ 2.476603967068299, 48.911213206920564 ], [ 2.476650243759703, 48.911199260343381 ], [ 2.480215026579407, 48.911328447236045 ], [ 2.480525727154637, 48.911290694750456 ], [ 2.48080953919325, 48.911158744667638 ], [ 2.481038660440236, 48.910945522830581 ], [ 2.481190646155876, 48.910671916471266 ], [ 2.481250607804628, 48.910364728095352 ], [ 2.481212671537528, 48.910054049906137 ], [ 2.481144139697579, 48.909814501842185 ], [ 2.481144568419972, 48.909810124418897 ], [ 2.4811163990638, 48.909310948244276 ], [ 2.481104806343799, 48.909258119342752 ], [ 2.481170501489997, 48.908540162098227 ], [ 2.481147883845129, 48.908219173004468 ], [ 2.481024493379283, 48.907921985607182 ], [ 2.480813106626871, 48.907679372340695 ], [ 2.480535611746738, 48.907516454730626 ], [ 2.480220742100582, 48.907450102171524 ], [ 2.473394378157247, 48.907135206566998 ], [ 2.473069608519286, 48.907173762989714 ], [ 2.472774648023534, 48.907315043637432 ], [ 2.472541046209607, 48.907543936861451 ], [ 2.47239378957498, 48.907835959804103 ], [ 2.472348628971359, 48.908159877132064 ], [ 2.472410394863412, 48.908481042027489 ], [ 2.472572480653012, 48.908765102077979 ], [ 2.4746585127266, 48.911330058999987 ], [ 2.474914572269281, 48.911553414988646 ], [ 2.475230640110744, 48.911678136705525 ], [ 2.475570224832082, 48.911689824481236 ], [ 2.475894119887437, 48.911587128910817 ], [ 2.476560659070649, 48.911242018001047 ], [ 2.476603967068299, 48.911213206920564 ] ] ] } }
]
}
