{
"type": "FeatureCollection",
"name": "10_adresse",
"crs": { "type": "name", "properties": { "name": "urn:ogc:def:crs:OGC:1.3:CRS84" } },
"features": [
{ "type": "Feature", "properties": { "building.architecture": "Maisons de bourg", "building.architecture.niveau": " 2", "addr.housenumber": "116", "addr.street": "Rue Baudin" }, "geometry": { "type": "Point", "coordinates": [ 2.47474, 48.898076 ] } },
{ "type": "Feature", "properties": { "building.architecture": "Lotissements/maisons pavillonnaires", "building.architecture.niveau": " 2", "addr.housenumber": "126", "addr.street": "Rue Baudin" }, "geometry": { "type": "Point", "coordinates": [ 2.47542, 48.897953 ] } },
{ "type": "Feature", "properties": { "building.architecture": "Lotissements/maisons pavillonnaires", "building.architecture.niveau": " 2", "addr.housenumber": "127", "addr.street": "Rue Baudin" }, "geometry": { "type": "Point", "coordinates": [ 2.475218, 48.898098 ] } },
{ "type": "Feature", "properties": { "building.architecture": "Lotissements/maisons pavillonnaires", "building.architecture.niveau": " 2", "addr.housenumber": "128", "addr.street": "Rue Baudin" }, "geometry": { "type": "Point", "coordinates": [ 2.475537, 48.897933 ] } },
{ "type": "Feature", "properties": { "building.architecture": "Lotissements/maisons pavillonnaires", "building.architecture.niveau": " 2", "addr.housenumber": "131", "addr.street": "Rue Baudin" }, "geometry": { "type": "Point", "coordinates": [ 2.47563, 48.898033 ] } },
{ "type": "Feature", "properties": { "building.architecture": "Lotissements/maisons pavillonnaires", "building.architecture.niveau": " 2", "addr.housenumber": "133", "addr.street": "Rue Baudin" }, "geometry": { "type": "Point", "coordinates": [ 2.475849, 48.897997 ] } },
{ "type": "Feature", "properties": { "building.architecture": "Lotissements/maisons pavillonnaires", "building.architecture.niveau": " 2", "addr.housenumber": "134", "addr.street": "Rue Baudin" }, "geometry": { "type": "Point", "coordinates": [ 2.47598, 48.897878 ] } },
{ "type": "Feature", "properties": { "building.architecture": "Lotissements/maisons pavillonnaires", "building.architecture.niveau": " 2", "addr.housenumber": "136", "addr.street": "Rue Baudin" }, "geometry": { "type": "Point", "coordinates": [ 2.476068, 48.897863 ] } },
{ "type": "Feature", "properties": { "building.architecture": "Lotissements/maisons pavillonnaires", "building.architecture.niveau": " 2", "addr.housenumber": "139", "addr.street": "Rue Baudin" }, "geometry": { "type": "Point", "coordinates": [ 2.476298, 48.897924 ] } },
{ "type": "Feature", "properties": { "building.architecture": "Lotissements/maisons pavillonnaires", "building.architecture.niveau": " 2", "addr.housenumber": "141", "addr.street": "Rue Baudin" }, "geometry": { "type": "Point", "coordinates": [ 2.476487, 48.897892 ] } },
{ "type": "Feature", "properties": { "building.architecture": "Lotissements/maisons pavillonnaires", "building.architecture.niveau": " 2", "addr.housenumber": "142", "addr.street": "Rue Baudin" }, "geometry": { "type": "Point", "coordinates": [ 2.476273, 48.89783 ] } },
{ "type": "Feature", "properties": { "building.architecture": "Lotissements/maisons pavillonnaires", "building.architecture.niveau": " 2", "addr.housenumber": "143", "addr.street": "Rue Baudin" }, "geometry": { "type": "Point", "coordinates": [ 2.476691, 48.897926 ] } },
{ "type": "Feature", "properties": { "building.architecture": "Maisons de bourg", "building.architecture.niveau": " 2", "addr.housenumber": "145", "addr.street": "Rue Baudin" }, "geometry": { "type": "Point", "coordinates": [ 2.476748, 48.897851 ] } },
{ "type": "Feature", "properties": { "building.architecture": "Maisons de bourg", "building.architecture.niveau": " 2", "addr.housenumber": "147", "addr.street": "Rue Baudin" }, "geometry": { "type": "Point", "coordinates": [ 2.476908, 48.897825 ] } },
{ "type": "Feature", "properties": { "building.architecture": "Maisons de bourg", "building.architecture.niveau": " 2", "addr.housenumber": "149", "addr.street": "Rue Baudin" }, "geometry": { "type": "Point", "coordinates": [ 2.477039, 48.897805 ] } },
{ "type": "Feature", "properties": { "building.architecture": "Lotissements/maisons pavillonnaires", "building.architecture.niveau": " 2", "addr.housenumber": "137", "addr.street": "Rue Baudin" }, "geometry": { "type": "Point", "coordinates": [ 2.476149, 48.897948 ] } },
{ "type": "Feature", "properties": { "building.architecture": "Maisons de bourg", "building.architecture.niveau": " 2", "addr.housenumber": "2", "addr.street": "Rue de la Fraternite" }, "geometry": { "type": "Point", "coordinates": [ 2.475938, 48.899124 ] } },
{ "type": "Feature", "properties": { "building.architecture": "Maisons de bourg", "building.architecture.niveau": " 2", "addr.housenumber": "8", "addr.street": "Rue de la Fraternite" }, "geometry": { "type": "Point", "coordinates": [ 2.476502, 48.898668 ] } },
{ "type": "Feature", "properties": { "building.architecture": "Maisons de bourg", "building.architecture.niveau": " 2", "addr.housenumber": "11", "addr.street": "Rue de la Fraternite" }, "geometry": { "type": "Point", "coordinates": [ 2.476727, 48.898587 ] } },
{ "type": "Feature", "properties": { "building.architecture": "Lotissements/maisons pavillonnaires", "building.architecture.niveau": " 2", "addr.housenumber": "8", "addr.street": "Rue de l'Egalité" }, "geometry": { "type": "Point", "coordinates": [ 2.47521, 48.899088 ] } },
{ "type": "Feature", "properties": { "building.architecture": "Lotissements/maisons pavillonnaires", "building.architecture.niveau": " 2", "addr.housenumber": "10", "addr.street": "Rue de l'Egalité" }, "geometry": { "type": "Point", "coordinates": [ 2.475144, 48.898993 ] } },
{ "type": "Feature", "properties": { "building.architecture": "Lotissements/maisons pavillonnaires", "building.architecture.niveau": " 2", "addr.housenumber": "17", "addr.street": "Rue de l'Egalité" }, "geometry": { "type": "Point", "coordinates": [ 2.474845, 48.898637 ] } },
{ "type": "Feature", "properties": { "building.architecture": "Lotissements/maisons pavillonnaires", "building.architecture.niveau": " 2", "addr.housenumber": "14bis", "addr.street": "Rue de l'Egalité" }, "geometry": { "type": "Point", "coordinates": [ 2.474917, 48.898829 ] } },
{ "type": "Feature", "properties": { "building.architecture": "Lotissements/maisons pavillonnaires", "building.architecture.niveau": " 2", "addr.housenumber": "18", "addr.street": "Rue de l'Egalité" }, "geometry": { "type": "Point", "coordinates": [ 2.474754, 48.898707 ] } },
{ "type": "Feature", "properties": { "building.architecture": "Lotissements/maisons pavillonnaires", "building.architecture.niveau": " 2", "addr.housenumber": "22", "addr.street": "Rue de l'Egalité" }, "geometry": { "type": "Point", "coordinates": [ 2.474459, 48.898543 ] } },
{ "type": "Feature", "properties": { "building.architecture": "Lotissements/maisons pavillonnaires", "building.architecture.niveau": " 2", "addr.housenumber": "14", "addr.street": "Rue du Sergent Bobillot" }, "geometry": { "type": "Point", "coordinates": [ 2.474952, 48.896024 ] } },
{ "type": "Feature", "properties": { "building.architecture": "Lotissements/maisons pavillonnaires", "building.architecture.niveau": " 2", "addr.housenumber": "5", "addr.street": "Rue Jules Lelong" }, "geometry": { "type": "Point", "coordinates": [ 2.475433, 48.896208 ] } },
{ "type": "Feature", "properties": { "building.architecture": "Lotissements/maisons pavillonnaires", "building.architecture.niveau": " 2", "addr.housenumber": "6", "addr.street": "Rue Jules Lelong" }, "geometry": { "type": "Point", "coordinates": [ 2.475645, 48.896374 ] } },
{ "type": "Feature", "properties": { "building.architecture": "Lotissements/maisons pavillonnaires", "building.architecture.niveau": " 2", "addr.housenumber": "7", "addr.street": "Rue Jules Lelong" }, "geometry": { "type": "Point", "coordinates": [ 2.475488, 48.896293 ] } },
{ "type": "Feature", "properties": { "building.architecture": "Lotissements/maisons pavillonnaires", "building.architecture.niveau": " 2", "addr.housenumber": "8", "addr.street": "Rue Jules Lelong" }, "geometry": { "type": "Point", "coordinates": [ 2.475691, 48.896438 ] } },
{ "type": "Feature", "properties": { "building.architecture": "Lotissements/maisons pavillonnaires", "building.architecture.niveau": " 2", "addr.housenumber": "9", "addr.street": "Rue Jules Lelong" }, "geometry": { "type": "Point", "coordinates": [ 2.475547, 48.896377 ] } },
{ "type": "Feature", "properties": { "building.architecture": "Lotissements/maisons pavillonnaires", "building.architecture.niveau": " 2", "addr.housenumber": "10", "addr.street": "Rue Jules Lelong" }, "geometry": { "type": "Point", "coordinates": [ 2.475769, 48.896555 ] } },
{ "type": "Feature", "properties": { "building.architecture": "Lotissements/maisons pavillonnaires", "building.architecture.niveau": " 2", "addr.housenumber": "11", "addr.street": "Rue Jules Lelong" }, "geometry": { "type": "Point", "coordinates": [ 2.4756, 48.896458 ] } },
{ "type": "Feature", "properties": { "building.architecture": "Maisons de bourg", "building.architecture.niveau": " 2", "addr.housenumber": "14", "addr.street": "Rue Jules Lelong" }, "geometry": { "type": "Point", "coordinates": [ 2.47591, 48.896766 ] } },
{ "type": "Feature", "properties": { "building.architecture": "Maisons de bourg", "building.architecture.niveau": " 2", "addr.housenumber": "15", "addr.street": "Rue Jules Lelong" }, "geometry": { "type": "Point", "coordinates": [ 2.475719, 48.896632 ] } },
{ "type": "Feature", "properties": { "building.architecture": "Maisons de bourg", "building.architecture.niveau": " 2", "addr.housenumber": "21", "addr.street": "Rue Jules Lelong" }, "geometry": { "type": "Point", "coordinates": [ 2.475854, 48.896835 ] } },
{ "type": "Feature", "properties": { "building.architecture": "Lotissements/maisons pavillonnaires", "building.architecture.niveau": " 2", "addr.housenumber": "4", "addr.street": "Rue Jules Lelong" }, "geometry": { "type": "Point", "coordinates": [ 2.475609, 48.896316 ] } },
{ "type": "Feature", "properties": { "building.architecture": "Maisons de bourg", "building.architecture.niveau": " 2", "addr.housenumber": "116", "addr.street": "Rue Baudin" }, "geometry": { "type": "Point", "coordinates": [ 2.47474, 48.898076 ] } },
{ "type": "Feature", "properties": { "building.architecture": "Lotissements\/maisons pavillonnaires", "building.architecture.niveau": " 2", "addr.housenumber": "126", "addr.street": "Rue Baudin" }, "geometry": { "type": "Point", "coordinates": [ 2.47542, 48.897953 ] } },
{ "type": "Feature", "properties": { "building.architecture": "Lotissements\/maisons pavillonnaires", "building.architecture.niveau": " 2", "addr.housenumber": "127", "addr.street": "Rue Baudin" }, "geometry": { "type": "Point", "coordinates": [ 2.475218, 48.898098 ] } },
{ "type": "Feature", "properties": { "building.architecture": "Lotissements\/maisons pavillonnaires", "building.architecture.niveau": " 2", "addr.housenumber": "128", "addr.street": "Rue Baudin" }, "geometry": { "type": "Point", "coordinates": [ 2.475537, 48.897933 ] } },
{ "type": "Feature", "properties": { "building.architecture": "Lotissements\/maisons pavillonnaires", "building.architecture.niveau": " 2", "addr.housenumber": "131", "addr.street": "Rue Baudin" }, "geometry": { "type": "Point", "coordinates": [ 2.47563, 48.898033 ] } },
{ "type": "Feature", "properties": { "building.architecture": "Lotissements\/maisons pavillonnaires", "building.architecture.niveau": " 2", "addr.housenumber": "133", "addr.street": "Rue Baudin" }, "geometry": { "type": "Point", "coordinates": [ 2.475849, 48.897997 ] } },
{ "type": "Feature", "properties": { "building.architecture": "Lotissements\/maisons pavillonnaires", "building.architecture.niveau": " 2", "addr.housenumber": "134", "addr.street": "Rue Baudin" }, "geometry": { "type": "Point", "coordinates": [ 2.47598, 48.897878 ] } },
{ "type": "Feature", "properties": { "building.architecture": "Lotissements\/maisons pavillonnaires", "building.architecture.niveau": " 2", "addr.housenumber": "136", "addr.street": "Rue Baudin" }, "geometry": { "type": "Point", "coordinates": [ 2.476068, 48.897863 ] } },
{ "type": "Feature", "properties": { "building.architecture": "Lotissements\/maisons pavillonnaires", "building.architecture.niveau": " 2", "addr.housenumber": "139", "addr.street": "Rue Baudin" }, "geometry": { "type": "Point", "coordinates": [ 2.476298, 48.897924 ] } },
{ "type": "Feature", "properties": { "building.architecture": "Lotissements\/maisons pavillonnaires", "building.architecture.niveau": " 2", "addr.housenumber": "141", "addr.street": "Rue Baudin" }, "geometry": { "type": "Point", "coordinates": [ 2.476487, 48.897892 ] } },
{ "type": "Feature", "properties": { "building.architecture": "Lotissements\/maisons pavillonnaires", "building.architecture.niveau": " 2", "addr.housenumber": "142", "addr.street": "Rue Baudin" }, "geometry": { "type": "Point", "coordinates": [ 2.476273, 48.89783 ] } },
{ "type": "Feature", "properties": { "building.architecture": "Lotissements\/maisons pavillonnaires", "building.architecture.niveau": " 2", "addr.housenumber": "143", "addr.street": "Rue Baudin" }, "geometry": { "type": "Point", "coordinates": [ 2.476691, 48.897926 ] } },
{ "type": "Feature", "properties": { "building.architecture": "Maisons de bourg", "building.architecture.niveau": " 2", "addr.housenumber": "145", "addr.street": "Rue Baudin" }, "geometry": { "type": "Point", "coordinates": [ 2.476748, 48.897851 ] } },
{ "type": "Feature", "properties": { "building.architecture": "Maisons de bourg", "building.architecture.niveau": " 2", "addr.housenumber": "147", "addr.street": "Rue Baudin" }, "geometry": { "type": "Point", "coordinates": [ 2.476908, 48.897825 ] } },
{ "type": "Feature", "properties": { "building.architecture": "Maisons de bourg", "building.architecture.niveau": " 2", "addr.housenumber": "149", "addr.street": "Rue Baudin" }, "geometry": { "type": "Point", "coordinates": [ 2.477039, 48.897805 ] } },
{ "type": "Feature", "properties": { "building.architecture": "Lotissements\/maisons pavillonnaires", "building.architecture.niveau": " 2", "addr.housenumber": "137", "addr.street": "Rue Baudin" }, "geometry": { "type": "Point", "coordinates": [ 2.476149, 48.897948 ] } },
{ "type": "Feature", "properties": { "building.architecture": "Maisons de bourg", "building.architecture.niveau": " 2", "addr.housenumber": "2", "addr.street": "Rue de la Fraternite" }, "geometry": { "type": "Point", "coordinates": [ 2.475938, 48.899124 ] } },
{ "type": "Feature", "properties": { "building.architecture": "Maisons de bourg", "building.architecture.niveau": " 2", "addr.housenumber": "8", "addr.street": "Rue de la Fraternite" }, "geometry": { "type": "Point", "coordinates": [ 2.476502, 48.898668 ] } },
{ "type": "Feature", "properties": { "building.architecture": "Maisons de bourg", "building.architecture.niveau": " 2", "addr.housenumber": "11", "addr.street": "Rue de la Fraternite" }, "geometry": { "type": "Point", "coordinates": [ 2.476727, 48.898587 ] } },
{ "type": "Feature", "properties": { "building.architecture": "Lotissements\/maisons pavillonnaires", "building.architecture.niveau": " 2", "addr.housenumber": "8", "addr.street": "Rue de l'Egalité" }, "geometry": { "type": "Point", "coordinates": [ 2.47521, 48.899088 ] } },
{ "type": "Feature", "properties": { "building.architecture": "Lotissements\/maisons pavillonnaires", "building.architecture.niveau": " 2", "addr.housenumber": "10", "addr.street": "Rue de l'Egalité" }, "geometry": { "type": "Point", "coordinates": [ 2.475144, 48.898993 ] } },
{ "type": "Feature", "properties": { "building.architecture": "Lotissements\/maisons pavillonnaires", "building.architecture.niveau": " 2", "addr.housenumber": "17", "addr.street": "Rue de l'Egalité" }, "geometry": { "type": "Point", "coordinates": [ 2.474845, 48.898637 ] } },
{ "type": "Feature", "properties": { "building.architecture": "Lotissements\/maisons pavillonnaires", "building.architecture.niveau": " 2", "addr.housenumber": "14bis", "addr.street": "Rue de l'Egalité" }, "geometry": { "type": "Point", "coordinates": [ 2.474917, 48.898829 ] } },
{ "type": "Feature", "properties": { "building.architecture": "Lotissements\/maisons pavillonnaires", "building.architecture.niveau": " 2", "addr.housenumber": "18", "addr.street": "Rue de l'Egalité" }, "geometry": { "type": "Point", "coordinates": [ 2.474754, 48.898707 ] } },
{ "type": "Feature", "properties": { "building.architecture": "Lotissements\/maisons pavillonnaires", "building.architecture.niveau": " 2", "addr.housenumber": "22", "addr.street": "Rue de l'Egalité" }, "geometry": { "type": "Point", "coordinates": [ 2.474459, 48.898543 ] } },
{ "type": "Feature", "properties": { "building.architecture": "Lotissements\/maisons pavillonnaires", "building.architecture.niveau": " 2", "addr.housenumber": "14", "addr.street": "Rue du Sergent Bobillot" }, "geometry": { "type": "Point", "coordinates": [ 2.474952, 48.896024 ] } },
{ "type": "Feature", "properties": { "building.architecture": "Lotissements\/maisons pavillonnaires", "building.architecture.niveau": " 2", "addr.housenumber": "5", "addr.street": "Rue Jules Lelong" }, "geometry": { "type": "Point", "coordinates": [ 2.475433, 48.896208 ] } },
{ "type": "Feature", "properties": { "building.architecture": "Lotissements\/maisons pavillonnaires", "building.architecture.niveau": " 2", "addr.housenumber": "6", "addr.street": "Rue Jules Lelong" }, "geometry": { "type": "Point", "coordinates": [ 2.475645, 48.896374 ] } },
{ "type": "Feature", "properties": { "building.architecture": "Lotissements\/maisons pavillonnaires", "building.architecture.niveau": " 2", "addr.housenumber": "7", "addr.street": "Rue Jules Lelong" }, "geometry": { "type": "Point", "coordinates": [ 2.475488, 48.896293 ] } },
{ "type": "Feature", "properties": { "building.architecture": "Lotissements\/maisons pavillonnaires", "building.architecture.niveau": " 2", "addr.housenumber": "8", "addr.street": "Rue Jules Lelong" }, "geometry": { "type": "Point", "coordinates": [ 2.475691, 48.896438 ] } },
{ "type": "Feature", "properties": { "building.architecture": "Lotissements\/maisons pavillonnaires", "building.architecture.niveau": " 2", "addr.housenumber": "9", "addr.street": "Rue Jules Lelong" }, "geometry": { "type": "Point", "coordinates": [ 2.475547, 48.896377 ] } },
{ "type": "Feature", "properties": { "building.architecture": "Lotissements\/maisons pavillonnaires", "building.architecture.niveau": " 2", "addr.housenumber": "10", "addr.street": "Rue Jules Lelong" }, "geometry": { "type": "Point", "coordinates": [ 2.475769, 48.896555 ] } },
{ "type": "Feature", "properties": { "building.architecture": "Lotissements\/maisons pavillonnaires", "building.architecture.niveau": " 2", "addr.housenumber": "11", "addr.street": "Rue Jules Lelong" }, "geometry": { "type": "Point", "coordinates": [ 2.4756, 48.896458 ] } },
{ "type": "Feature", "properties": { "building.architecture": "Maisons de bourg", "building.architecture.niveau": " 2", "addr.housenumber": "14", "addr.street": "Rue Jules Lelong" }, "geometry": { "type": "Point", "coordinates": [ 2.47591, 48.896766 ] } },
{ "type": "Feature", "properties": { "building.architecture": "Maisons de bourg", "building.architecture.niveau": " 2", "addr.housenumber": "15", "addr.street": "Rue Jules Lelong" }, "geometry": { "type": "Point", "coordinates": [ 2.475719, 48.896632 ] } },
{ "type": "Feature", "properties": { "building.architecture": "Maisons de bourg", "building.architecture.niveau": " 2", "addr.housenumber": "21", "addr.street": "Rue Jules Lelong" }, "geometry": { "type": "Point", "coordinates": [ 2.475854, 48.896835 ] } },
{ "type": "Feature", "properties": { "building.architecture": "Lotissements\/maisons pavillonnaires", "building.architecture.niveau": " 2", "addr.housenumber": "4", "addr.street": "Rue Jules Lelong" }, "geometry": { "type": "Point", "coordinates": [ 2.475609, 48.896316 ] } },
{ "type": "Feature", "properties": { "building.architecture": "Maisons de bourg", "building.architecture.niveau": " 2", "addr.housenumber": "116", "addr.street": "Rue Baudin" }, "geometry": { "type": "Point", "coordinates": [ 2.47474, 48.898076 ] } },
{ "type": "Feature", "properties": { "building.architecture": "Lotissements\/maisons pavillonnaires", "building.architecture.niveau": " 2", "addr.housenumber": "126", "addr.street": "Rue Baudin" }, "geometry": { "type": "Point", "coordinates": [ 2.47542, 48.897953 ] } },
{ "type": "Feature", "properties": { "building.architecture": "Lotissements\/maisons pavillonnaires", "building.architecture.niveau": " 2", "addr.housenumber": "127", "addr.street": "Rue Baudin" }, "geometry": { "type": "Point", "coordinates": [ 2.475218, 48.898098 ] } },
{ "type": "Feature", "properties": { "building.architecture": "Lotissements\/maisons pavillonnaires", "building.architecture.niveau": " 2", "addr.housenumber": "128", "addr.street": "Rue Baudin" }, "geometry": { "type": "Point", "coordinates": [ 2.475537, 48.897933 ] } },
{ "type": "Feature", "properties": { "building.architecture": "Lotissements\/maisons pavillonnaires", "building.architecture.niveau": " 2", "addr.housenumber": "131", "addr.street": "Rue Baudin" }, "geometry": { "type": "Point", "coordinates": [ 2.47563, 48.898033 ] } },
{ "type": "Feature", "properties": { "building.architecture": "Lotissements\/maisons pavillonnaires", "building.architecture.niveau": " 2", "addr.housenumber": "133", "addr.street": "Rue Baudin" }, "geometry": { "type": "Point", "coordinates": [ 2.475849, 48.897997 ] } },
{ "type": "Feature", "properties": { "building.architecture": "Lotissements\/maisons pavillonnaires", "building.architecture.niveau": " 2", "addr.housenumber": "134", "addr.street": "Rue Baudin" }, "geometry": { "type": "Point", "coordinates": [ 2.47598, 48.897878 ] } },
{ "type": "Feature", "properties": { "building.architecture": "Lotissements\/maisons pavillonnaires", "building.architecture.niveau": " 2", "addr.housenumber": "136", "addr.street": "Rue Baudin" }, "geometry": { "type": "Point", "coordinates": [ 2.476068, 48.897863 ] } },
{ "type": "Feature", "properties": { "building.architecture": "Lotissements\/maisons pavillonnaires", "building.architecture.niveau": " 2", "addr.housenumber": "139", "addr.street": "Rue Baudin" }, "geometry": { "type": "Point", "coordinates": [ 2.476298, 48.897924 ] } },
{ "type": "Feature", "properties": { "building.architecture": "Lotissements\/maisons pavillonnaires", "building.architecture.niveau": " 2", "addr.housenumber": "141", "addr.street": "Rue Baudin" }, "geometry": { "type": "Point", "coordinates": [ 2.476487, 48.897892 ] } },
{ "type": "Feature", "properties": { "building.architecture": "Lotissements\/maisons pavillonnaires", "building.architecture.niveau": " 2", "addr.housenumber": "142", "addr.street": "Rue Baudin" }, "geometry": { "type": "Point", "coordinates": [ 2.476273, 48.89783 ] } },
{ "type": "Feature", "properties": { "building.architecture": "Lotissements\/maisons pavillonnaires", "building.architecture.niveau": " 2", "addr.housenumber": "143", "addr.street": "Rue Baudin" }, "geometry": { "type": "Point", "coordinates": [ 2.476691, 48.897926 ] } },
{ "type": "Feature", "properties": { "building.architecture": "Maisons de bourg", "building.architecture.niveau": " 2", "addr.housenumber": "145", "addr.street": "Rue Baudin" }, "geometry": { "type": "Point", "coordinates": [ 2.476748, 48.897851 ] } },
{ "type": "Feature", "properties": { "building.architecture": "Maisons de bourg", "building.architecture.niveau": " 2", "addr.housenumber": "147", "addr.street": "Rue Baudin" }, "geometry": { "type": "Point", "coordinates": [ 2.476908, 48.897825 ] } },
{ "type": "Feature", "properties": { "building.architecture": "Maisons de bourg", "building.architecture.niveau": " 2", "addr.housenumber": "149", "addr.street": "Rue Baudin" }, "geometry": { "type": "Point", "coordinates": [ 2.477039, 48.897805 ] } },
{ "type": "Feature", "properties": { "building.architecture": "Lotissements\/maisons pavillonnaires", "building.architecture.niveau": " 2", "addr.housenumber": "137", "addr.street": "Rue Baudin" }, "geometry": { "type": "Point", "coordinates": [ 2.476149, 48.897948 ] } },
{ "type": "Feature", "properties": { "building.architecture": "Maisons de bourg", "building.architecture.niveau": " 2", "addr.housenumber": "2", "addr.street": "Rue de la Fraternite" }, "geometry": { "type": "Point", "coordinates": [ 2.475938, 48.899124 ] } },
{ "type": "Feature", "properties": { "building.architecture": "Maisons de bourg", "building.architecture.niveau": " 2", "addr.housenumber": "8", "addr.street": "Rue de la Fraternite" }, "geometry": { "type": "Point", "coordinates": [ 2.476502, 48.898668 ] } },
{ "type": "Feature", "properties": { "building.architecture": "Maisons de bourg", "building.architecture.niveau": " 2", "addr.housenumber": "11", "addr.street": "Rue de la Fraternite" }, "geometry": { "type": "Point", "coordinates": [ 2.476727, 48.898587 ] } },
{ "type": "Feature", "properties": { "building.architecture": "Lotissements\/maisons pavillonnaires", "building.architecture.niveau": " 2", "addr.housenumber": "8", "addr.street": "Rue de l'Egalité" }, "geometry": { "type": "Point", "coordinates": [ 2.47521, 48.899088 ] } },
{ "type": "Feature", "properties": { "building.architecture": "Lotissements\/maisons pavillonnaires", "building.architecture.niveau": " 2", "addr.housenumber": "10", "addr.street": "Rue de l'Egalité" }, "geometry": { "type": "Point", "coordinates": [ 2.475144, 48.898993 ] } },
{ "type": "Feature", "properties": { "building.architecture": "Lotissements\/maisons pavillonnaires", "building.architecture.niveau": " 2", "addr.housenumber": "17", "addr.street": "Rue de l'Egalité" }, "geometry": { "type": "Point", "coordinates": [ 2.474845, 48.898637 ] } },
{ "type": "Feature", "properties": { "building.architecture": "Lotissements\/maisons pavillonnaires", "building.architecture.niveau": " 2", "addr.housenumber": "14bis", "addr.street": "Rue de l'Egalité" }, "geometry": { "type": "Point", "coordinates": [ 2.474917, 48.898829 ] } },
{ "type": "Feature", "properties": { "building.architecture": "Lotissements\/maisons pavillonnaires", "building.architecture.niveau": " 2", "addr.housenumber": "18", "addr.street": "Rue de l'Egalité" }, "geometry": { "type": "Point", "coordinates": [ 2.474754, 48.898707 ] } },
{ "type": "Feature", "properties": { "building.architecture": "Lotissements\/maisons pavillonnaires", "building.architecture.niveau": " 2", "addr.housenumber": "22", "addr.street": "Rue de l'Egalité" }, "geometry": { "type": "Point", "coordinates": [ 2.474459, 48.898543 ] } },
{ "type": "Feature", "properties": { "building.architecture": "Lotissements\/maisons pavillonnaires", "building.architecture.niveau": " 2", "addr.housenumber": "14", "addr.street": "Rue du Sergent Bobillot" }, "geometry": { "type": "Point", "coordinates": [ 2.474952, 48.896024 ] } },
{ "type": "Feature", "properties": { "building.architecture": "Lotissements\/maisons pavillonnaires", "building.architecture.niveau": " 2", "addr.housenumber": "5", "addr.street": "Rue Jules Lelong" }, "geometry": { "type": "Point", "coordinates": [ 2.475433, 48.896208 ] } },
{ "type": "Feature", "properties": { "building.architecture": "Lotissements\/maisons pavillonnaires", "building.architecture.niveau": " 2", "addr.housenumber": "6", "addr.street": "Rue Jules Lelong" }, "geometry": { "type": "Point", "coordinates": [ 2.475645, 48.896374 ] } },
{ "type": "Feature", "properties": { "building.architecture": "Lotissements\/maisons pavillonnaires", "building.architecture.niveau": " 2", "addr.housenumber": "7", "addr.street": "Rue Jules Lelong" }, "geometry": { "type": "Point", "coordinates": [ 2.475488, 48.896293 ] } },
{ "type": "Feature", "properties": { "building.architecture": "Lotissements\/maisons pavillonnaires", "building.architecture.niveau": " 2", "addr.housenumber": "8", "addr.street": "Rue Jules Lelong" }, "geometry": { "type": "Point", "coordinates": [ 2.475691, 48.896438 ] } },
{ "type": "Feature", "properties": { "building.architecture": "Lotissements\/maisons pavillonnaires", "building.architecture.niveau": " 2", "addr.housenumber": "9", "addr.street": "Rue Jules Lelong" }, "geometry": { "type": "Point", "coordinates": [ 2.475547, 48.896377 ] } },
{ "type": "Feature", "properties": { "building.architecture": "Lotissements\/maisons pavillonnaires", "building.architecture.niveau": " 2", "addr.housenumber": "10", "addr.street": "Rue Jules Lelong" }, "geometry": { "type": "Point", "coordinates": [ 2.475769, 48.896555 ] } },
{ "type": "Feature", "properties": { "building.architecture": "Lotissements\/maisons pavillonnaires", "building.architecture.niveau": " 2", "addr.housenumber": "11", "addr.street": "Rue Jules Lelong" }, "geometry": { "type": "Point", "coordinates": [ 2.4756, 48.896458 ] } },
{ "type": "Feature", "properties": { "building.architecture": "Maisons de bourg", "building.architecture.niveau": " 2", "addr.housenumber": "14", "addr.street": "Rue Jules Lelong" }, "geometry": { "type": "Point", "coordinates": [ 2.47591, 48.896766 ] } },
{ "type": "Feature", "properties": { "building.architecture": "Maisons de bourg", "building.architecture.niveau": " 2", "addr.housenumber": "15", "addr.street": "Rue Jules Lelong" }, "geometry": { "type": "Point", "coordinates": [ 2.475719, 48.896632 ] } },
{ "type": "Feature", "properties": { "building.architecture": "Maisons de bourg", "building.architecture.niveau": " 2", "addr.housenumber": "21", "addr.street": "Rue Jules Lelong" }, "geometry": { "type": "Point", "coordinates": [ 2.475854, 48.896835 ] } },
{ "type": "Feature", "properties": { "building.architecture": "Lotissements\/maisons pavillonnaires", "building.architecture.niveau": " 2", "addr.housenumber": "4", "addr.street": "Rue Jules Lelong" }, "geometry": { "type": "Point", "coordinates": [ 2.475609, 48.896316 ] } }
]
}
