{
"type": "FeatureCollection",
"name": "10_zone",
"crs": { "type": "name", "properties": { "name": "urn:ogc:def:crs:OGC:1.3:CRS84" } },
"features": [
{ "type": "Feature", "properties": { "name": 10, "boundary": "patrimoine" }, "geometry": { "type": "Polygon", "coordinates": [ [ [ 2.474927960351079, 48.895978969132862 ], [ 2.4743243105714, 48.898590043330671 ], [ 2.474594543653784, 48.898747062326969 ], [ 2.475237368100125, 48.89910623180932 ], [ 2.4757079114186, 48.899362241787848 ], [ 2.475974415085391, 48.899185947675527 ], [ 2.476827396684908, 48.898578328721477 ], [ 2.477301867258535, 48.897951026460113 ], [ 2.477016485460906, 48.897284692378683 ], [ 2.475712391766285, 48.896317975513234 ], [ 2.474927960351079, 48.895978969132862 ] ] ] } },
{ "type": "Feature", "properties": { "name": 10, "boundary": "patrimoine" }, "geometry": { "type": "Polygon", "coordinates": [ [ [ 2.474927960351079, 48.895978969132862 ], [ 2.4743243105714, 48.898590043330671 ], [ 2.474594543653784, 48.898747062326969 ], [ 2.475237368100125, 48.89910623180932 ], [ 2.4757079114186, 48.899362241787848 ], [ 2.475974415085391, 48.899185947675527 ], [ 2.476827396684908, 48.898578328721477 ], [ 2.477301867258535, 48.897951026460113 ], [ 2.477016485460906, 48.897284692378683 ], [ 2.475712391766285, 48.896317975513234 ], [ 2.474927960351079, 48.895978969132862 ] ] ] } },
{ "type": "Feature", "properties": { "name": 10, "boundary": "patrimoine" }, "geometry": { "type": "Polygon", "coordinates": [ [ [ 2.474927960351079, 48.895978969132862 ], [ 2.4743243105714, 48.898590043330671 ], [ 2.474594543653784, 48.898747062326969 ], [ 2.475237368100125, 48.89910623180932 ], [ 2.4757079114186, 48.899362241787848 ], [ 2.475974415085391, 48.899185947675527 ], [ 2.476827396684908, 48.898578328721477 ], [ 2.477301867258535, 48.897951026460113 ], [ 2.477016485460906, 48.897284692378683 ], [ 2.475712391766285, 48.896317975513234 ], [ 2.474927960351079, 48.895978969132862 ] ] ] } }
]
}
