{
"type": "FeatureCollection",
"name": "11_adresse",
"crs": { "type": "name", "properties": { "name": "urn:ogc:def:crs:OGC:1.3:CRS84" } },
"features": [
{ "type": "Feature", "properties": { "building.architecture": "Lotissements/maisons pavillonnaires", "building.architecture.niveau": " 2", "addr.housenumber": "9", "addr.street": "Allée Alice" }, "geometry": { "type": "Point", "coordinates": [ 2.497062, 48.900206 ] } },
{ "type": "Feature", "properties": { "building.architecture": "Lotissements/maisons pavillonnaires", "building.architecture.niveau": " 2", "addr.housenumber": "25", "addr.street": "Allée Alice" }, "geometry": { "type": "Point", "coordinates": [ 2.49745, 48.901111 ] } },
{ "type": "Feature", "properties": { "building.architecture": "Lotissements/maisons pavillonnaires", "building.architecture.niveau": " 2", "addr.housenumber": "27", "addr.street": "Allée Alice" }, "geometry": { "type": "Point", "coordinates": [ 2.497494, 48.901213 ] } },
{ "type": "Feature", "properties": { "building.architecture": "Lotissements/maisons pavillonnaires", "building.architecture.niveau": " 2", "addr.housenumber": "13", "addr.street": "Allee Andrea" }, "geometry": { "type": "Point", "coordinates": [ 2.498276, 48.900549 ] } },
{ "type": "Feature", "properties": { "building.architecture": "Lotissements/maisons pavillonnaires", "building.architecture.niveau": " 2", "addr.housenumber": "42", "addr.street": "Allee Andrea" }, "geometry": { "type": "Point", "coordinates": [ 2.498769, 48.90146 ] } },
{ "type": "Feature", "properties": { "building.architecture": "Lotissements/maisons pavillonnaires", "building.architecture.niveau": " 2", "addr.housenumber": "11", "addr.street": "Allée de la Régale" }, "geometry": { "type": "Point", "coordinates": [ 2.493872, 48.903935 ] } },
{ "type": "Feature", "properties": { "building.architecture": "Lotissements/maisons pavillonnaires", "building.architecture.niveau": " 2", "addr.housenumber": "50", "addr.street": "Allée du Rendez-vous" }, "geometry": { "type": "Point", "coordinates": [ 2.498761, 48.902427 ] } },
{ "type": "Feature", "properties": { "building.architecture": "Lotissements/maisons pavillonnaires", "building.architecture.niveau": " 2", "addr.housenumber": "1bis", "addr.street": "Allée Marcel Sembat" }, "geometry": { "type": "Point", "coordinates": [ 2.495993, 48.8999 ] } },
{ "type": "Feature", "properties": { "building.architecture": "Immeubles", "building.architecture.niveau": " 2", "addr.housenumber": null, "addr.street": "Allée Molière" }, "geometry": { "type": "Point", "coordinates": [ 2.495593, 48.897418 ] } },
{ "type": "Feature", "properties": { "building.architecture": "Lotissements/maisons pavillonnaires", "building.architecture.niveau": " 2", "addr.housenumber": "7bis", "addr.street": "Allée Molière" }, "geometry": { "type": "Point", "coordinates": [ 2.495681, 48.89761 ] } },
{ "type": "Feature", "properties": { "building.architecture": "Lotissements/maisons pavillonnaires", "building.architecture.niveau": " 2", "addr.housenumber": "2", "addr.street": "Allée Racine" }, "geometry": { "type": "Point", "coordinates": [ 2.494724, 48.896892 ] } },
{ "type": "Feature", "properties": { "building.architecture": "Lotissements/maisons pavillonnaires", "building.architecture.niveau": " 2", "addr.housenumber": "18", "addr.street": "Allée Racine" }, "geometry": { "type": "Point", "coordinates": [ 2.493919, 48.895753 ] } },
{ "type": "Feature", "properties": { "building.architecture": "Lotissements/maisons pavillonnaires", "building.architecture.niveau": " 2", "addr.housenumber": "28", "addr.street": "Allée Racine" }, "geometry": { "type": "Point", "coordinates": [ 2.493535, 48.895228 ] } },
{ "type": "Feature", "properties": { "building.architecture": "Architecture administrative - équipements publics", "building.architecture.niveau": " 3", "addr.housenumber": "8", "addr.street": "Avenue de Verdun" }, "geometry": { "type": "Point", "coordinates": [ 2.489814, 48.904717 ] } },
{ "type": "Feature", "properties": { "building.architecture": "Lotissements/maisons pavillonnaires", "building.architecture.niveau": "2", "addr.housenumber": "164", "addr.street": "Avenue Henri Barbusse" }, "geometry": { "type": "Point", "coordinates": [ 2.495383, 48.899538 ] } },
{ "type": "Feature", "properties": { "building.architecture": "Lotissements/maisons pavillonnaires", "building.architecture.niveau": " 2", "addr.housenumber": "115", "addr.street": "Avenue Henri Barbusse" }, "geometry": { "type": "Point", "coordinates": [ 2.491789, 48.90042 ] } },
{ "type": "Feature", "properties": { "building.architecture": "Lotissements/maisons pavillonnaires", "building.architecture.niveau": " 2", "addr.housenumber": "134", "addr.street": "Avenue Henri Barbusse" }, "geometry": { "type": "Point", "coordinates": [ 2.492489, 48.900015 ] } },
{ "type": "Feature", "properties": { "building.architecture": "Lotissements/maisons pavillonnaires", "building.architecture.niveau": " 2", "addr.housenumber": "151", "addr.street": "Avenue Henri Barbusse" }, "geometry": { "type": "Point", "coordinates": [ 2.495187, 48.899757 ] } },
{ "type": "Feature", "properties": { "building.architecture": "Lotissements/maisons pavillonnaires", "building.architecture.niveau": " 2", "addr.housenumber": "157", "addr.street": "Avenue Henri Barbusse" }, "geometry": { "type": "Point", "coordinates": [ 2.495908, 48.899753 ] } },
{ "type": "Feature", "properties": { "building.architecture": "Immeubles", "building.architecture.niveau": " 2", "addr.housenumber": "166", "addr.street": "Avenue Henri Barbusse" }, "geometry": { "type": "Point", "coordinates": [ 2.495746, 48.89963 ] } },
{ "type": "Feature", "properties": { "building.architecture": "Lotissements/maisons pavillonnaires", "building.architecture.niveau": " 2", "addr.housenumber": "168", "addr.street": "Avenue Henri Barbusse" }, "geometry": { "type": "Point", "coordinates": [ 2.495952, 48.899626 ] } },
{ "type": "Feature", "properties": { "building.architecture": "Immeubles", "building.architecture.niveau": " 3", "addr.housenumber": null, "addr.street": "Place Nicole Neuburger" }, "geometry": { "type": "Point", "coordinates": [ 2.49159, 48.902319 ] } },
{ "type": "Feature", "properties": { "building.architecture": "Immeubles", "building.architecture.niveau": " 3", "addr.housenumber": null, "addr.street": "Place Nicole Neuburger" }, "geometry": { "type": "Point", "coordinates": [ 2.49159, 48.902319 ] } },
{ "type": "Feature", "properties": { "building.architecture": "Cités-jardins et Grands ensembles", "building.architecture.niveau": " 2", "addr.housenumber": "43", "addr.street": "Place Nicole Neuburger" }, "geometry": { "type": "Point", "coordinates": [ 2.492109, 48.901611 ] } },
{ "type": "Feature", "properties": { "building.architecture": "Lotissements/maisons pavillonnaires", "building.architecture.niveau": " 2", "addr.housenumber": "29", "addr.street": "Rue Béranger" }, "geometry": { "type": "Point", "coordinates": [ 2.495587, 48.90454 ] } },
{ "type": "Feature", "properties": { "building.architecture": "Lotissements/maisons pavillonnaires", "building.architecture.niveau": " 2", "addr.housenumber": "37", "addr.street": "Rue Béranger" }, "geometry": { "type": "Point", "coordinates": [ 2.496139, 48.904558 ] } },
{ "type": "Feature", "properties": { "building.architecture": "Lotissements/maisons pavillonnaires", "building.architecture.niveau": " 2", "addr.housenumber": "30", "addr.street": "Rue de l'Aviation" }, "geometry": { "type": "Point", "coordinates": [ 2.496186, 48.90153 ] } },
{ "type": "Feature", "properties": { "building.architecture": "Lotissements/maisons pavillonnaires", "building.architecture.niveau": " 2", "addr.housenumber": "10bis", "addr.street": "Rue de Plaisance" }, "geometry": { "type": "Point", "coordinates": [ 2.494541, 48.895092 ] } },
{ "type": "Feature", "properties": { "building.architecture": "Lotissements/maisons pavillonnaires", "building.architecture.niveau": " 2", "addr.housenumber": "18", "addr.street": "Rue de Tremeuge" }, "geometry": { "type": "Point", "coordinates": [ 2.49513, 48.898864 ] } },
{ "type": "Feature", "properties": { "building.architecture": "Lotissements/maisons pavillonnaires", "building.architecture.niveau": " 2", "addr.housenumber": "1bis", "addr.street": "Rue du Chalet" }, "geometry": { "type": "Point", "coordinates": [ 2.494238, 48.899939 ] } },
{ "type": "Feature", "properties": { "building.architecture": "Lotissements/maisons pavillonnaires", "building.architecture.niveau": " 2", "addr.housenumber": "8", "addr.street": "Rue du Progrès" }, "geometry": { "type": "Point", "coordinates": [ 2.495401, 48.896206 ] } },
{ "type": "Feature", "properties": { "building.architecture": "Lotissements/maisons pavillonnaires", "building.architecture.niveau": " 2", "addr.housenumber": "25", "addr.street": "Rue Eugène Masson" }, "geometry": { "type": "Point", "coordinates": [ 2.495659, 48.8982 ] } },
{ "type": "Feature", "properties": { "building.architecture": "Lotissements/maisons pavillonnaires", "building.architecture.niveau": " 2", "addr.housenumber": "20", "addr.street": "Rue Georges Elie" }, "geometry": { "type": "Point", "coordinates": [ 2.491963, 48.906542 ] } },
{ "type": "Feature", "properties": { "building.architecture": "Lotissements/maisons pavillonnaires", "building.architecture.niveau": " 2", "addr.housenumber": "14", "addr.street": "Rue Guy de Maupassant" }, "geometry": { "type": "Point", "coordinates": [ 2.493257, 48.89912 ] } },
{ "type": "Feature", "properties": { "building.architecture": "Lotissements/maisons pavillonnaires", "building.architecture.niveau": " 2", "addr.housenumber": "6", "addr.street": "Rue Henri Douillot" }, "geometry": { "type": "Point", "coordinates": [ 2.49482, 48.905383 ] } },
{ "type": "Feature", "properties": { "building.architecture": "Architecture industrielle et ferroviaire", "building.architecture.niveau": " 2", "addr.housenumber": "140", "addr.street": "Rue Louis Auguste Blanqui" }, "geometry": { "type": "Point", "coordinates": [ 2.490938, 48.898025 ] } },
{ "type": "Feature", "properties": { "building.architecture": "Lotissements/maisons pavillonnaires", "building.architecture.niveau": " 3", "addr.housenumber": "147", "addr.street": "Rue Louis Auguste Blanqui" }, "geometry": { "type": "Point", "coordinates": [ 2.491924, 48.89792 ] } },
{ "type": "Feature", "properties": { "building.architecture": "Lotissements/maisons pavillonnaires", "building.architecture.niveau": " 2", "addr.housenumber": "148", "addr.street": "Rue Louis Auguste Blanqui" }, "geometry": { "type": "Point", "coordinates": [ 2.4917, 48.897881 ] } },
{ "type": "Feature", "properties": { "building.architecture": "Lotissements/maisons pavillonnaires", "building.architecture.niveau": " 2", "addr.housenumber": "150", "addr.street": "Rue Louis Auguste Blanqui" }, "geometry": { "type": "Point", "coordinates": [ 2.491824, 48.897857 ] } },
{ "type": "Feature", "properties": { "building.architecture": "Lotissements/maisons pavillonnaires", "building.architecture.niveau": " 2", "addr.housenumber": "156", "addr.street": "Rue Louis Auguste Blanqui" }, "geometry": { "type": "Point", "coordinates": [ 2.492241, 48.897639 ] } },
{ "type": "Feature", "properties": { "building.architecture": "Lotissements/maisons pavillonnaires", "building.architecture.niveau": " 2", "addr.housenumber": "186", "addr.street": "Rue Louis Auguste Blanqui" }, "geometry": { "type": "Point", "coordinates": [ 2.494686, 48.897008 ] } },
{ "type": "Feature", "properties": { "building.architecture": "Lotissements/maisons pavillonnaires", "building.architecture.niveau": " 2", "addr.housenumber": "22", "addr.street": "Rue Raoul" }, "geometry": { "type": "Point", "coordinates": [ 2.492064, 48.898822 ] } },
{ "type": "Feature", "properties": { "building.architecture": "Lotissements\/maisons pavillonnaires", "building.architecture.niveau": " 2", "addr.housenumber": "9", "addr.street": "Allée Alice" }, "geometry": { "type": "Point", "coordinates": [ 2.497062, 48.900206 ] } },
{ "type": "Feature", "properties": { "building.architecture": "Lotissements\/maisons pavillonnaires", "building.architecture.niveau": " 2", "addr.housenumber": "25", "addr.street": "Allée Alice" }, "geometry": { "type": "Point", "coordinates": [ 2.49745, 48.901111 ] } },
{ "type": "Feature", "properties": { "building.architecture": "Lotissements\/maisons pavillonnaires", "building.architecture.niveau": " 2", "addr.housenumber": "27", "addr.street": "Allée Alice" }, "geometry": { "type": "Point", "coordinates": [ 2.497494, 48.901213 ] } },
{ "type": "Feature", "properties": { "building.architecture": "Lotissements\/maisons pavillonnaires", "building.architecture.niveau": " 2", "addr.housenumber": "13", "addr.street": "Allee Andrea" }, "geometry": { "type": "Point", "coordinates": [ 2.498276, 48.900549 ] } },
{ "type": "Feature", "properties": { "building.architecture": "Lotissements\/maisons pavillonnaires", "building.architecture.niveau": " 2", "addr.housenumber": "42", "addr.street": "Allee Andrea" }, "geometry": { "type": "Point", "coordinates": [ 2.498769, 48.90146 ] } },
{ "type": "Feature", "properties": { "building.architecture": "Lotissements\/maisons pavillonnaires", "building.architecture.niveau": " 2", "addr.housenumber": "11", "addr.street": "Allée de la Régale" }, "geometry": { "type": "Point", "coordinates": [ 2.493872, 48.903935 ] } },
{ "type": "Feature", "properties": { "building.architecture": "Lotissements\/maisons pavillonnaires", "building.architecture.niveau": " 2", "addr.housenumber": "50", "addr.street": "Allée du Rendez-vous" }, "geometry": { "type": "Point", "coordinates": [ 2.498761, 48.902427 ] } },
{ "type": "Feature", "properties": { "building.architecture": "Lotissements\/maisons pavillonnaires", "building.architecture.niveau": " 2", "addr.housenumber": "1bis", "addr.street": "Allée Marcel Sembat" }, "geometry": { "type": "Point", "coordinates": [ 2.495993, 48.8999 ] } },
{ "type": "Feature", "properties": { "building.architecture": "Immeubles", "building.architecture.niveau": " 2", "addr.housenumber": null, "addr.street": "Allée Molière" }, "geometry": { "type": "Point", "coordinates": [ 2.495593, 48.897418 ] } },
{ "type": "Feature", "properties": { "building.architecture": "Lotissements\/maisons pavillonnaires", "building.architecture.niveau": " 2", "addr.housenumber": "7bis", "addr.street": "Allée Molière" }, "geometry": { "type": "Point", "coordinates": [ 2.495681, 48.89761 ] } },
{ "type": "Feature", "properties": { "building.architecture": "Lotissements\/maisons pavillonnaires", "building.architecture.niveau": " 2", "addr.housenumber": "2", "addr.street": "Allée Racine" }, "geometry": { "type": "Point", "coordinates": [ 2.494724, 48.896892 ] } },
{ "type": "Feature", "properties": { "building.architecture": "Lotissements\/maisons pavillonnaires", "building.architecture.niveau": " 2", "addr.housenumber": "18", "addr.street": "Allée Racine" }, "geometry": { "type": "Point", "coordinates": [ 2.493919, 48.895753 ] } },
{ "type": "Feature", "properties": { "building.architecture": "Lotissements\/maisons pavillonnaires", "building.architecture.niveau": " 2", "addr.housenumber": "28", "addr.street": "Allée Racine" }, "geometry": { "type": "Point", "coordinates": [ 2.493535, 48.895228 ] } },
{ "type": "Feature", "properties": { "building.architecture": "Architecture administrative - équipements publics", "building.architecture.niveau": " 3", "addr.housenumber": "8", "addr.street": "Avenue de Verdun" }, "geometry": { "type": "Point", "coordinates": [ 2.489814, 48.904717 ] } },
{ "type": "Feature", "properties": { "building.architecture": "Lotissements\/maisons pavillonnaires", "building.architecture.niveau": "2", "addr.housenumber": "164", "addr.street": "Avenue Henri Barbusse" }, "geometry": { "type": "Point", "coordinates": [ 2.495383, 48.899538 ] } },
{ "type": "Feature", "properties": { "building.architecture": "Lotissements\/maisons pavillonnaires", "building.architecture.niveau": " 2", "addr.housenumber": "115", "addr.street": "Avenue Henri Barbusse" }, "geometry": { "type": "Point", "coordinates": [ 2.491789, 48.90042 ] } },
{ "type": "Feature", "properties": { "building.architecture": "Lotissements\/maisons pavillonnaires", "building.architecture.niveau": " 2", "addr.housenumber": "134", "addr.street": "Avenue Henri Barbusse" }, "geometry": { "type": "Point", "coordinates": [ 2.492489, 48.900015 ] } },
{ "type": "Feature", "properties": { "building.architecture": "Lotissements\/maisons pavillonnaires", "building.architecture.niveau": " 2", "addr.housenumber": "151", "addr.street": "Avenue Henri Barbusse" }, "geometry": { "type": "Point", "coordinates": [ 2.495187, 48.899757 ] } },
{ "type": "Feature", "properties": { "building.architecture": "Lotissements\/maisons pavillonnaires", "building.architecture.niveau": " 2", "addr.housenumber": "157", "addr.street": "Avenue Henri Barbusse" }, "geometry": { "type": "Point", "coordinates": [ 2.495908, 48.899753 ] } },
{ "type": "Feature", "properties": { "building.architecture": "Immeubles", "building.architecture.niveau": " 2", "addr.housenumber": "166", "addr.street": "Avenue Henri Barbusse" }, "geometry": { "type": "Point", "coordinates": [ 2.495746, 48.89963 ] } },
{ "type": "Feature", "properties": { "building.architecture": "Lotissements\/maisons pavillonnaires", "building.architecture.niveau": " 2", "addr.housenumber": "168", "addr.street": "Avenue Henri Barbusse" }, "geometry": { "type": "Point", "coordinates": [ 2.495952, 48.899626 ] } },
{ "type": "Feature", "properties": { "building.architecture": "Immeubles", "building.architecture.niveau": " 3", "addr.housenumber": null, "addr.street": "Place Nicole Neuburger" }, "geometry": { "type": "Point", "coordinates": [ 2.49159, 48.902319 ] } },
{ "type": "Feature", "properties": { "building.architecture": "Immeubles", "building.architecture.niveau": " 3", "addr.housenumber": null, "addr.street": "Place Nicole Neuburger" }, "geometry": { "type": "Point", "coordinates": [ 2.49159, 48.902319 ] } },
{ "type": "Feature", "properties": { "building.architecture": "Cités-jardins et Grands ensembles", "building.architecture.niveau": " 2", "addr.housenumber": "43", "addr.street": "Place Nicole Neuburger" }, "geometry": { "type": "Point", "coordinates": [ 2.492109, 48.901611 ] } },
{ "type": "Feature", "properties": { "building.architecture": "Lotissements\/maisons pavillonnaires", "building.architecture.niveau": " 2", "addr.housenumber": "29", "addr.street": "Rue Béranger" }, "geometry": { "type": "Point", "coordinates": [ 2.495587, 48.90454 ] } },
{ "type": "Feature", "properties": { "building.architecture": "Lotissements\/maisons pavillonnaires", "building.architecture.niveau": " 2", "addr.housenumber": "37", "addr.street": "Rue Béranger" }, "geometry": { "type": "Point", "coordinates": [ 2.496139, 48.904558 ] } },
{ "type": "Feature", "properties": { "building.architecture": "Lotissements\/maisons pavillonnaires", "building.architecture.niveau": " 2", "addr.housenumber": "30", "addr.street": "Rue de l'Aviation" }, "geometry": { "type": "Point", "coordinates": [ 2.496186, 48.90153 ] } },
{ "type": "Feature", "properties": { "building.architecture": "Lotissements\/maisons pavillonnaires", "building.architecture.niveau": " 2", "addr.housenumber": "10bis", "addr.street": "Rue de Plaisance" }, "geometry": { "type": "Point", "coordinates": [ 2.494541, 48.895092 ] } },
{ "type": "Feature", "properties": { "building.architecture": "Lotissements\/maisons pavillonnaires", "building.architecture.niveau": " 2", "addr.housenumber": "18", "addr.street": "Rue de Tremeuge" }, "geometry": { "type": "Point", "coordinates": [ 2.49513, 48.898864 ] } },
{ "type": "Feature", "properties": { "building.architecture": "Lotissements\/maisons pavillonnaires", "building.architecture.niveau": " 2", "addr.housenumber": "1bis", "addr.street": "Rue du Chalet" }, "geometry": { "type": "Point", "coordinates": [ 2.494238, 48.899939 ] } },
{ "type": "Feature", "properties": { "building.architecture": "Lotissements\/maisons pavillonnaires", "building.architecture.niveau": " 2", "addr.housenumber": "8", "addr.street": "Rue du Progrès" }, "geometry": { "type": "Point", "coordinates": [ 2.495401, 48.896206 ] } },
{ "type": "Feature", "properties": { "building.architecture": "Lotissements\/maisons pavillonnaires", "building.architecture.niveau": " 2", "addr.housenumber": "25", "addr.street": "Rue Eugène Masson" }, "geometry": { "type": "Point", "coordinates": [ 2.495659, 48.8982 ] } },
{ "type": "Feature", "properties": { "building.architecture": "Lotissements\/maisons pavillonnaires", "building.architecture.niveau": " 2", "addr.housenumber": "20", "addr.street": "Rue Georges Elie" }, "geometry": { "type": "Point", "coordinates": [ 2.491963, 48.906542 ] } },
{ "type": "Feature", "properties": { "building.architecture": "Lotissements\/maisons pavillonnaires", "building.architecture.niveau": " 2", "addr.housenumber": "14", "addr.street": "Rue Guy de Maupassant" }, "geometry": { "type": "Point", "coordinates": [ 2.493257, 48.89912 ] } },
{ "type": "Feature", "properties": { "building.architecture": "Lotissements\/maisons pavillonnaires", "building.architecture.niveau": " 2", "addr.housenumber": "6", "addr.street": "Rue Henri Douillot" }, "geometry": { "type": "Point", "coordinates": [ 2.49482, 48.905383 ] } },
{ "type": "Feature", "properties": { "building.architecture": "Architecture industrielle et ferroviaire", "building.architecture.niveau": " 2", "addr.housenumber": "140", "addr.street": "Rue Louis Auguste Blanqui" }, "geometry": { "type": "Point", "coordinates": [ 2.490938, 48.898025 ] } },
{ "type": "Feature", "properties": { "building.architecture": "Lotissements\/maisons pavillonnaires", "building.architecture.niveau": " 3", "addr.housenumber": "147", "addr.street": "Rue Louis Auguste Blanqui" }, "geometry": { "type": "Point", "coordinates": [ 2.491924, 48.89792 ] } },
{ "type": "Feature", "properties": { "building.architecture": "Lotissements\/maisons pavillonnaires", "building.architecture.niveau": " 2", "addr.housenumber": "148", "addr.street": "Rue Louis Auguste Blanqui" }, "geometry": { "type": "Point", "coordinates": [ 2.4917, 48.897881 ] } },
{ "type": "Feature", "properties": { "building.architecture": "Lotissements\/maisons pavillonnaires", "building.architecture.niveau": " 2", "addr.housenumber": "150", "addr.street": "Rue Louis Auguste Blanqui" }, "geometry": { "type": "Point", "coordinates": [ 2.491824, 48.897857 ] } },
{ "type": "Feature", "properties": { "building.architecture": "Lotissements\/maisons pavillonnaires", "building.architecture.niveau": " 2", "addr.housenumber": "156", "addr.street": "Rue Louis Auguste Blanqui" }, "geometry": { "type": "Point", "coordinates": [ 2.492241, 48.897639 ] } },
{ "type": "Feature", "properties": { "building.architecture": "Lotissements\/maisons pavillonnaires", "building.architecture.niveau": " 2", "addr.housenumber": "186", "addr.street": "Rue Louis Auguste Blanqui" }, "geometry": { "type": "Point", "coordinates": [ 2.494686, 48.897008 ] } },
{ "type": "Feature", "properties": { "building.architecture": "Lotissements\/maisons pavillonnaires", "building.architecture.niveau": " 2", "addr.housenumber": "22", "addr.street": "Rue Raoul" }, "geometry": { "type": "Point", "coordinates": [ 2.492064, 48.898822 ] } },
{ "type": "Feature", "properties": { "building.architecture": "Lotissements\/maisons pavillonnaires", "building.architecture.niveau": " 2", "addr.housenumber": "9", "addr.street": "Allée Alice" }, "geometry": { "type": "Point", "coordinates": [ 2.497062, 48.900206 ] } },
{ "type": "Feature", "properties": { "building.architecture": "Lotissements\/maisons pavillonnaires", "building.architecture.niveau": " 2", "addr.housenumber": "25", "addr.street": "Allée Alice" }, "geometry": { "type": "Point", "coordinates": [ 2.49745, 48.901111 ] } },
{ "type": "Feature", "properties": { "building.architecture": "Lotissements\/maisons pavillonnaires", "building.architecture.niveau": " 2", "addr.housenumber": "27", "addr.street": "Allée Alice" }, "geometry": { "type": "Point", "coordinates": [ 2.497494, 48.901213 ] } },
{ "type": "Feature", "properties": { "building.architecture": "Lotissements\/maisons pavillonnaires", "building.architecture.niveau": " 2", "addr.housenumber": "13", "addr.street": "Allee Andrea" }, "geometry": { "type": "Point", "coordinates": [ 2.498276, 48.900549 ] } },
{ "type": "Feature", "properties": { "building.architecture": "Lotissements\/maisons pavillonnaires", "building.architecture.niveau": " 2", "addr.housenumber": "42", "addr.street": "Allee Andrea" }, "geometry": { "type": "Point", "coordinates": [ 2.498769, 48.90146 ] } },
{ "type": "Feature", "properties": { "building.architecture": "Lotissements\/maisons pavillonnaires", "building.architecture.niveau": " 2", "addr.housenumber": "11", "addr.street": "Allée de la Régale" }, "geometry": { "type": "Point", "coordinates": [ 2.493872, 48.903935 ] } },
{ "type": "Feature", "properties": { "building.architecture": "Lotissements\/maisons pavillonnaires", "building.architecture.niveau": " 2", "addr.housenumber": "50", "addr.street": "Allée du Rendez-vous" }, "geometry": { "type": "Point", "coordinates": [ 2.498761, 48.902427 ] } },
{ "type": "Feature", "properties": { "building.architecture": "Lotissements\/maisons pavillonnaires", "building.architecture.niveau": " 2", "addr.housenumber": "1bis", "addr.street": "Allée Marcel Sembat" }, "geometry": { "type": "Point", "coordinates": [ 2.495993, 48.8999 ] } },
{ "type": "Feature", "properties": { "building.architecture": "Immeubles", "building.architecture.niveau": " 2", "addr.housenumber": null, "addr.street": "Allée Molière" }, "geometry": { "type": "Point", "coordinates": [ 2.495593, 48.897418 ] } },
{ "type": "Feature", "properties": { "building.architecture": "Lotissements\/maisons pavillonnaires", "building.architecture.niveau": " 2", "addr.housenumber": "7bis", "addr.street": "Allée Molière" }, "geometry": { "type": "Point", "coordinates": [ 2.495681, 48.89761 ] } },
{ "type": "Feature", "properties": { "building.architecture": "Lotissements\/maisons pavillonnaires", "building.architecture.niveau": " 2", "addr.housenumber": "2", "addr.street": "Allée Racine" }, "geometry": { "type": "Point", "coordinates": [ 2.494724, 48.896892 ] } },
{ "type": "Feature", "properties": { "building.architecture": "Lotissements\/maisons pavillonnaires", "building.architecture.niveau": " 2", "addr.housenumber": "18", "addr.street": "Allée Racine" }, "geometry": { "type": "Point", "coordinates": [ 2.493919, 48.895753 ] } },
{ "type": "Feature", "properties": { "building.architecture": "Lotissements\/maisons pavillonnaires", "building.architecture.niveau": " 2", "addr.housenumber": "28", "addr.street": "Allée Racine" }, "geometry": { "type": "Point", "coordinates": [ 2.493535, 48.895228 ] } },
{ "type": "Feature", "properties": { "building.architecture": "Architecture administrative - équipements publics", "building.architecture.niveau": " 3", "addr.housenumber": "8", "addr.street": "Avenue de Verdun" }, "geometry": { "type": "Point", "coordinates": [ 2.489814, 48.904717 ] } },
{ "type": "Feature", "properties": { "building.architecture": "Lotissements\/maisons pavillonnaires", "building.architecture.niveau": "2", "addr.housenumber": "164", "addr.street": "Avenue Henri Barbusse" }, "geometry": { "type": "Point", "coordinates": [ 2.495383, 48.899538 ] } },
{ "type": "Feature", "properties": { "building.architecture": "Lotissements\/maisons pavillonnaires", "building.architecture.niveau": " 2", "addr.housenumber": "115", "addr.street": "Avenue Henri Barbusse" }, "geometry": { "type": "Point", "coordinates": [ 2.491789, 48.90042 ] } },
{ "type": "Feature", "properties": { "building.architecture": "Lotissements\/maisons pavillonnaires", "building.architecture.niveau": " 2", "addr.housenumber": "134", "addr.street": "Avenue Henri Barbusse" }, "geometry": { "type": "Point", "coordinates": [ 2.492489, 48.900015 ] } },
{ "type": "Feature", "properties": { "building.architecture": "Lotissements\/maisons pavillonnaires", "building.architecture.niveau": " 2", "addr.housenumber": "151", "addr.street": "Avenue Henri Barbusse" }, "geometry": { "type": "Point", "coordinates": [ 2.495187, 48.899757 ] } },
{ "type": "Feature", "properties": { "building.architecture": "Lotissements\/maisons pavillonnaires", "building.architecture.niveau": " 2", "addr.housenumber": "157", "addr.street": "Avenue Henri Barbusse" }, "geometry": { "type": "Point", "coordinates": [ 2.495908, 48.899753 ] } },
{ "type": "Feature", "properties": { "building.architecture": "Immeubles", "building.architecture.niveau": " 2", "addr.housenumber": "166", "addr.street": "Avenue Henri Barbusse" }, "geometry": { "type": "Point", "coordinates": [ 2.495746, 48.89963 ] } },
{ "type": "Feature", "properties": { "building.architecture": "Lotissements\/maisons pavillonnaires", "building.architecture.niveau": " 2", "addr.housenumber": "168", "addr.street": "Avenue Henri Barbusse" }, "geometry": { "type": "Point", "coordinates": [ 2.495952, 48.899626 ] } },
{ "type": "Feature", "properties": { "building.architecture": "Immeubles", "building.architecture.niveau": " 3", "addr.housenumber": null, "addr.street": "Place Nicole Neuburger" }, "geometry": { "type": "Point", "coordinates": [ 2.49159, 48.902319 ] } },
{ "type": "Feature", "properties": { "building.architecture": "Immeubles", "building.architecture.niveau": " 3", "addr.housenumber": null, "addr.street": "Place Nicole Neuburger" }, "geometry": { "type": "Point", "coordinates": [ 2.49159, 48.902319 ] } },
{ "type": "Feature", "properties": { "building.architecture": "Cités-jardins et Grands ensembles", "building.architecture.niveau": " 2", "addr.housenumber": "43", "addr.street": "Place Nicole Neuburger" }, "geometry": { "type": "Point", "coordinates": [ 2.492109, 48.901611 ] } },
{ "type": "Feature", "properties": { "building.architecture": "Lotissements\/maisons pavillonnaires", "building.architecture.niveau": " 2", "addr.housenumber": "29", "addr.street": "Rue Béranger" }, "geometry": { "type": "Point", "coordinates": [ 2.495587, 48.90454 ] } },
{ "type": "Feature", "properties": { "building.architecture": "Lotissements\/maisons pavillonnaires", "building.architecture.niveau": " 2", "addr.housenumber": "37", "addr.street": "Rue Béranger" }, "geometry": { "type": "Point", "coordinates": [ 2.496139, 48.904558 ] } },
{ "type": "Feature", "properties": { "building.architecture": "Lotissements\/maisons pavillonnaires", "building.architecture.niveau": " 2", "addr.housenumber": "30", "addr.street": "Rue de l'Aviation" }, "geometry": { "type": "Point", "coordinates": [ 2.496186, 48.90153 ] } },
{ "type": "Feature", "properties": { "building.architecture": "Lotissements\/maisons pavillonnaires", "building.architecture.niveau": " 2", "addr.housenumber": "10bis", "addr.street": "Rue de Plaisance" }, "geometry": { "type": "Point", "coordinates": [ 2.494541, 48.895092 ] } },
{ "type": "Feature", "properties": { "building.architecture": "Lotissements\/maisons pavillonnaires", "building.architecture.niveau": " 2", "addr.housenumber": "18", "addr.street": "Rue de Tremeuge" }, "geometry": { "type": "Point", "coordinates": [ 2.49513, 48.898864 ] } },
{ "type": "Feature", "properties": { "building.architecture": "Lotissements\/maisons pavillonnaires", "building.architecture.niveau": " 2", "addr.housenumber": "1bis", "addr.street": "Rue du Chalet" }, "geometry": { "type": "Point", "coordinates": [ 2.494238, 48.899939 ] } },
{ "type": "Feature", "properties": { "building.architecture": "Lotissements\/maisons pavillonnaires", "building.architecture.niveau": " 2", "addr.housenumber": "8", "addr.street": "Rue du Progrès" }, "geometry": { "type": "Point", "coordinates": [ 2.495401, 48.896206 ] } },
{ "type": "Feature", "properties": { "building.architecture": "Lotissements\/maisons pavillonnaires", "building.architecture.niveau": " 2", "addr.housenumber": "25", "addr.street": "Rue Eugène Masson" }, "geometry": { "type": "Point", "coordinates": [ 2.495659, 48.8982 ] } },
{ "type": "Feature", "properties": { "building.architecture": "Lotissements\/maisons pavillonnaires", "building.architecture.niveau": " 2", "addr.housenumber": "20", "addr.street": "Rue Georges Elie" }, "geometry": { "type": "Point", "coordinates": [ 2.491963, 48.906542 ] } },
{ "type": "Feature", "properties": { "building.architecture": "Lotissements\/maisons pavillonnaires", "building.architecture.niveau": " 2", "addr.housenumber": "14", "addr.street": "Rue Guy de Maupassant" }, "geometry": { "type": "Point", "coordinates": [ 2.493257, 48.89912 ] } },
{ "type": "Feature", "properties": { "building.architecture": "Lotissements\/maisons pavillonnaires", "building.architecture.niveau": " 2", "addr.housenumber": "6", "addr.street": "Rue Henri Douillot" }, "geometry": { "type": "Point", "coordinates": [ 2.49482, 48.905383 ] } },
{ "type": "Feature", "properties": { "building.architecture": "Architecture industrielle et ferroviaire", "building.architecture.niveau": " 2", "addr.housenumber": "140", "addr.street": "Rue Louis Auguste Blanqui" }, "geometry": { "type": "Point", "coordinates": [ 2.490938, 48.898025 ] } },
{ "type": "Feature", "properties": { "building.architecture": "Lotissements\/maisons pavillonnaires", "building.architecture.niveau": " 3", "addr.housenumber": "147", "addr.street": "Rue Louis Auguste Blanqui" }, "geometry": { "type": "Point", "coordinates": [ 2.491924, 48.89792 ] } },
{ "type": "Feature", "properties": { "building.architecture": "Lotissements\/maisons pavillonnaires", "building.architecture.niveau": " 2", "addr.housenumber": "148", "addr.street": "Rue Louis Auguste Blanqui" }, "geometry": { "type": "Point", "coordinates": [ 2.4917, 48.897881 ] } },
{ "type": "Feature", "properties": { "building.architecture": "Lotissements\/maisons pavillonnaires", "building.architecture.niveau": " 2", "addr.housenumber": "150", "addr.street": "Rue Louis Auguste Blanqui" }, "geometry": { "type": "Point", "coordinates": [ 2.491824, 48.897857 ] } },
{ "type": "Feature", "properties": { "building.architecture": "Lotissements\/maisons pavillonnaires", "building.architecture.niveau": " 2", "addr.housenumber": "156", "addr.street": "Rue Louis Auguste Blanqui" }, "geometry": { "type": "Point", "coordinates": [ 2.492241, 48.897639 ] } },
{ "type": "Feature", "properties": { "building.architecture": "Lotissements\/maisons pavillonnaires", "building.architecture.niveau": " 2", "addr.housenumber": "186", "addr.street": "Rue Louis Auguste Blanqui" }, "geometry": { "type": "Point", "coordinates": [ 2.494686, 48.897008 ] } },
{ "type": "Feature", "properties": { "building.architecture": "Lotissements\/maisons pavillonnaires", "building.architecture.niveau": " 2", "addr.housenumber": "22", "addr.street": "Rue Raoul" }, "geometry": { "type": "Point", "coordinates": [ 2.492064, 48.898822 ] } }
]
}
