{
"type": "FeatureCollection",
"name": "11_zone",
"crs": { "type": "name", "properties": { "name": "urn:ogc:def:crs:OGC:1.3:CRS84" } },
"features": [
{ "type": "Feature", "properties": { "name": 11, "boundary": "patrimoine" }, "geometry": { "type": "Polygon", "coordinates": [ [ [ 2.494372457113199, 48.89464849555975 ], [ 2.493422877953007, 48.895258243934634 ], [ 2.490835160672954, 48.897709498152452 ], [ 2.48971897233656, 48.904756603213897 ], [ 2.490422180164565, 48.905792216287644 ], [ 2.490824131378945, 48.90617430498498 ], [ 2.491929798801293, 48.906619220503764 ], [ 2.49877593185271, 48.903878638490696 ], [ 2.498907045289916, 48.901445633378415 ], [ 2.494372457113199, 48.89464849555975 ] ] ] } },
{ "type": "Feature", "properties": { "name": 11, "boundary": "patrimoine" }, "geometry": { "type": "Polygon", "coordinates": [ [ [ 2.494372457113199, 48.89464849555975 ], [ 2.493422877953007, 48.895258243934634 ], [ 2.490835160672954, 48.897709498152452 ], [ 2.48971897233656, 48.904756603213897 ], [ 2.490422180164565, 48.905792216287644 ], [ 2.490824131378945, 48.90617430498498 ], [ 2.491929798801293, 48.906619220503764 ], [ 2.49877593185271, 48.903878638490696 ], [ 2.498907045289916, 48.901445633378415 ], [ 2.494372457113199, 48.89464849555975 ] ] ] } },
{ "type": "Feature", "properties": { "name": 11, "boundary": "patrimoine" }, "geometry": { "type": "Polygon", "coordinates": [ [ [ 2.494372457113199, 48.89464849555975 ], [ 2.493422877953007, 48.895258243934634 ], [ 2.490835160672954, 48.897709498152452 ], [ 2.48971897233656, 48.904756603213897 ], [ 2.490422180164565, 48.905792216287644 ], [ 2.490824131378945, 48.90617430498498 ], [ 2.491929798801293, 48.906619220503764 ], [ 2.49877593185271, 48.903878638490696 ], [ 2.498907045289916, 48.901445633378415 ], [ 2.494372457113199, 48.89464849555975 ] ] ] } }
]
}
