{
"type": "FeatureCollection",
"name": "12_adresse",
"crs": { "type": "name", "properties": { "name": "urn:ogc:def:crs:OGC:1.3:CRS84" } },
"features": [
{ "type": "Feature", "properties": { "building.architecture": "Lotissements/maisons pavillonnaires", "building.architecture.niveau": " 2", "addr.housenumber": "14bis", "addr.street": "Allée des Arts" }, "geometry": { "type": "Point", "coordinates": [ 2.496776, 48.893002 ] } },
{ "type": "Feature", "properties": { "building.architecture": "Lotissements/maisons pavillonnaires", "building.architecture.niveau": " 2", "addr.housenumber": "5", "addr.street": "Allée des Lettres" }, "geometry": { "type": "Point", "coordinates": [ 2.494834, 48.891031 ] } },
{ "type": "Feature", "properties": { "building.architecture": "Lotissements/maisons pavillonnaires", "building.architecture.niveau": " 2", "addr.housenumber": "8", "addr.street": "Allée des Lettres" }, "geometry": { "type": "Point", "coordinates": [ 2.494667, 48.890953 ] } },
{ "type": "Feature", "properties": { "building.architecture": "Lotissements/maisons pavillonnaires", "building.architecture.niveau": " 2", "addr.housenumber": "11", "addr.street": "Allée des Lettres" }, "geometry": { "type": "Point", "coordinates": [ 2.494526, 48.890461 ] } },
{ "type": "Feature", "properties": { "building.architecture": "Lotissements/maisons pavillonnaires", "building.architecture.niveau": " 2", "addr.housenumber": "13", "addr.street": "Allée des Lettres" }, "geometry": { "type": "Point", "coordinates": [ 2.494469, 48.890359 ] } },
{ "type": "Feature", "properties": { "building.architecture": "Lotissements/maisons pavillonnaires", "building.architecture.niveau": " 2", "addr.housenumber": "14bis", "addr.street": "Allée des Lettres" }, "geometry": { "type": "Point", "coordinates": [ 2.494252, 48.890547 ] } },
{ "type": "Feature", "properties": { "building.architecture": "Lotissements/maisons pavillonnaires", "building.architecture.niveau": " 2", "addr.housenumber": "14bis", "addr.street": "Allée des Lettres" }, "geometry": { "type": "Point", "coordinates": [ 2.494252, 48.890547 ] } },
{ "type": "Feature", "properties": { "building.architecture": "Lotissements/maisons pavillonnaires", "building.architecture.niveau": " 2", "addr.housenumber": "81", "addr.street": "Avenue Anatole France" }, "geometry": { "type": "Point", "coordinates": [ 2.496759, 48.890675 ] } },
{ "type": "Feature", "properties": { "building.architecture": "Lotissements/maisons pavillonnaires", "building.architecture.niveau": " 2", "addr.housenumber": "83", "addr.street": "Avenue Anatole France" }, "geometry": { "type": "Point", "coordinates": [ 2.496658, 48.890561 ] } },
{ "type": "Feature", "properties": { "building.architecture": "Lotissements/maisons pavillonnaires", "building.architecture.niveau": " 2", "addr.housenumber": "85", "addr.street": "Avenue Anatole France" }, "geometry": { "type": "Point", "coordinates": [ 2.496579, 48.890464 ] } },
{ "type": "Feature", "properties": { "building.architecture": "Lotissements/maisons pavillonnaires", "building.architecture.niveau": " 2", "addr.housenumber": "42", "addr.street": "Avenue de l'Idéal" }, "geometry": { "type": "Point", "coordinates": [ 2.495578, 48.894256 ] } },
{ "type": "Feature", "properties": { "building.architecture": "Lotissements/maisons pavillonnaires", "building.architecture.niveau": " 2", "addr.housenumber": "17", "addr.street": "Avenue des Sciences" }, "geometry": { "type": "Point", "coordinates": [ 2.495816, 48.892771 ] } },
{ "type": "Feature", "properties": { "building.architecture": "Lotissements/maisons pavillonnaires", "building.architecture.niveau": " 2", "addr.housenumber": "21", "addr.street": "Avenue des Sciences" }, "geometry": { "type": "Point", "coordinates": [ 2.495576, 48.892794 ] } },
{ "type": "Feature", "properties": { "building.architecture": "Lotissements/maisons pavillonnaires", "building.architecture.niveau": " 2", "addr.housenumber": "23", "addr.street": "Avenue des Sciences" }, "geometry": { "type": "Point", "coordinates": [ 2.495496, 48.892802 ] } },
{ "type": "Feature", "properties": { "building.architecture": "Lotissements/maisons pavillonnaires", "building.architecture.niveau": " 2", "addr.housenumber": "25", "addr.street": "Avenue des Sciences" }, "geometry": { "type": "Point", "coordinates": [ 2.49538, 48.892814 ] } },
{ "type": "Feature", "properties": { "building.architecture": "Lotissements/maisons pavillonnaires", "building.architecture.niveau": " 2", "addr.housenumber": "35", "addr.street": "Avenue des Sciences" }, "geometry": { "type": "Point", "coordinates": [ 2.494408, 48.892909 ] } },
{ "type": "Feature", "properties": { "building.architecture": "Lotissements/maisons pavillonnaires", "building.architecture.niveau": " 2", "addr.housenumber": "13bis", "addr.street": "Avenue des Sciences" }, "geometry": { "type": "Point", "coordinates": [ 2.496151, 48.892568 ] } },
{ "type": "Feature", "properties": { "building.architecture": "Lotissements/maisons pavillonnaires", "building.architecture.niveau": " 2", "addr.housenumber": null, "addr.street": "Avenue des Sciences" }, "geometry": { "type": "Point", "coordinates": [ 2.494755, 48.892852 ] } },
{ "type": "Feature", "properties": { "building.architecture": "Lotissements/maisons pavillonnaires", "building.architecture.niveau": " 2", "addr.housenumber": "33bis", "addr.street": "Avenue des Sciences" }, "geometry": { "type": "Point", "coordinates": [ 2.494392, 48.89274 ] } },
{ "type": "Feature", "properties": { "building.architecture": "Lotissements/maisons pavillonnaires", "building.architecture.niveau": " 2", "addr.housenumber": "3", "addr.street": "Rue de la Philosophie" }, "geometry": { "type": "Point", "coordinates": [ 2.494962, 48.889895 ] } },
{ "type": "Feature", "properties": { "building.architecture": "Lotissements/maisons pavillonnaires", "building.architecture.niveau": " 2", "addr.housenumber": "7", "addr.street": "Rue de la Philosophie" }, "geometry": { "type": "Point", "coordinates": [ 2.495099, 48.890146 ] } },
{ "type": "Feature", "properties": { "building.architecture": "Lotissements/maisons pavillonnaires", "building.architecture.niveau": " 2", "addr.housenumber": "9bis", "addr.street": "Rue Désire Léon" }, "geometry": { "type": "Point", "coordinates": [ 2.494749, 48.893474 ] } },
{ "type": "Feature", "properties": { "building.architecture": "Lotissements/maisons pavillonnaires", "building.architecture.niveau": " 2", "addr.housenumber": "36", "addr.street": "Rue du Chemin de Fer Prolongée" }, "geometry": { "type": "Point", "coordinates": [ 2.493587, 48.891509 ] } },
{ "type": "Feature", "properties": { "building.architecture": "Lotissements/maisons pavillonnaires", "building.architecture.niveau": " 2", "addr.housenumber": "53", "addr.street": "Rue du Chemin de Fer Prolongée" }, "geometry": { "type": "Point", "coordinates": [ 2.494502, 48.891492 ] } },
{ "type": "Feature", "properties": { "building.architecture": "Lotissements/maisons pavillonnaires", "building.architecture.niveau": " 2", "addr.housenumber": "61", "addr.street": "Rue du Chemin de Fer Prolongée" }, "geometry": { "type": "Point", "coordinates": [ 2.495029, 48.89142 ] } },
{ "type": "Feature", "properties": { "building.architecture": "Lotissements/maisons pavillonnaires", "building.architecture.niveau": " 2", "addr.housenumber": "63", "addr.street": "Rue du Chemin de Fer Prolongée" }, "geometry": { "type": "Point", "coordinates": [ 2.495171, 48.891399 ] } },
{ "type": "Feature", "properties": { "building.architecture": "Maisons de bourg", "building.architecture.niveau": " 3", "addr.housenumber": "200", "addr.street": "Rue Edouard Vaillant" }, "geometry": { "type": "Point", "coordinates": [ 2.494698, 48.894146 ] } },
{ "type": "Feature", "properties": { "building.architecture": "Lotissements/maisons pavillonnaires", "building.architecture.niveau": " 2", "addr.housenumber": "214", "addr.street": "Rue Edouard Vaillant" }, "geometry": { "type": "Point", "coordinates": [ 2.495956, 48.893972 ] } },
{ "type": "Feature", "properties": { "building.architecture": "Lotissements/maisons pavillonnaires", "building.architecture.niveau": " 2", "addr.housenumber": "229", "addr.street": "Rue Edouard Vaillant" }, "geometry": { "type": "Point", "coordinates": [ 2.495048, 48.894197 ] } },
{ "type": "Feature", "properties": { "building.architecture": "Lotissements/maisons pavillonnaires", "building.architecture.niveau": " 2", "addr.housenumber": "231", "addr.street": "Rue Edouard Vaillant" }, "geometry": { "type": "Point", "coordinates": [ 2.495184, 48.894174 ] } },
{ "type": "Feature", "properties": { "building.architecture": "Lotissements/maisons pavillonnaires", "building.architecture.niveau": " 2", "addr.housenumber": "6", "addr.street": "Rue Georges Graff" }, "geometry": { "type": "Point", "coordinates": [ 2.495464, 48.893683 ] } },
{ "type": "Feature", "properties": { "building.architecture": "Lotissements/maisons pavillonnaires", "building.architecture.niveau": " 2", "addr.housenumber": "12", "addr.street": "Rue Georges Graff" }, "geometry": { "type": "Point", "coordinates": [ 2.495311, 48.893401 ] } },
{ "type": "Feature", "properties": { "building.architecture": "Lotissements/maisons pavillonnaires", "building.architecture.niveau": " 2", "addr.housenumber": "25", "addr.street": "Rue Georges Graff" }, "geometry": { "type": "Point", "coordinates": [ 2.494645, 48.89261 ] } },
{ "type": "Feature", "properties": { "building.architecture": "Lotissements/maisons pavillonnaires", "building.architecture.niveau": " 2", "addr.housenumber": "42", "addr.street": "Rue Saint-louis Prolongée" }, "geometry": { "type": "Point", "coordinates": [ 2.494922, 48.890545 ] } },
{ "type": "Feature", "properties": { "building.architecture": "Lotissements/maisons pavillonnaires", "building.architecture.niveau": " 2", "addr.housenumber": "43", "addr.street": "Rue Saint-louis Prolongée" }, "geometry": { "type": "Point", "coordinates": [ 2.494944, 48.890622 ] } },
{ "type": "Feature", "properties": { "building.architecture": "Lotissements\/maisons pavillonnaires", "building.architecture.niveau": " 2", "addr.housenumber": "14bis", "addr.street": "Allée des Arts" }, "geometry": { "type": "Point", "coordinates": [ 2.496776, 48.893002 ] } },
{ "type": "Feature", "properties": { "building.architecture": "Lotissements\/maisons pavillonnaires", "building.architecture.niveau": " 2", "addr.housenumber": "5", "addr.street": "Allée des Lettres" }, "geometry": { "type": "Point", "coordinates": [ 2.494834, 48.891031 ] } },
{ "type": "Feature", "properties": { "building.architecture": "Lotissements\/maisons pavillonnaires", "building.architecture.niveau": " 2", "addr.housenumber": "8", "addr.street": "Allée des Lettres" }, "geometry": { "type": "Point", "coordinates": [ 2.494667, 48.890953 ] } },
{ "type": "Feature", "properties": { "building.architecture": "Lotissements\/maisons pavillonnaires", "building.architecture.niveau": " 2", "addr.housenumber": "11", "addr.street": "Allée des Lettres" }, "geometry": { "type": "Point", "coordinates": [ 2.494526, 48.890461 ] } },
{ "type": "Feature", "properties": { "building.architecture": "Lotissements\/maisons pavillonnaires", "building.architecture.niveau": " 2", "addr.housenumber": "13", "addr.street": "Allée des Lettres" }, "geometry": { "type": "Point", "coordinates": [ 2.494469, 48.890359 ] } },
{ "type": "Feature", "properties": { "building.architecture": "Lotissements\/maisons pavillonnaires", "building.architecture.niveau": " 2", "addr.housenumber": "14bis", "addr.street": "Allée des Lettres" }, "geometry": { "type": "Point", "coordinates": [ 2.494252, 48.890547 ] } },
{ "type": "Feature", "properties": { "building.architecture": "Lotissements\/maisons pavillonnaires", "building.architecture.niveau": " 2", "addr.housenumber": "14bis", "addr.street": "Allée des Lettres" }, "geometry": { "type": "Point", "coordinates": [ 2.494252, 48.890547 ] } },
{ "type": "Feature", "properties": { "building.architecture": "Lotissements\/maisons pavillonnaires", "building.architecture.niveau": " 2", "addr.housenumber": "81", "addr.street": "Avenue Anatole France" }, "geometry": { "type": "Point", "coordinates": [ 2.496759, 48.890675 ] } },
{ "type": "Feature", "properties": { "building.architecture": "Lotissements\/maisons pavillonnaires", "building.architecture.niveau": " 2", "addr.housenumber": "83", "addr.street": "Avenue Anatole France" }, "geometry": { "type": "Point", "coordinates": [ 2.496658, 48.890561 ] } },
{ "type": "Feature", "properties": { "building.architecture": "Lotissements\/maisons pavillonnaires", "building.architecture.niveau": " 2", "addr.housenumber": "85", "addr.street": "Avenue Anatole France" }, "geometry": { "type": "Point", "coordinates": [ 2.496579, 48.890464 ] } },
{ "type": "Feature", "properties": { "building.architecture": "Lotissements\/maisons pavillonnaires", "building.architecture.niveau": " 2", "addr.housenumber": "42", "addr.street": "Avenue de l'Idéal" }, "geometry": { "type": "Point", "coordinates": [ 2.495578, 48.894256 ] } },
{ "type": "Feature", "properties": { "building.architecture": "Lotissements\/maisons pavillonnaires", "building.architecture.niveau": " 2", "addr.housenumber": "17", "addr.street": "Avenue des Sciences" }, "geometry": { "type": "Point", "coordinates": [ 2.495816, 48.892771 ] } },
{ "type": "Feature", "properties": { "building.architecture": "Lotissements\/maisons pavillonnaires", "building.architecture.niveau": " 2", "addr.housenumber": "21", "addr.street": "Avenue des Sciences" }, "geometry": { "type": "Point", "coordinates": [ 2.495576, 48.892794 ] } },
{ "type": "Feature", "properties": { "building.architecture": "Lotissements\/maisons pavillonnaires", "building.architecture.niveau": " 2", "addr.housenumber": "23", "addr.street": "Avenue des Sciences" }, "geometry": { "type": "Point", "coordinates": [ 2.495496, 48.892802 ] } },
{ "type": "Feature", "properties": { "building.architecture": "Lotissements\/maisons pavillonnaires", "building.architecture.niveau": " 2", "addr.housenumber": "25", "addr.street": "Avenue des Sciences" }, "geometry": { "type": "Point", "coordinates": [ 2.49538, 48.892814 ] } },
{ "type": "Feature", "properties": { "building.architecture": "Lotissements\/maisons pavillonnaires", "building.architecture.niveau": " 2", "addr.housenumber": "35", "addr.street": "Avenue des Sciences" }, "geometry": { "type": "Point", "coordinates": [ 2.494408, 48.892909 ] } },
{ "type": "Feature", "properties": { "building.architecture": "Lotissements\/maisons pavillonnaires", "building.architecture.niveau": " 2", "addr.housenumber": "13bis", "addr.street": "Avenue des Sciences" }, "geometry": { "type": "Point", "coordinates": [ 2.496151, 48.892568 ] } },
{ "type": "Feature", "properties": { "building.architecture": "Lotissements\/maisons pavillonnaires", "building.architecture.niveau": " 2", "addr.housenumber": null, "addr.street": "Avenue des Sciences" }, "geometry": { "type": "Point", "coordinates": [ 2.494755, 48.892852 ] } },
{ "type": "Feature", "properties": { "building.architecture": "Lotissements\/maisons pavillonnaires", "building.architecture.niveau": " 2", "addr.housenumber": "33bis", "addr.street": "Avenue des Sciences" }, "geometry": { "type": "Point", "coordinates": [ 2.494392, 48.89274 ] } },
{ "type": "Feature", "properties": { "building.architecture": "Lotissements\/maisons pavillonnaires", "building.architecture.niveau": " 2", "addr.housenumber": "3", "addr.street": "Rue de la Philosophie" }, "geometry": { "type": "Point", "coordinates": [ 2.494962, 48.889895 ] } },
{ "type": "Feature", "properties": { "building.architecture": "Lotissements\/maisons pavillonnaires", "building.architecture.niveau": " 2", "addr.housenumber": "7", "addr.street": "Rue de la Philosophie" }, "geometry": { "type": "Point", "coordinates": [ 2.495099, 48.890146 ] } },
{ "type": "Feature", "properties": { "building.architecture": "Lotissements\/maisons pavillonnaires", "building.architecture.niveau": " 2", "addr.housenumber": "9bis", "addr.street": "Rue Désire Léon" }, "geometry": { "type": "Point", "coordinates": [ 2.494749, 48.893474 ] } },
{ "type": "Feature", "properties": { "building.architecture": "Lotissements\/maisons pavillonnaires", "building.architecture.niveau": " 2", "addr.housenumber": "36", "addr.street": "Rue du Chemin de Fer Prolongée" }, "geometry": { "type": "Point", "coordinates": [ 2.493587, 48.891509 ] } },
{ "type": "Feature", "properties": { "building.architecture": "Lotissements\/maisons pavillonnaires", "building.architecture.niveau": " 2", "addr.housenumber": "53", "addr.street": "Rue du Chemin de Fer Prolongée" }, "geometry": { "type": "Point", "coordinates": [ 2.494502, 48.891492 ] } },
{ "type": "Feature", "properties": { "building.architecture": "Lotissements\/maisons pavillonnaires", "building.architecture.niveau": " 2", "addr.housenumber": "61", "addr.street": "Rue du Chemin de Fer Prolongée" }, "geometry": { "type": "Point", "coordinates": [ 2.495029, 48.89142 ] } },
{ "type": "Feature", "properties": { "building.architecture": "Lotissements\/maisons pavillonnaires", "building.architecture.niveau": " 2", "addr.housenumber": "63", "addr.street": "Rue du Chemin de Fer Prolongée" }, "geometry": { "type": "Point", "coordinates": [ 2.495171, 48.891399 ] } },
{ "type": "Feature", "properties": { "building.architecture": "Maisons de bourg", "building.architecture.niveau": " 3", "addr.housenumber": "200", "addr.street": "Rue Edouard Vaillant" }, "geometry": { "type": "Point", "coordinates": [ 2.494698, 48.894146 ] } },
{ "type": "Feature", "properties": { "building.architecture": "Lotissements\/maisons pavillonnaires", "building.architecture.niveau": " 2", "addr.housenumber": "214", "addr.street": "Rue Edouard Vaillant" }, "geometry": { "type": "Point", "coordinates": [ 2.495956, 48.893972 ] } },
{ "type": "Feature", "properties": { "building.architecture": "Lotissements\/maisons pavillonnaires", "building.architecture.niveau": " 2", "addr.housenumber": "229", "addr.street": "Rue Edouard Vaillant" }, "geometry": { "type": "Point", "coordinates": [ 2.495048, 48.894197 ] } },
{ "type": "Feature", "properties": { "building.architecture": "Lotissements\/maisons pavillonnaires", "building.architecture.niveau": " 2", "addr.housenumber": "231", "addr.street": "Rue Edouard Vaillant" }, "geometry": { "type": "Point", "coordinates": [ 2.495184, 48.894174 ] } },
{ "type": "Feature", "properties": { "building.architecture": "Lotissements\/maisons pavillonnaires", "building.architecture.niveau": " 2", "addr.housenumber": "6", "addr.street": "Rue Georges Graff" }, "geometry": { "type": "Point", "coordinates": [ 2.495464, 48.893683 ] } },
{ "type": "Feature", "properties": { "building.architecture": "Lotissements\/maisons pavillonnaires", "building.architecture.niveau": " 2", "addr.housenumber": "12", "addr.street": "Rue Georges Graff" }, "geometry": { "type": "Point", "coordinates": [ 2.495311, 48.893401 ] } },
{ "type": "Feature", "properties": { "building.architecture": "Lotissements\/maisons pavillonnaires", "building.architecture.niveau": " 2", "addr.housenumber": "25", "addr.street": "Rue Georges Graff" }, "geometry": { "type": "Point", "coordinates": [ 2.494645, 48.89261 ] } },
{ "type": "Feature", "properties": { "building.architecture": "Lotissements\/maisons pavillonnaires", "building.architecture.niveau": " 2", "addr.housenumber": "42", "addr.street": "Rue Saint-louis Prolongée" }, "geometry": { "type": "Point", "coordinates": [ 2.494922, 48.890545 ] } },
{ "type": "Feature", "properties": { "building.architecture": "Lotissements\/maisons pavillonnaires", "building.architecture.niveau": " 2", "addr.housenumber": "43", "addr.street": "Rue Saint-louis Prolongée" }, "geometry": { "type": "Point", "coordinates": [ 2.494944, 48.890622 ] } },
{ "type": "Feature", "properties": { "building.architecture": "Lotissements\/maisons pavillonnaires", "building.architecture.niveau": " 2", "addr.housenumber": "14bis", "addr.street": "Allée des Arts" }, "geometry": { "type": "Point", "coordinates": [ 2.496776, 48.893002 ] } },
{ "type": "Feature", "properties": { "building.architecture": "Lotissements\/maisons pavillonnaires", "building.architecture.niveau": " 2", "addr.housenumber": "5", "addr.street": "Allée des Lettres" }, "geometry": { "type": "Point", "coordinates": [ 2.494834, 48.891031 ] } },
{ "type": "Feature", "properties": { "building.architecture": "Lotissements\/maisons pavillonnaires", "building.architecture.niveau": " 2", "addr.housenumber": "8", "addr.street": "Allée des Lettres" }, "geometry": { "type": "Point", "coordinates": [ 2.494667, 48.890953 ] } },
{ "type": "Feature", "properties": { "building.architecture": "Lotissements\/maisons pavillonnaires", "building.architecture.niveau": " 2", "addr.housenumber": "11", "addr.street": "Allée des Lettres" }, "geometry": { "type": "Point", "coordinates": [ 2.494526, 48.890461 ] } },
{ "type": "Feature", "properties": { "building.architecture": "Lotissements\/maisons pavillonnaires", "building.architecture.niveau": " 2", "addr.housenumber": "13", "addr.street": "Allée des Lettres" }, "geometry": { "type": "Point", "coordinates": [ 2.494469, 48.890359 ] } },
{ "type": "Feature", "properties": { "building.architecture": "Lotissements\/maisons pavillonnaires", "building.architecture.niveau": " 2", "addr.housenumber": "14bis", "addr.street": "Allée des Lettres" }, "geometry": { "type": "Point", "coordinates": [ 2.494252, 48.890547 ] } },
{ "type": "Feature", "properties": { "building.architecture": "Lotissements\/maisons pavillonnaires", "building.architecture.niveau": " 2", "addr.housenumber": "14bis", "addr.street": "Allée des Lettres" }, "geometry": { "type": "Point", "coordinates": [ 2.494252, 48.890547 ] } },
{ "type": "Feature", "properties": { "building.architecture": "Lotissements\/maisons pavillonnaires", "building.architecture.niveau": " 2", "addr.housenumber": "81", "addr.street": "Avenue Anatole France" }, "geometry": { "type": "Point", "coordinates": [ 2.496759, 48.890675 ] } },
{ "type": "Feature", "properties": { "building.architecture": "Lotissements\/maisons pavillonnaires", "building.architecture.niveau": " 2", "addr.housenumber": "83", "addr.street": "Avenue Anatole France" }, "geometry": { "type": "Point", "coordinates": [ 2.496658, 48.890561 ] } },
{ "type": "Feature", "properties": { "building.architecture": "Lotissements\/maisons pavillonnaires", "building.architecture.niveau": " 2", "addr.housenumber": "85", "addr.street": "Avenue Anatole France" }, "geometry": { "type": "Point", "coordinates": [ 2.496579, 48.890464 ] } },
{ "type": "Feature", "properties": { "building.architecture": "Lotissements\/maisons pavillonnaires", "building.architecture.niveau": " 2", "addr.housenumber": "42", "addr.street": "Avenue de l'Idéal" }, "geometry": { "type": "Point", "coordinates": [ 2.495578, 48.894256 ] } },
{ "type": "Feature", "properties": { "building.architecture": "Lotissements\/maisons pavillonnaires", "building.architecture.niveau": " 2", "addr.housenumber": "17", "addr.street": "Avenue des Sciences" }, "geometry": { "type": "Point", "coordinates": [ 2.495816, 48.892771 ] } },
{ "type": "Feature", "properties": { "building.architecture": "Lotissements\/maisons pavillonnaires", "building.architecture.niveau": " 2", "addr.housenumber": "21", "addr.street": "Avenue des Sciences" }, "geometry": { "type": "Point", "coordinates": [ 2.495576, 48.892794 ] } },
{ "type": "Feature", "properties": { "building.architecture": "Lotissements\/maisons pavillonnaires", "building.architecture.niveau": " 2", "addr.housenumber": "23", "addr.street": "Avenue des Sciences" }, "geometry": { "type": "Point", "coordinates": [ 2.495496, 48.892802 ] } },
{ "type": "Feature", "properties": { "building.architecture": "Lotissements\/maisons pavillonnaires", "building.architecture.niveau": " 2", "addr.housenumber": "25", "addr.street": "Avenue des Sciences" }, "geometry": { "type": "Point", "coordinates": [ 2.49538, 48.892814 ] } },
{ "type": "Feature", "properties": { "building.architecture": "Lotissements\/maisons pavillonnaires", "building.architecture.niveau": " 2", "addr.housenumber": "35", "addr.street": "Avenue des Sciences" }, "geometry": { "type": "Point", "coordinates": [ 2.494408, 48.892909 ] } },
{ "type": "Feature", "properties": { "building.architecture": "Lotissements\/maisons pavillonnaires", "building.architecture.niveau": " 2", "addr.housenumber": "13bis", "addr.street": "Avenue des Sciences" }, "geometry": { "type": "Point", "coordinates": [ 2.496151, 48.892568 ] } },
{ "type": "Feature", "properties": { "building.architecture": "Lotissements\/maisons pavillonnaires", "building.architecture.niveau": " 2", "addr.housenumber": null, "addr.street": "Avenue des Sciences" }, "geometry": { "type": "Point", "coordinates": [ 2.494755, 48.892852 ] } },
{ "type": "Feature", "properties": { "building.architecture": "Lotissements\/maisons pavillonnaires", "building.architecture.niveau": " 2", "addr.housenumber": "33bis", "addr.street": "Avenue des Sciences" }, "geometry": { "type": "Point", "coordinates": [ 2.494392, 48.89274 ] } },
{ "type": "Feature", "properties": { "building.architecture": "Lotissements\/maisons pavillonnaires", "building.architecture.niveau": " 2", "addr.housenumber": "3", "addr.street": "Rue de la Philosophie" }, "geometry": { "type": "Point", "coordinates": [ 2.494962, 48.889895 ] } },
{ "type": "Feature", "properties": { "building.architecture": "Lotissements\/maisons pavillonnaires", "building.architecture.niveau": " 2", "addr.housenumber": "7", "addr.street": "Rue de la Philosophie" }, "geometry": { "type": "Point", "coordinates": [ 2.495099, 48.890146 ] } },
{ "type": "Feature", "properties": { "building.architecture": "Lotissements\/maisons pavillonnaires", "building.architecture.niveau": " 2", "addr.housenumber": "9bis", "addr.street": "Rue Désire Léon" }, "geometry": { "type": "Point", "coordinates": [ 2.494749, 48.893474 ] } },
{ "type": "Feature", "properties": { "building.architecture": "Lotissements\/maisons pavillonnaires", "building.architecture.niveau": " 2", "addr.housenumber": "36", "addr.street": "Rue du Chemin de Fer Prolongée" }, "geometry": { "type": "Point", "coordinates": [ 2.493587, 48.891509 ] } },
{ "type": "Feature", "properties": { "building.architecture": "Lotissements\/maisons pavillonnaires", "building.architecture.niveau": " 2", "addr.housenumber": "53", "addr.street": "Rue du Chemin de Fer Prolongée" }, "geometry": { "type": "Point", "coordinates": [ 2.494502, 48.891492 ] } },
{ "type": "Feature", "properties": { "building.architecture": "Lotissements\/maisons pavillonnaires", "building.architecture.niveau": " 2", "addr.housenumber": "61", "addr.street": "Rue du Chemin de Fer Prolongée" }, "geometry": { "type": "Point", "coordinates": [ 2.495029, 48.89142 ] } },
{ "type": "Feature", "properties": { "building.architecture": "Lotissements\/maisons pavillonnaires", "building.architecture.niveau": " 2", "addr.housenumber": "63", "addr.street": "Rue du Chemin de Fer Prolongée" }, "geometry": { "type": "Point", "coordinates": [ 2.495171, 48.891399 ] } },
{ "type": "Feature", "properties": { "building.architecture": "Maisons de bourg", "building.architecture.niveau": " 3", "addr.housenumber": "200", "addr.street": "Rue Edouard Vaillant" }, "geometry": { "type": "Point", "coordinates": [ 2.494698, 48.894146 ] } },
{ "type": "Feature", "properties": { "building.architecture": "Lotissements\/maisons pavillonnaires", "building.architecture.niveau": " 2", "addr.housenumber": "214", "addr.street": "Rue Edouard Vaillant" }, "geometry": { "type": "Point", "coordinates": [ 2.495956, 48.893972 ] } },
{ "type": "Feature", "properties": { "building.architecture": "Lotissements\/maisons pavillonnaires", "building.architecture.niveau": " 2", "addr.housenumber": "229", "addr.street": "Rue Edouard Vaillant" }, "geometry": { "type": "Point", "coordinates": [ 2.495048, 48.894197 ] } },
{ "type": "Feature", "properties": { "building.architecture": "Lotissements\/maisons pavillonnaires", "building.architecture.niveau": " 2", "addr.housenumber": "231", "addr.street": "Rue Edouard Vaillant" }, "geometry": { "type": "Point", "coordinates": [ 2.495184, 48.894174 ] } },
{ "type": "Feature", "properties": { "building.architecture": "Lotissements\/maisons pavillonnaires", "building.architecture.niveau": " 2", "addr.housenumber": "6", "addr.street": "Rue Georges Graff" }, "geometry": { "type": "Point", "coordinates": [ 2.495464, 48.893683 ] } },
{ "type": "Feature", "properties": { "building.architecture": "Lotissements\/maisons pavillonnaires", "building.architecture.niveau": " 2", "addr.housenumber": "12", "addr.street": "Rue Georges Graff" }, "geometry": { "type": "Point", "coordinates": [ 2.495311, 48.893401 ] } },
{ "type": "Feature", "properties": { "building.architecture": "Lotissements\/maisons pavillonnaires", "building.architecture.niveau": " 2", "addr.housenumber": "25", "addr.street": "Rue Georges Graff" }, "geometry": { "type": "Point", "coordinates": [ 2.494645, 48.89261 ] } },
{ "type": "Feature", "properties": { "building.architecture": "Lotissements\/maisons pavillonnaires", "building.architecture.niveau": " 2", "addr.housenumber": "42", "addr.street": "Rue Saint-louis Prolongée" }, "geometry": { "type": "Point", "coordinates": [ 2.494922, 48.890545 ] } },
{ "type": "Feature", "properties": { "building.architecture": "Lotissements\/maisons pavillonnaires", "building.architecture.niveau": " 2", "addr.housenumber": "43", "addr.street": "Rue Saint-louis Prolongée" }, "geometry": { "type": "Point", "coordinates": [ 2.494944, 48.890622 ] } }
]
}
