{
"type": "FeatureCollection",
"name": "12_bat",
"crs": { "type": "name", "properties": { "name": "urn:ogc:def:crs:OGC:1.3:CRS84" } },
"features": [
{ "type": "Feature", "properties": { "start_date": 1974, "construction_date.nb": 1, "historic.building": "yes" }, "geometry": { "type": "Polygon", "coordinates": [ [ [ 2.495037524320106, 48.894308496696972 ], [ 2.4950375, 48.8943085 ], [ 2.495019202833198, 48.894250532000662 ], [ 2.495037522037046, 48.894308489443056 ], [ 2.495037524320106, 48.894308496696972 ] ] ] } },
{ "type": "Feature", "properties": { "start_date": 1930, "construction_date.nb": 1, "historic.building": "yes" }, "geometry": { "type": "Polygon", "coordinates": [ [ [ 2.495019202833198, 48.894250532000662 ], [ 2.4950149, 48.894236899999989 ], [ 2.4951145, 48.8942232 ], [ 2.4951369, 48.894295 ], [ 2.495037524320106, 48.894308496696972 ], [ 2.495037522037046, 48.894308489443056 ], [ 2.495019202833198, 48.894250532000662 ] ] ] } },
{ "type": "Feature", "properties": { "start_date": 1928, "construction_date.nb": 1, "historic.building": "yes" }, "geometry": { "type": "Polygon", "coordinates": [ [ [ 2.4951612, 48.894225799999987 ], [ 2.4952077, 48.8942178 ], [ 2.4952117, 48.894227500000021 ], [ 2.4952608, 48.8942207 ], [ 2.4952819, 48.8942839 ], [ 2.4951851, 48.894297499999979 ], [ 2.4951612, 48.894225799999987 ] ] ] } },
{ "type": "Feature", "properties": { "start_date": 1920, "construction_date.nb": 1, "historic.building": "yes" }, "geometry": { "type": "Polygon", "coordinates": [ [ [ 2.4953723, 48.89427730000002 ], [ 2.4955197, 48.8942504 ], [ 2.4955375, 48.8942965 ], [ 2.4953897, 48.894323100000015 ], [ 2.4953723, 48.89427730000002 ] ] ] } },
{ "type": "Feature", "properties": { "start_date": 1929, "construction_date.nb": 1, "historic.building": "yes" }, "geometry": { "type": "Polygon", "coordinates": [ [ [ 2.495505722711451, 48.894395645449613 ], [ 2.4954878, 48.894359799999982 ], [ 2.4955926, 48.8943364 ], [ 2.495598208584862, 48.894348002875127 ], [ 2.49555788751083, 48.894383868133339 ], [ 2.495505722711451, 48.894395645449613 ] ] ] } },
{ "type": "Feature", "properties": { "start_date": 1930, "construction_date.nb": 1, "historic.building": "yes" }, "geometry": { "type": "Polygon", "coordinates": [ [ [ 2.494684960599218, 48.894530534875315 ], [ 2.4947186, 48.8945228 ], [ 2.4947297, 48.8945442 ], [ 2.4947229, 48.894545799999968 ], [ 2.494736246094486, 48.894569367833149 ], [ 2.494702509366264, 48.894576984326363 ], [ 2.494684960599218, 48.894530534875315 ] ] ] } },
{ "type": "Feature", "properties": { "start_date": 1925, "construction_date.nb": 1, "historic.building": "yes" }, "geometry": { "type": "Polygon", "coordinates": [ [ [ 2.494585122417415, 48.894036556567883 ], [ 2.4945787, 48.894025799999966 ], [ 2.494578725058108, 48.89402579407966 ], [ 2.494585122417415, 48.894036556567883 ] ] ] } },
{ "type": "Feature", "properties": { "start_date": 1928, "construction_date.nb": 1, "historic.building": "yes" }, "geometry": { "type": "Polygon", "coordinates": [ [ [ 2.494645499830005, 48.894010335472444 ], [ 2.4946666, 48.894005899999961 ], [ 2.4947039, 48.893996899999976 ], [ 2.494718699246641, 48.893993100193391 ], [ 2.494718702331215, 48.893993106060051 ], [ 2.494703935371267, 48.893996910779883 ], [ 2.494666613611498, 48.89400592624532 ], [ 2.494645499830005, 48.894010335472444 ] ] ] } },
{ "type": "Feature", "properties": { "start_date": 1930, "construction_date.nb": 1, "historic.building": "yes" }, "geometry": { "type": "Polygon", "coordinates": [ [ [ 2.494578725058108, 48.89402579407966 ], [ 2.4946333, 48.8940129 ], [ 2.494645499830005, 48.894010335472444 ], [ 2.494666613611498, 48.89400592624532 ], [ 2.494703935371267, 48.893996910779883 ], [ 2.494718702331215, 48.893993106060051 ], [ 2.494721645518064, 48.89399858812439 ], [ 2.4947823, 48.894111599999967 ], [ 2.494767123822327, 48.894132619879677 ], [ 2.494764918808585, 48.894135661633477 ], [ 2.494648287024456, 48.894152075899115 ], [ 2.494595, 48.894053099999987 ], [ 2.494585122417415, 48.894036556567883 ], [ 2.494578725058108, 48.89402579407966 ] ] ] } },
{ "type": "Feature", "properties": { "start_date": 1927, "construction_date.nb": 1, "historic.building": "yes" }, "geometry": { "type": "Polygon", "coordinates": [ [ [ 2.4947669, 48.8934858 ], [ 2.4946656, 48.8935099 ], [ 2.4946405, 48.8934619 ], [ 2.4947417, 48.8934399 ], [ 2.4947598, 48.8934718 ], [ 2.4947669, 48.8934858 ] ] ] } },
{ "type": "Feature", "properties": { "start_date": 1923, "construction_date.nb": 1, "historic.building": "yes" }, "geometry": { "type": "Polygon", "coordinates": [ [ [ 2.49586518466767, 48.893876677272331 ], [ 2.4958601, 48.893867 ], [ 2.495860143985153, 48.893866990121282 ], [ 2.49586518466767, 48.893876677272331 ] ] ] } },
{ "type": "Feature", "properties": { "start_date": 1912, "construction_date.nb": 1, "historic.building": "yes" }, "geometry": { "type": "Polygon", "coordinates": [ [ [ 2.495536793437368, 48.893622351154605 ], [ 2.49558651459221, 48.893610673775477 ], [ 2.4955954, 48.8936305 ], [ 2.495604, 48.8936509 ], [ 2.4956196, 48.8936835 ], [ 2.4956212, 48.89368539999996 ], [ 2.4955509, 48.893701 ], [ 2.4955407, 48.8936825 ], [ 2.4955187, 48.893688499999982 ], [ 2.495490609571241, 48.893633218835951 ], [ 2.495536793437368, 48.893622351154605 ] ] ] } },
{ "type": "Feature", "properties": { "start_date": 1914, "construction_date.nb": 1, "historic.building": "yes" }, "geometry": { "type": "Polygon", "coordinates": [ [ [ 2.495490609571241, 48.893633218835951 ], [ 2.4954906, 48.893633200000018 ], [ 2.495536793437368, 48.893622351154605 ], [ 2.495490609571241, 48.893633218835951 ] ] ] } },
{ "type": "Feature", "properties": { "start_date": 1929, "construction_date.nb": 1, "historic.building": "yes" }, "geometry": { "type": "Polygon", "coordinates": [ [ [ 2.4954494, 48.8934192 ], [ 2.49539, 48.8934338 ], [ 2.4953519, 48.893363599999986 ], [ 2.4954117, 48.893349299999983 ], [ 2.4954494, 48.8934192 ] ] ] } },
{ "type": "Feature", "properties": { "start_date": 1926, "construction_date.nb": 1, "historic.building": "yes" }, "geometry": { "type": "Polygon", "coordinates": [ [ [ 2.495860143985153, 48.893866990121282 ], [ 2.4959398, 48.8938491 ], [ 2.495985, 48.89393050000001 ], [ 2.4959164, 48.893947 ], [ 2.4958803, 48.8938823 ], [ 2.4958694, 48.893884699999951 ], [ 2.49586518466767, 48.893876677272331 ], [ 2.495860143985153, 48.893866990121282 ] ] ] } },
{ "type": "Feature", "properties": { "start_date": 1922, "construction_date.nb": 1, "historic.building": "yes" }, "geometry": { "type": "Polygon", "coordinates": [ [ [ 2.496110127412522, 48.893892649662064 ], [ 2.4960897, 48.89382220000001 ], [ 2.496189674422801, 48.893808203587902 ], [ 2.496158378143226, 48.89384972995903 ], [ 2.496110127412522, 48.893892649662064 ] ] ] } },
{ "type": "Feature", "properties": { "start_date": 1914, "construction_date.nb": 1, "historic.building": "yes" }, "geometry": { "type": "Polygon", "coordinates": [ [ [ 2.496140702391068, 48.892921365469626 ], [ 2.49607881659074, 48.892931986699594 ], [ 2.496084493793432, 48.892951345759563 ], [ 2.496031066166287, 48.892961732773635 ], [ 2.496031066156498, 48.892961732756142 ], [ 2.495994073615082, 48.892895424695553 ], [ 2.495981329789848, 48.892872581701468 ], [ 2.496115176076412, 48.892853180323613 ], [ 2.49612725952643, 48.892885457286951 ], [ 2.496140702385309, 48.892921365454086 ], [ 2.496140702391068, 48.892921365469626 ] ] ] } },
{ "type": "Feature", "properties": { "start_date": 1910, "construction_date.nb": 1, "historic.building": "yes" }, "geometry": { "type": "Polygon", "coordinates": [ [ [ 2.49612725952643, 48.892885457286951 ], [ 2.496140702405054, 48.892921365467231 ], [ 2.496140702391068, 48.892921365469626 ], [ 2.496140702385309, 48.892921365454086 ], [ 2.49612725952643, 48.892885457286951 ] ] ] } },
{ "type": "Feature", "properties": { "start_date": 2000, "construction_date.nb": 1, "historic.building": "yes" }, "geometry": { "type": "Polygon", "coordinates": [ [ [ 2.496768260056339, 48.893040476601051 ], [ 2.496753123736322, 48.893043548872612 ], [ 2.496749913200568, 48.893037060341307 ], [ 2.496741609698303, 48.893021287529884 ], [ 2.496728715373338, 48.892986609938227 ], [ 2.496809114046365, 48.892970556473017 ], [ 2.496795679446211, 48.893004093074573 ], [ 2.496768260056339, 48.893040476601051 ] ] ] } },
{ "type": "Feature", "properties": { "start_date": 1967, "construction_date.nb": 1, "historic.building": "yes" }, "geometry": { "type": "Polygon", "coordinates": [ [ [ 2.496480195632788, 48.892565947329437 ], [ 2.496495859433653, 48.892638587492705 ], [ 2.496382006224005, 48.892649709831659 ], [ 2.496364700814618, 48.89257760231331 ], [ 2.496480195632788, 48.892565947329437 ] ] ] } },
{ "type": "Feature", "properties": { "start_date": 1910, "construction_date.nb": 2, "historic.building": "yes" }, "geometry": { "type": "MultiPolygon", "coordinates": [ [ [ [ 2.496108208797283, 48.892600714757279 ], [ 2.496218640277988, 48.892590837311751 ], [ 2.496233625311502, 48.892663114921447 ], [ 2.496125096903034, 48.892673629902646 ], [ 2.496108208797283, 48.892600714757279 ] ] ], [ [ [ 2.496098004220157, 48.892668659622942 ], [ 2.496098004219451, 48.892668659619744 ], [ 2.49609800422123, 48.892668659619567 ], [ 2.49611585743637, 48.892740499660675 ], [ 2.496115857425356, 48.892740499661784 ], [ 2.496098004220157, 48.892668659622942 ] ] ] ] } },
{ "type": "Feature", "properties": { "start_date": 1948, "construction_date.nb": 1, "historic.building": "yes" }, "geometry": { "type": "Polygon", "coordinates": [ [ [ 2.496115857425356, 48.892740499661784 ], [ 2.496082949153514, 48.892743785966644 ], [ 2.495950807295478, 48.892756981871862 ], [ 2.495933366967015, 48.892684783837609 ], [ 2.495929198693588, 48.892664531820856 ], [ 2.495987478242303, 48.892660100711673 ], [ 2.495991795134372, 48.892679094323661 ], [ 2.496098004219451, 48.892668659619744 ], [ 2.496098004220157, 48.892668659622942 ], [ 2.496115857425356, 48.892740499661784 ] ] ] } },
{ "type": "Feature", "properties": { "start_date": 1911, "construction_date.nb": 2, "historic.building": "yes" }, "geometry": { "type": "Polygon", "coordinates": [ [ [ 2.495615783776502, 48.892734977033975 ], [ 2.495615783781044, 48.892734977054047 ], [ 2.495532922532707, 48.892742721780017 ], [ 2.495534460625462, 48.892752890469701 ], [ 2.495534460603395, 48.892752890471542 ], [ 2.495534460601387, 48.892752890463456 ], [ 2.495532922494177, 48.892742721783264 ], [ 2.49552265904061, 48.892689978990809 ], [ 2.49551050894223, 48.892634890043986 ], [ 2.495510508963618, 48.892634890041748 ], [ 2.495592286848498, 48.89262633138474 ], [ 2.495598840531728, 48.892656634467563 ], [ 2.495615783776502, 48.892734977033975 ] ] ] } },
{ "type": "Feature", "properties": { "start_date": 1930, "construction_date.nb": 2, "historic.building": "yes" }, "geometry": { "type": "MultiPolygon", "coordinates": [ [ [ [ 2.495534460601387, 48.892752890463456 ], [ 2.495534460603395, 48.892752890471542 ], [ 2.495466485686697, 48.892758539538413 ], [ 2.495449930500997, 48.892679510395027 ], [ 2.49547764703368, 48.892676389650994 ], [ 2.495471736063797, 48.892638953457762 ], [ 2.49551050894223, 48.892634890043986 ], [ 2.49552265904061, 48.892689978990809 ], [ 2.495532922494177, 48.892742721783264 ], [ 2.495534460601387, 48.892752890463456 ] ] ], [ [ [ 2.495451853303843, 48.892748495544254 ], [ 2.495432434611546, 48.892655335173231 ], [ 2.495432434642346, 48.892655335170026 ], [ 2.495451853309091, 48.892748495543778 ], [ 2.495451853303843, 48.892748495544254 ] ] ] ] } },
{ "type": "Feature", "properties": { "start_date": 1925, "construction_date.nb": 1, "historic.building": "yes" }, "geometry": { "type": "Polygon", "coordinates": [ [ [ 2.4946107, 48.892657299999982 ], [ 2.4946008, 48.892612499999977 ], [ 2.4946395, 48.892608599999974 ], [ 2.4946327, 48.892580599999988 ], [ 2.4947314, 48.892570399999975 ], [ 2.4947392, 48.8926017 ], [ 2.4947528, 48.892599599999961 ], [ 2.494756, 48.89261209999998 ], [ 2.4947425, 48.892613799999943 ], [ 2.4947498, 48.892641900000022 ], [ 2.4946107, 48.892657299999982 ] ] ] } },
{ "type": "Feature", "properties": { "start_date": 1930, "construction_date.nb": 1, "historic.building": "yes" }, "geometry": { "type": "Polygon", "coordinates": [ [ [ 2.494383161372299, 48.89277366522176 ], [ 2.494383161378255, 48.892773665220396 ], [ 2.494391986477571, 48.892790254165654 ], [ 2.494383161375061, 48.892773665227892 ], [ 2.494383161372299, 48.89277366522176 ] ] ] } },
{ "type": "Feature", "properties": { "start_date": 1925, "construction_date.nb": 2, "historic.building": "yes" }, "geometry": { "type": "Polygon", "coordinates": [ [ [ 2.494383161375061, 48.892773665227892 ], [ 2.494391986477571, 48.892790254165654 ], [ 2.49441945942755, 48.892841896260443 ], [ 2.494340723435892, 48.892860179523993 ], [ 2.494340723433891, 48.892860179524462 ], [ 2.494340723422368, 48.892860179502719 ], [ 2.494304155310049, 48.892791677537716 ], [ 2.494302269567982, 48.892789241440241 ], [ 2.494302269594188, 48.892789241434443 ], [ 2.494304155329914, 48.892791677538547 ], [ 2.494383161372299, 48.89277366522176 ], [ 2.494383161375061, 48.892773665227892 ] ] ] } },
{ "type": "Feature", "properties": { "start_date": 1926, "construction_date.nb": 1, "historic.building": "yes" }, "geometry": { "type": "Polygon", "coordinates": [ [ [ 2.494340723433891, 48.892860179524462 ], [ 2.494325277471934, 48.892863711519219 ], [ 2.494285639765484, 48.89287253723041 ], [ 2.494281218663644, 48.892864334842002 ], [ 2.49423693090026, 48.892874489877755 ], [ 2.494199348459748, 48.892882334994574 ], [ 2.494185479261495, 48.892857516758795 ], [ 2.494183127671173, 48.892853308694484 ], [ 2.494179133177461, 48.892845628091244 ], [ 2.494160768868856, 48.892810317166855 ], [ 2.494147363220777, 48.892786338898219 ], [ 2.494145726255016, 48.892782167847052 ], [ 2.494145100650108, 48.892780573761037 ], [ 2.494219887706182, 48.892761644433797 ], [ 2.494243223954457, 48.892802301854921 ], [ 2.494302269567982, 48.892789241440241 ], [ 2.494304155310049, 48.892791677537716 ], [ 2.494340723422368, 48.892860179502719 ], [ 2.494340723433891, 48.892860179524462 ] ] ] } },
{ "type": "Feature", "properties": { "start_date": 1928, "construction_date.nb": 1, "historic.building": "yes" }, "geometry": { "type": "MultiPolygon", "coordinates": [ [ [ [ 2.494145100650108, 48.892780573761037 ], [ 2.494145726255016, 48.892782167847052 ], [ 2.494145100642731, 48.892780573762913 ], [ 2.494145100650108, 48.892780573761037 ] ] ], [ [ [ 2.494183127671173, 48.892853308694484 ], [ 2.494185479261495, 48.892857516758795 ], [ 2.494183127665976, 48.892853308693816 ], [ 2.494179133177461, 48.892845628091244 ], [ 2.494183127671173, 48.892853308694484 ] ] ] ] } },
{ "type": "Feature", "properties": { "start_date": 1914, "construction_date.nb": 1, "historic.building": "yes" }, "geometry": { "type": "Polygon", "coordinates": [ [ [ 2.495451853303843, 48.892748495544254 ], [ 2.495316577457249, 48.892760605769688 ], [ 2.495314175778523, 48.892755109852644 ], [ 2.495303340027487, 48.892705152496461 ], [ 2.495393308746144, 48.892695819115801 ], [ 2.495385061042696, 48.892660261614623 ], [ 2.495432434611546, 48.892655335173231 ], [ 2.495451853303843, 48.892748495544254 ] ] ] } },
{ "type": "Feature", "properties": { "start_date": 1999, "construction_date.nb": 1, "historic.building": "yes" }, "geometry": { "type": "Polygon", "coordinates": [ [ [ 2.495598840531728, 48.892656634467563 ], [ 2.495615783810673, 48.892734977051269 ], [ 2.495615783781044, 48.892734977054047 ], [ 2.495615783776502, 48.892734977033975 ], [ 2.495598840531728, 48.892656634467563 ] ] ] } },
{ "type": "Feature", "properties": { "start_date": 1905, "construction_date.nb": 1, "historic.building": "yes" }, "geometry": { "type": "Polygon", "coordinates": [ [ [ 2.495878753841549, 48.892465482040819 ], [ 2.495892637143445, 48.892524715064468 ], [ 2.495782726888853, 48.89253711246122 ], [ 2.495767887261331, 48.892478055264263 ], [ 2.495803796057912, 48.892473979693314 ], [ 2.495798693228085, 48.892451655323967 ], [ 2.495836782333381, 48.892447768789395 ], [ 2.495842433322422, 48.892469825682845 ], [ 2.495878753841549, 48.892465482040819 ] ] ] } },
{ "type": "Feature", "properties": { "start_date": 1924, "construction_date.nb": 1, "historic.building": "yes" }, "geometry": { "type": "Polygon", "coordinates": [ [ [ 2.4945683, 48.89153270000002 ], [ 2.49458, 48.891571299999988 ], [ 2.494479831522102, 48.891583676303775 ], [ 2.4944676, 48.891546800000015 ], [ 2.4945683, 48.89153270000002 ] ] ] } },
{ "type": "Feature", "properties": { "start_date": 1924, "construction_date.nb": 1, "historic.building": "yes" }, "geometry": { "type": "Polygon", "coordinates": [ [ [ 2.4949955, 48.891480199999961 ], [ 2.4951098, 48.891464 ], [ 2.4951301, 48.891524299999958 ], [ 2.4951206, 48.891526 ], [ 2.4951293, 48.891555199999978 ], [ 2.4950263, 48.8915703 ], [ 2.4949955, 48.891480199999961 ] ] ] } },
{ "type": "Feature", "properties": { "start_date": 1936, "construction_date.nb": 1, "historic.building": "yes" }, "geometry": { "type": "Polygon", "coordinates": [ [ [ 2.4951589, 48.8914568 ], [ 2.4952455, 48.891444199999988 ], [ 2.4952763, 48.89153869999997 ], [ 2.4952031, 48.891548599999986 ], [ 2.4951977, 48.8915307 ], [ 2.4951842, 48.891532099999971 ], [ 2.4951589, 48.8914568 ] ] ] } },
{ "type": "Feature", "properties": { "start_date": 1932, "construction_date.nb": 1, "historic.building": "yes" }, "geometry": { "type": "Polygon", "coordinates": [ [ [ 2.4957907, 48.891372299999972 ], [ 2.4958749, 48.891360800000015 ], [ 2.4958989, 48.891430599999957 ], [ 2.4958147, 48.8914426 ], [ 2.4957907, 48.891372299999972 ] ] ] } },
{ "type": "Feature", "properties": { "start_date": 1914, "construction_date.nb": 1, "historic.building": "yes" }, "geometry": { "type": "Polygon", "coordinates": [ [ [ 2.495012885275184, 48.891027970463234 ], [ 2.4950129, 48.891028 ], [ 2.494916706291312, 48.891050484302916 ], [ 2.494919924981446, 48.891049703839393 ], [ 2.495012875160355, 48.891027972804935 ], [ 2.495012885275184, 48.891027970463234 ] ] ] } },
{ "type": "Feature", "properties": { "start_date": 1931, "construction_date.nb": 1, "historic.building": "yes" }, "geometry": { "type": "Polygon", "coordinates": [ [ [ 2.494916706291312, 48.891050484302916 ], [ 2.4949145, 48.891051 ], [ 2.4948858, 48.8909959 ], [ 2.4950066, 48.890968 ], [ 2.4950175, 48.8909885 ], [ 2.494996, 48.8909941 ], [ 2.495012885275184, 48.891027970463234 ], [ 2.495012875160355, 48.891027972804935 ], [ 2.494919924981446, 48.891049703839393 ], [ 2.494916706291312, 48.891050484302916 ] ] ] } },
{ "type": "Feature", "properties": { "start_date": 1910, "construction_date.nb": 1, "historic.building": "yes" }, "geometry": { "type": "Polygon", "coordinates": [ [ [ 2.495078778545897, 48.890715103254252 ], [ 2.49499709014843, 48.89072749421328 ], [ 2.4949839, 48.890684899999975 ], [ 2.4950142, 48.8906805 ], [ 2.4950086, 48.890662100000014 ], [ 2.4950582, 48.8906549 ], [ 2.495058733364939, 48.890656186350931 ], [ 2.495061556254619, 48.890663057667993 ], [ 2.495078778545897, 48.890715103254252 ] ] ] } },
{ "type": "Feature", "properties": { "start_date": 1925, "construction_date.nb": 1, "historic.building": "yes" }, "geometry": { "type": "Polygon", "coordinates": [ [ [ 2.494548187030809, 48.891059377736255 ], [ 2.4945302, 48.891028499999983 ], [ 2.4945021, 48.891034499999982 ], [ 2.4944638, 48.8909632 ], [ 2.4945758, 48.89093619999997 ], [ 2.4946325, 48.8910393 ], [ 2.494589540901877, 48.891049542926055 ], [ 2.494548191497468, 48.891059376704888 ], [ 2.494548187030809, 48.891059377736255 ] ] ] } },
{ "type": "Feature", "properties": { "start_date": 1939, "construction_date.nb": 1, "historic.building": "yes" }, "geometry": { "type": "Polygon", "coordinates": [ [ [ 2.494589540901877, 48.891049542926055 ], [ 2.4945482, 48.891059400000024 ], [ 2.494548187030809, 48.891059377736255 ], [ 2.494548191497468, 48.891059376704888 ], [ 2.494589540901877, 48.891049542926055 ] ] ] } },
{ "type": "Feature", "properties": { "start_date": 1933, "construction_date.nb": 1, "historic.building": "yes" }, "geometry": { "type": "Polygon", "coordinates": [ [ [ 2.493324912084598, 48.890873609105974 ], [ 2.4933638, 48.8908688 ], [ 2.4933837, 48.890936199999985 ], [ 2.493329721482907, 48.890943113053204 ], [ 2.493317107362518, 48.890909720016722 ], [ 2.493324912084598, 48.890873609105974 ] ] ] } },
{ "type": "Feature", "properties": { "start_date": 1924, "construction_date.nb": 1, "historic.building": "yes" }, "geometry": { "type": "Polygon", "coordinates": [ [ [ 2.493500659518228, 48.891395628384238 ], [ 2.4935543, 48.891392199999977 ], [ 2.4935717, 48.891390899999983 ], [ 2.4935769, 48.8914106 ], [ 2.493588989053577, 48.891409307509839 ], [ 2.493603879539709, 48.89147346009149 ], [ 2.493532820087547, 48.891480764435556 ], [ 2.493500659518228, 48.891395628384238 ] ] ] } },
{ "type": "Feature", "properties": { "start_date": 1925, "construction_date.nb": 1, "historic.building": "yes" }, "geometry": { "type": "Polygon", "coordinates": [ [ [ 2.493528206951629, 48.890119652322433 ], [ 2.4935546, 48.89016849999998 ], [ 2.493473374864373, 48.890186691052406 ], [ 2.493483936535571, 48.89013782284129 ], [ 2.493528206951629, 48.890119652322433 ] ] ] } },
{ "type": "Feature", "properties": { "start_date": 1912, "construction_date.nb": 2, "historic.building": "yes" }, "geometry": { "type": "MultiPolygon", "coordinates": [ [ [ [ 2.494337480920759, 48.890478263973286 ], [ 2.494264290958785, 48.8904953833894 ], [ 2.4942041, 48.890384799999971 ], [ 2.4942842, 48.890365800000012 ], [ 2.4943253, 48.89044269999998 ], [ 2.4943196, 48.8904445 ], [ 2.494337480920759, 48.890478263973286 ] ] ], [ [ [ 2.494344013840419, 48.890476825932055 ], [ 2.494343957628158, 48.890476839771146 ], [ 2.494341874557165, 48.890477297588824 ], [ 2.494344, 48.890476800000023 ], [ 2.494344013840419, 48.890476825932055 ] ] ], [ [ [ 2.494254092535429, 48.890497848253879 ], [ 2.494249640915333, 48.89049892424736 ], [ 2.494249616134838, 48.890498930283862 ], [ 2.4942496, 48.890498899999962 ], [ 2.494254092535429, 48.890497848253879 ] ] ] ] } },
{ "type": "Feature", "properties": { "start_date": 1920, "construction_date.nb": 2, "historic.building": "yes" }, "geometry": { "type": "MultiPolygon", "coordinates": [ [ [ [ 2.494264290958785, 48.8904953833894 ], [ 2.494337480920759, 48.890478263973286 ], [ 2.4943375, 48.8904783 ], [ 2.4942643, 48.890495399999956 ], [ 2.494264290958785, 48.8904953833894 ] ] ], [ [ [ 2.494343957628158, 48.890476839771146 ], [ 2.494344013840419, 48.890476825932055 ], [ 2.494417579890646, 48.890614662322385 ], [ 2.494284615123815, 48.890633069397886 ], [ 2.494284586773395, 48.890633073452321 ], [ 2.4942706, 48.890605 ], [ 2.4943099, 48.8905972 ], [ 2.4943018, 48.89057769999998 ], [ 2.4943137, 48.890575799999986 ], [ 2.4943011, 48.8905507 ], [ 2.4942888, 48.890553 ], [ 2.4942732, 48.8905347 ], [ 2.4942691, 48.890535499999977 ], [ 2.494249616134838, 48.890498930283862 ], [ 2.494249640915333, 48.89049892424736 ], [ 2.494254092535429, 48.890497848253879 ], [ 2.494341874557165, 48.890477297588824 ], [ 2.494343957628158, 48.890476839771146 ] ] ] ] } },
{ "type": "Feature", "properties": { "start_date": 1924, "construction_date.nb": 2, "historic.building": "yes" }, "geometry": { "type": "MultiPolygon", "coordinates": [ [ [ [ 2.494264290958785, 48.8904953833894 ], [ 2.494337480920759, 48.890478263973286 ], [ 2.4943375, 48.8904783 ], [ 2.4942643, 48.890495399999956 ], [ 2.494264290958785, 48.8904953833894 ] ] ], [ [ [ 2.494343957628158, 48.890476839771146 ], [ 2.494344013840419, 48.890476825932055 ], [ 2.494417579890646, 48.890614662322385 ], [ 2.494284615123815, 48.890633069397886 ], [ 2.494284586773395, 48.890633073452321 ], [ 2.4942706, 48.890605 ], [ 2.4943099, 48.8905972 ], [ 2.4943018, 48.89057769999998 ], [ 2.4943137, 48.890575799999986 ], [ 2.4943011, 48.8905507 ], [ 2.4942888, 48.890553 ], [ 2.4942732, 48.8905347 ], [ 2.4942691, 48.890535499999977 ], [ 2.494249616134838, 48.890498930283862 ], [ 2.494249640915333, 48.89049892424736 ], [ 2.494254092535429, 48.890497848253879 ], [ 2.494341874557165, 48.890477297588824 ], [ 2.494343957628158, 48.890476839771146 ] ] ] ] } },
{ "type": "Feature", "properties": { "start_date": 1936, "construction_date.nb": 1, "historic.building": "yes" }, "geometry": { "type": "Polygon", "coordinates": [ [ [ 2.4946875, 48.8904472 ], [ 2.4945819, 48.890471500000032 ], [ 2.4945508, 48.8904151 ], [ 2.4946563, 48.8903901 ], [ 2.4946875, 48.8904472 ] ] ] } },
{ "type": "Feature", "properties": { "start_date": 1910, "construction_date.nb": 1, "historic.building": "yes" }, "geometry": { "type": "Polygon", "coordinates": [ [ [ 2.4945215, 48.8903084 ], [ 2.4946079, 48.890288300000016 ], [ 2.4946165, 48.890305 ], [ 2.494629, 48.8903024 ], [ 2.4946364, 48.890316799999972 ], [ 2.4946244, 48.890319900000023 ], [ 2.4946459, 48.8903601 ], [ 2.4946099, 48.8903682 ], [ 2.4945608, 48.890379199999956 ], [ 2.4945215, 48.8903084 ] ] ] } },
{ "type": "Feature", "properties": { "start_date": 1933, "construction_date.nb": 1, "historic.building": "yes" }, "geometry": { "type": "Polygon", "coordinates": [ [ [ 2.494480757009804, 48.889747911783559 ], [ 2.494494265682093, 48.889772683567735 ], [ 2.494494277563862, 48.889772705224281 ], [ 2.4943908, 48.889796799999978 ], [ 2.494376727614149, 48.889771376429536 ], [ 2.494424551601532, 48.88975174671107 ], [ 2.494480757009804, 48.889747911783559 ] ] ] } },
{ "type": "Feature", "properties": { "start_date": 1925, "construction_date.nb": 1, "historic.building": "yes" }, "geometry": { "type": "Polygon", "coordinates": [ [ [ 2.494480784893065, 48.889747909881059 ], [ 2.4944943, 48.8897727 ], [ 2.494494277563862, 48.889772705224281 ], [ 2.494494265682093, 48.889772683567735 ], [ 2.494480757009804, 48.889747911783559 ], [ 2.494480784893065, 48.889747909881059 ] ] ] } },
{ "type": "Feature", "properties": { "start_date": 1929, "construction_date.nb": 1, "historic.building": "yes" }, "geometry": { "type": "Polygon", "coordinates": [ [ [ 2.494878680331374, 48.889885601016431 ], [ 2.4948804, 48.889885199999988 ], [ 2.494906, 48.8899302 ], [ 2.4947618, 48.889963 ], [ 2.49473760579668, 48.88991851065915 ], [ 2.494737649514182, 48.889918500058414 ], [ 2.494742023047501, 48.889917529269319 ], [ 2.494872286574628, 48.889887142508975 ], [ 2.494878680331374, 48.889885601016431 ] ] ] } },
{ "type": "Feature", "properties": { "start_date": 1928, "construction_date.nb": 1, "historic.building": "yes" }, "geometry": { "type": "Polygon", "coordinates": [ [ [ 2.495007317707472, 48.890109933218675 ], [ 2.495046, 48.89018249999998 ], [ 2.4949497, 48.89020450000001 ], [ 2.494938, 48.8901819 ], [ 2.4949257, 48.8901843 ], [ 2.4949181, 48.8901712 ], [ 2.4949304, 48.890168699999975 ], [ 2.4949104, 48.890132499999979 ], [ 2.494961445438384, 48.890120594677818 ], [ 2.495007317707472, 48.890109933218675 ] ] ] } },
{ "type": "Feature", "properties": { "start_date": 1928, "construction_date.nb": 1, "historic.building": "yes" }, "geometry": { "type": "Polygon", "coordinates": [ [ [ 2.495014030753692, 48.890470098434029 ], [ 2.4950204, 48.890489400000014 ], [ 2.4948672, 48.8905126 ], [ 2.4948412, 48.890434300000024 ], [ 2.4949527, 48.890417399999968 ], [ 2.4949557, 48.8904257 ], [ 2.494997363575745, 48.890419705240909 ], [ 2.495014030753692, 48.890470098434029 ] ] ] } },
{ "type": "Feature", "properties": { "start_date": 1910, "construction_date.nb": 1, "historic.building": "yes" }, "geometry": { "type": "Polygon", "coordinates": [ [ [ 2.494997363575745, 48.890419705240909 ], [ 2.4949974, 48.890419699999974 ], [ 2.495014030753692, 48.890470098434029 ], [ 2.494997363575745, 48.890419705240909 ] ] ] } },
{ "type": "Feature", "properties": { "start_date": 1932, "construction_date.nb": 1, "historic.building": "yes" }, "geometry": { "type": "Polygon", "coordinates": [ [ [ 2.497622138316867, 48.890940928874777 ], [ 2.4975922, 48.890945399999985 ], [ 2.4975829, 48.8909405 ], [ 2.4975576, 48.8908628 ], [ 2.4975819, 48.8908603 ], [ 2.497624595271366, 48.890856683034364 ], [ 2.497640002632766, 48.890896330618205 ], [ 2.497622138316867, 48.890940928874777 ] ] ] } },
{ "type": "Feature", "properties": { "start_date": 1904, "construction_date.nb": 1, "historic.building": "yes" }, "geometry": { "type": "Polygon", "coordinates": [ [ [ 2.497432502336923, 48.890362367069699 ], [ 2.497447854567454, 48.89040187359268 ], [ 2.4973931, 48.8904096 ], [ 2.4973654, 48.8903305 ], [ 2.497384195398712, 48.890327746879002 ], [ 2.497432502336923, 48.890362367069699 ] ] ] } },
{ "type": "Feature", "properties": { "start_date": 1905, "construction_date.nb": 1, "historic.building": "yes" }, "geometry": { "type": "Polygon", "coordinates": [ [ [ 2.496882809574118, 48.890592030379153 ], [ 2.496898762351906, 48.890642649334154 ], [ 2.4968038, 48.8906556 ], [ 2.4967887102471, 48.890605933727215 ], [ 2.496882785458701, 48.890592033801411 ], [ 2.496882809574118, 48.890592030379153 ] ] ] } },
{ "type": "Feature", "properties": { "start_date": 1895, "construction_date.nb": 2, "historic.building": "yes" }, "geometry": { "type": "MultiPolygon", "coordinates": [ [ [ [ 2.4968527, 48.890563199999981 ], [ 2.4967599, 48.890577399999955 ], [ 2.4967423, 48.890522499999967 ], [ 2.49683313208425, 48.89050877825953 ], [ 2.4968527, 48.890563199999981 ] ] ], [ [ [ 2.496882785458701, 48.890592033801411 ], [ 2.4967887102471, 48.890605933727215 ], [ 2.4967887, 48.890605899999976 ], [ 2.4968828, 48.890592 ], [ 2.496882809574118, 48.890592030379153 ], [ 2.496882785458701, 48.890592033801411 ] ] ] ] } },
{ "type": "Feature", "properties": { "start_date": 1910, "construction_date.nb": 1, "historic.building": "yes" }, "geometry": { "type": "Polygon", "coordinates": [ [ [ 2.4967176, 48.890467300000019 ], [ 2.4966947, 48.890469799999984 ], [ 2.4966781, 48.8904173 ], [ 2.4967739, 48.8904042 ], [ 2.4967954, 48.890472099999982 ], [ 2.4967226, 48.890482500000012 ], [ 2.4967176, 48.890467300000019 ] ] ] } },
{ "type": "Feature", "properties": { "start_date": 1983, "construction_date.nb": 1, "historic.building": "yes" }, "geometry": { "type": "Polygon", "coordinates": [ [ [ 2.496353203749201, 48.88964581837444 ], [ 2.4963527, 48.8896449 ], [ 2.496352617681319, 48.889644739070896 ], [ 2.496352699301114, 48.889644898424507 ], [ 2.496353203749201, 48.88964581837444 ] ] ] } },
{ "type": "Feature", "properties": { "start_date": 1957, "construction_date.nb": 1, "historic.building": "yes" }, "geometry": { "type": "MultiPolygon", "coordinates": [ [ [ [ 2.496436481906285, 48.889648534148741 ], [ 2.4964304, 48.8896499 ], [ 2.496425300388905, 48.889640520358356 ], [ 2.496436481906285, 48.889648534148741 ] ] ], [ [ [ 2.496424176486722, 48.889639714857779 ], [ 2.4964058, 48.8896431 ], [ 2.4964261, 48.889681 ], [ 2.4963787, 48.8896923 ], [ 2.496353203749201, 48.88964581837444 ], [ 2.496352699301114, 48.889644898424507 ], [ 2.496352617681319, 48.889644739070896 ], [ 2.496340477825928, 48.889621006221049 ], [ 2.496393065044515, 48.889617417275637 ], [ 2.496424176486722, 48.889639714857779 ] ] ] ] } },
{ "type": "Feature", "properties": { "start_date": 1906, "construction_date.nb": 1, "historic.building": "yes" }, "geometry": { "type": "MultiPolygon", "coordinates": [ [ [ [ 2.496436481906285, 48.889648534148741 ], [ 2.4964304, 48.8896499 ], [ 2.496425300388905, 48.889640520358356 ], [ 2.496436481906285, 48.889648534148741 ] ] ], [ [ [ 2.496424176486722, 48.889639714857779 ], [ 2.4964058, 48.8896431 ], [ 2.4964261, 48.889681 ], [ 2.4963787, 48.8896923 ], [ 2.496353203749201, 48.88964581837444 ], [ 2.496352699301114, 48.889644898424507 ], [ 2.496352617681319, 48.889644739070896 ], [ 2.496340477825928, 48.889621006221049 ], [ 2.496393065044515, 48.889617417275637 ], [ 2.496424176486722, 48.889639714857779 ] ] ] ] } },
{ "type": "Feature", "properties": { "start_date": 1912, "construction_date.nb": 1, "historic.building": "yes" }, "geometry": { "type": "Polygon", "coordinates": [ [ [ 2.49473760579668, 48.88991851065915 ], [ 2.4947376, 48.889918499999951 ], [ 2.494878680331374, 48.889885601016431 ], [ 2.494872286574628, 48.889887142508975 ], [ 2.494742023047501, 48.889917529269319 ], [ 2.494737649514182, 48.889918500058414 ], [ 2.49473760579668, 48.88991851065915 ] ] ] } },
{ "type": "Feature", "properties": { "start_date": 1920, "construction_date.nb": 1, "historic.building": "yes" }, "geometry": { "type": "Polygon", "coordinates": [ [ [ 2.495058733364939, 48.890656186350931 ], [ 2.4950616, 48.890663099999983 ], [ 2.4950788, 48.890715099999973 ], [ 2.495078778545897, 48.890715103254252 ], [ 2.495061556254619, 48.890663057667993 ], [ 2.495058733364939, 48.890656186350931 ] ] ] } },
{ "type": "Feature", "properties": { "start_date": 1974, "construction_date.nb": 1, "historic.building": "yes" }, "geometry": { "type": "Polygon", "coordinates": [ [ [ 2.495037524320106, 48.894308496696972 ], [ 2.4950375, 48.8943085 ], [ 2.495019202833198, 48.894250532000662 ], [ 2.495037522037046, 48.894308489443056 ], [ 2.495037524320106, 48.894308496696972 ] ] ] } },
{ "type": "Feature", "properties": { "start_date": 1930, "construction_date.nb": 1, "historic.building": "yes" }, "geometry": { "type": "Polygon", "coordinates": [ [ [ 2.495019202833198, 48.894250532000662 ], [ 2.4950149, 48.894236899999989 ], [ 2.4951145, 48.8942232 ], [ 2.4951369, 48.894295 ], [ 2.495037524320106, 48.894308496696972 ], [ 2.495037522037046, 48.894308489443056 ], [ 2.495019202833198, 48.894250532000662 ] ] ] } },
{ "type": "Feature", "properties": { "start_date": 1928, "construction_date.nb": 1, "historic.building": "yes" }, "geometry": { "type": "Polygon", "coordinates": [ [ [ 2.4951612, 48.894225799999987 ], [ 2.4952077, 48.8942178 ], [ 2.4952117, 48.894227500000021 ], [ 2.4952608, 48.8942207 ], [ 2.4952819, 48.8942839 ], [ 2.4951851, 48.894297499999979 ], [ 2.4951612, 48.894225799999987 ] ] ] } },
{ "type": "Feature", "properties": { "start_date": 1920, "construction_date.nb": 1, "historic.building": "yes" }, "geometry": { "type": "Polygon", "coordinates": [ [ [ 2.4953723, 48.89427730000002 ], [ 2.4955197, 48.8942504 ], [ 2.4955375, 48.8942965 ], [ 2.4953897, 48.894323100000015 ], [ 2.4953723, 48.89427730000002 ] ] ] } },
{ "type": "Feature", "properties": { "start_date": 1929, "construction_date.nb": 1, "historic.building": "yes" }, "geometry": { "type": "Polygon", "coordinates": [ [ [ 2.495505722711451, 48.894395645449613 ], [ 2.4954878, 48.894359799999982 ], [ 2.4955926, 48.8943364 ], [ 2.495598208584862, 48.894348002875127 ], [ 2.49555788751083, 48.894383868133339 ], [ 2.495505722711451, 48.894395645449613 ] ] ] } },
{ "type": "Feature", "properties": { "start_date": 1930, "construction_date.nb": 1, "historic.building": "yes" }, "geometry": { "type": "Polygon", "coordinates": [ [ [ 2.494684960599218, 48.894530534875315 ], [ 2.4947186, 48.8945228 ], [ 2.4947297, 48.8945442 ], [ 2.4947229, 48.894545799999968 ], [ 2.494736246094486, 48.894569367833149 ], [ 2.494702509366264, 48.894576984326363 ], [ 2.494684960599218, 48.894530534875315 ] ] ] } },
{ "type": "Feature", "properties": { "start_date": 1925, "construction_date.nb": 1, "historic.building": "yes" }, "geometry": { "type": "Polygon", "coordinates": [ [ [ 2.494585122417415, 48.894036556567883 ], [ 2.4945787, 48.894025799999966 ], [ 2.494578725058108, 48.89402579407966 ], [ 2.494585122417415, 48.894036556567883 ] ] ] } },
{ "type": "Feature", "properties": { "start_date": 1928, "construction_date.nb": 1, "historic.building": "yes" }, "geometry": { "type": "Polygon", "coordinates": [ [ [ 2.494645499830005, 48.894010335472444 ], [ 2.4946666, 48.894005899999961 ], [ 2.4947039, 48.893996899999976 ], [ 2.494718699246641, 48.893993100193391 ], [ 2.494718702331215, 48.893993106060051 ], [ 2.494703935371267, 48.893996910779883 ], [ 2.494666613611498, 48.89400592624532 ], [ 2.494645499830005, 48.894010335472444 ] ] ] } },
{ "type": "Feature", "properties": { "start_date": 1930, "construction_date.nb": 1, "historic.building": "yes" }, "geometry": { "type": "Polygon", "coordinates": [ [ [ 2.494578725058108, 48.89402579407966 ], [ 2.4946333, 48.8940129 ], [ 2.494645499830005, 48.894010335472444 ], [ 2.494666613611498, 48.89400592624532 ], [ 2.494703935371267, 48.893996910779883 ], [ 2.494718702331215, 48.893993106060051 ], [ 2.494721645518064, 48.89399858812439 ], [ 2.4947823, 48.894111599999967 ], [ 2.494767123822327, 48.894132619879677 ], [ 2.494764918808585, 48.894135661633477 ], [ 2.494648287024456, 48.894152075899115 ], [ 2.494595, 48.894053099999987 ], [ 2.494585122417415, 48.894036556567883 ], [ 2.494578725058108, 48.89402579407966 ] ] ] } },
{ "type": "Feature", "properties": { "start_date": 1927, "construction_date.nb": 1, "historic.building": "yes" }, "geometry": { "type": "Polygon", "coordinates": [ [ [ 2.4947669, 48.8934858 ], [ 2.4946656, 48.8935099 ], [ 2.4946405, 48.8934619 ], [ 2.4947417, 48.8934399 ], [ 2.4947598, 48.8934718 ], [ 2.4947669, 48.8934858 ] ] ] } },
{ "type": "Feature", "properties": { "start_date": 1923, "construction_date.nb": 1, "historic.building": "yes" }, "geometry": { "type": "Polygon", "coordinates": [ [ [ 2.49586518466767, 48.893876677272331 ], [ 2.4958601, 48.893867 ], [ 2.495860143985153, 48.893866990121282 ], [ 2.49586518466767, 48.893876677272331 ] ] ] } },
{ "type": "Feature", "properties": { "start_date": 1912, "construction_date.nb": 1, "historic.building": "yes" }, "geometry": { "type": "Polygon", "coordinates": [ [ [ 2.495536793437368, 48.893622351154605 ], [ 2.49558651459221, 48.893610673775477 ], [ 2.4955954, 48.8936305 ], [ 2.495604, 48.8936509 ], [ 2.4956196, 48.8936835 ], [ 2.4956212, 48.89368539999996 ], [ 2.4955509, 48.893701 ], [ 2.4955407, 48.8936825 ], [ 2.4955187, 48.893688499999982 ], [ 2.495490609571241, 48.893633218835951 ], [ 2.495536793437368, 48.893622351154605 ] ] ] } },
{ "type": "Feature", "properties": { "start_date": 1914, "construction_date.nb": 1, "historic.building": "yes" }, "geometry": { "type": "Polygon", "coordinates": [ [ [ 2.495490609571241, 48.893633218835951 ], [ 2.4954906, 48.893633200000018 ], [ 2.495536793437368, 48.893622351154605 ], [ 2.495490609571241, 48.893633218835951 ] ] ] } },
{ "type": "Feature", "properties": { "start_date": 1929, "construction_date.nb": 1, "historic.building": "yes" }, "geometry": { "type": "Polygon", "coordinates": [ [ [ 2.4954494, 48.8934192 ], [ 2.49539, 48.8934338 ], [ 2.4953519, 48.893363599999986 ], [ 2.4954117, 48.893349299999983 ], [ 2.4954494, 48.8934192 ] ] ] } },
{ "type": "Feature", "properties": { "start_date": 1926, "construction_date.nb": 1, "historic.building": "yes" }, "geometry": { "type": "Polygon", "coordinates": [ [ [ 2.495860143985153, 48.893866990121282 ], [ 2.4959398, 48.8938491 ], [ 2.495985, 48.89393050000001 ], [ 2.4959164, 48.893947 ], [ 2.4958803, 48.8938823 ], [ 2.4958694, 48.893884699999951 ], [ 2.49586518466767, 48.893876677272331 ], [ 2.495860143985153, 48.893866990121282 ] ] ] } },
{ "type": "Feature", "properties": { "start_date": 1922, "construction_date.nb": 1, "historic.building": "yes" }, "geometry": { "type": "Polygon", "coordinates": [ [ [ 2.496110127412522, 48.893892649662064 ], [ 2.4960897, 48.89382220000001 ], [ 2.496189674422801, 48.893808203587902 ], [ 2.496158378143226, 48.89384972995903 ], [ 2.496110127412522, 48.893892649662064 ] ] ] } },
{ "type": "Feature", "properties": { "start_date": 1914, "construction_date.nb": 1, "historic.building": "yes" }, "geometry": { "type": "Polygon", "coordinates": [ [ [ 2.496140702391068, 48.892921365469626 ], [ 2.49607881659074, 48.892931986699594 ], [ 2.496084493793432, 48.892951345759563 ], [ 2.496031066166287, 48.892961732773635 ], [ 2.496031066156498, 48.892961732756142 ], [ 2.495994073615082, 48.892895424695553 ], [ 2.495981329789848, 48.892872581701468 ], [ 2.496115176076412, 48.892853180323613 ], [ 2.49612725952643, 48.892885457286951 ], [ 2.496140702385309, 48.892921365454086 ], [ 2.496140702391068, 48.892921365469626 ] ] ] } },
{ "type": "Feature", "properties": { "start_date": 1910, "construction_date.nb": 1, "historic.building": "yes" }, "geometry": { "type": "Polygon", "coordinates": [ [ [ 2.49612725952643, 48.892885457286951 ], [ 2.496140702405054, 48.892921365467231 ], [ 2.496140702391068, 48.892921365469626 ], [ 2.496140702385309, 48.892921365454086 ], [ 2.49612725952643, 48.892885457286951 ] ] ] } },
{ "type": "Feature", "properties": { "start_date": 2000, "construction_date.nb": 1, "historic.building": "yes" }, "geometry": { "type": "Polygon", "coordinates": [ [ [ 2.496768260056339, 48.893040476601051 ], [ 2.496753123736322, 48.893043548872612 ], [ 2.496749913200568, 48.893037060341307 ], [ 2.496741609698303, 48.893021287529884 ], [ 2.496728715373338, 48.892986609938227 ], [ 2.496809114046365, 48.892970556473017 ], [ 2.496795679446211, 48.893004093074573 ], [ 2.496768260056339, 48.893040476601051 ] ] ] } },
{ "type": "Feature", "properties": { "start_date": 1967, "construction_date.nb": 1, "historic.building": "yes" }, "geometry": { "type": "Polygon", "coordinates": [ [ [ 2.496480195632788, 48.892565947329437 ], [ 2.496495859433653, 48.892638587492705 ], [ 2.496382006224005, 48.892649709831659 ], [ 2.496364700814618, 48.89257760231331 ], [ 2.496480195632788, 48.892565947329437 ] ] ] } },
{ "type": "Feature", "properties": { "start_date": 1910, "construction_date.nb": 2, "historic.building": "yes" }, "geometry": { "type": "MultiPolygon", "coordinates": [ [ [ [ 2.496108208797283, 48.892600714757279 ], [ 2.496218640277988, 48.892590837311751 ], [ 2.496233625311502, 48.892663114921447 ], [ 2.496125096903034, 48.892673629902646 ], [ 2.496108208797283, 48.892600714757279 ] ] ], [ [ [ 2.496098004220157, 48.892668659622942 ], [ 2.496098004219451, 48.892668659619744 ], [ 2.49609800422123, 48.892668659619567 ], [ 2.49611585743637, 48.892740499660675 ], [ 2.496115857425356, 48.892740499661784 ], [ 2.496098004220157, 48.892668659622942 ] ] ] ] } },
{ "type": "Feature", "properties": { "start_date": 1948, "construction_date.nb": 1, "historic.building": "yes" }, "geometry": { "type": "Polygon", "coordinates": [ [ [ 2.496115857425356, 48.892740499661784 ], [ 2.496082949153514, 48.892743785966644 ], [ 2.495950807295478, 48.892756981871862 ], [ 2.495933366967015, 48.892684783837609 ], [ 2.495929198693588, 48.892664531820856 ], [ 2.495987478242303, 48.892660100711673 ], [ 2.495991795134372, 48.892679094323661 ], [ 2.496098004219451, 48.892668659619744 ], [ 2.496098004220157, 48.892668659622942 ], [ 2.496115857425356, 48.892740499661784 ] ] ] } },
{ "type": "Feature", "properties": { "start_date": 1911, "construction_date.nb": 2, "historic.building": "yes" }, "geometry": { "type": "Polygon", "coordinates": [ [ [ 2.495615783776502, 48.892734977033975 ], [ 2.495615783781044, 48.892734977054047 ], [ 2.495532922532707, 48.892742721780017 ], [ 2.495534460625462, 48.892752890469701 ], [ 2.495534460603395, 48.892752890471542 ], [ 2.495534460601387, 48.892752890463456 ], [ 2.495532922494177, 48.892742721783264 ], [ 2.49552265904061, 48.892689978990809 ], [ 2.49551050894223, 48.892634890043986 ], [ 2.495510508963618, 48.892634890041748 ], [ 2.495592286848498, 48.89262633138474 ], [ 2.495598840531728, 48.892656634467563 ], [ 2.495615783776502, 48.892734977033975 ] ] ] } },
{ "type": "Feature", "properties": { "start_date": 1930, "construction_date.nb": 2, "historic.building": "yes" }, "geometry": { "type": "MultiPolygon", "coordinates": [ [ [ [ 2.495534460601387, 48.892752890463456 ], [ 2.495534460603395, 48.892752890471542 ], [ 2.495466485686697, 48.892758539538413 ], [ 2.495449930500997, 48.892679510395027 ], [ 2.49547764703368, 48.892676389650994 ], [ 2.495471736063797, 48.892638953457762 ], [ 2.49551050894223, 48.892634890043986 ], [ 2.49552265904061, 48.892689978990809 ], [ 2.495532922494177, 48.892742721783264 ], [ 2.495534460601387, 48.892752890463456 ] ] ], [ [ [ 2.495451853303843, 48.892748495544254 ], [ 2.495432434611546, 48.892655335173231 ], [ 2.495432434642346, 48.892655335170026 ], [ 2.495451853309091, 48.892748495543778 ], [ 2.495451853303843, 48.892748495544254 ] ] ] ] } },
{ "type": "Feature", "properties": { "start_date": 1925, "construction_date.nb": 1, "historic.building": "yes" }, "geometry": { "type": "Polygon", "coordinates": [ [ [ 2.4946107, 48.892657299999982 ], [ 2.4946008, 48.892612499999977 ], [ 2.4946395, 48.892608599999974 ], [ 2.4946327, 48.892580599999988 ], [ 2.4947314, 48.892570399999975 ], [ 2.4947392, 48.8926017 ], [ 2.4947528, 48.892599599999961 ], [ 2.494756, 48.89261209999998 ], [ 2.4947425, 48.892613799999943 ], [ 2.4947498, 48.892641900000022 ], [ 2.4946107, 48.892657299999982 ] ] ] } },
{ "type": "Feature", "properties": { "start_date": 1930, "construction_date.nb": 1, "historic.building": "yes" }, "geometry": { "type": "Polygon", "coordinates": [ [ [ 2.494383161372299, 48.89277366522176 ], [ 2.494383161378255, 48.892773665220396 ], [ 2.494391986477571, 48.892790254165654 ], [ 2.494383161375061, 48.892773665227892 ], [ 2.494383161372299, 48.89277366522176 ] ] ] } },
{ "type": "Feature", "properties": { "start_date": 1925, "construction_date.nb": 2, "historic.building": "yes" }, "geometry": { "type": "Polygon", "coordinates": [ [ [ 2.494383161375061, 48.892773665227892 ], [ 2.494391986477571, 48.892790254165654 ], [ 2.49441945942755, 48.892841896260443 ], [ 2.494340723435892, 48.892860179523993 ], [ 2.494340723433891, 48.892860179524462 ], [ 2.494340723422368, 48.892860179502719 ], [ 2.494304155310049, 48.892791677537716 ], [ 2.494302269567982, 48.892789241440241 ], [ 2.494302269594188, 48.892789241434443 ], [ 2.494304155329914, 48.892791677538547 ], [ 2.494383161372299, 48.89277366522176 ], [ 2.494383161375061, 48.892773665227892 ] ] ] } },
{ "type": "Feature", "properties": { "start_date": 1926, "construction_date.nb": 1, "historic.building": "yes" }, "geometry": { "type": "Polygon", "coordinates": [ [ [ 2.494340723433891, 48.892860179524462 ], [ 2.494325277471934, 48.892863711519219 ], [ 2.494285639765484, 48.89287253723041 ], [ 2.494281218663644, 48.892864334842002 ], [ 2.49423693090026, 48.892874489877755 ], [ 2.494199348459748, 48.892882334994574 ], [ 2.494185479261495, 48.892857516758795 ], [ 2.494183127671173, 48.892853308694484 ], [ 2.494179133177461, 48.892845628091244 ], [ 2.494160768868856, 48.892810317166855 ], [ 2.494147363220777, 48.892786338898219 ], [ 2.494145726255016, 48.892782167847052 ], [ 2.494145100650108, 48.892780573761037 ], [ 2.494219887706182, 48.892761644433797 ], [ 2.494243223954457, 48.892802301854921 ], [ 2.494302269567982, 48.892789241440241 ], [ 2.494304155310049, 48.892791677537716 ], [ 2.494340723422368, 48.892860179502719 ], [ 2.494340723433891, 48.892860179524462 ] ] ] } },
{ "type": "Feature", "properties": { "start_date": 1928, "construction_date.nb": 1, "historic.building": "yes" }, "geometry": { "type": "MultiPolygon", "coordinates": [ [ [ [ 2.494145100650108, 48.892780573761037 ], [ 2.494145726255016, 48.892782167847052 ], [ 2.494145100642731, 48.892780573762913 ], [ 2.494145100650108, 48.892780573761037 ] ] ], [ [ [ 2.494183127671173, 48.892853308694484 ], [ 2.494185479261495, 48.892857516758795 ], [ 2.494183127665976, 48.892853308693816 ], [ 2.494179133177461, 48.892845628091244 ], [ 2.494183127671173, 48.892853308694484 ] ] ] ] } },
{ "type": "Feature", "properties": { "start_date": 1914, "construction_date.nb": 1, "historic.building": "yes" }, "geometry": { "type": "Polygon", "coordinates": [ [ [ 2.495451853303843, 48.892748495544254 ], [ 2.495316577457249, 48.892760605769688 ], [ 2.495314175778523, 48.892755109852644 ], [ 2.495303340027487, 48.892705152496461 ], [ 2.495393308746144, 48.892695819115801 ], [ 2.495385061042696, 48.892660261614623 ], [ 2.495432434611546, 48.892655335173231 ], [ 2.495451853303843, 48.892748495544254 ] ] ] } },
{ "type": "Feature", "properties": { "start_date": 1999, "construction_date.nb": 1, "historic.building": "yes" }, "geometry": { "type": "Polygon", "coordinates": [ [ [ 2.495598840531728, 48.892656634467563 ], [ 2.495615783810673, 48.892734977051269 ], [ 2.495615783781044, 48.892734977054047 ], [ 2.495615783776502, 48.892734977033975 ], [ 2.495598840531728, 48.892656634467563 ] ] ] } },
{ "type": "Feature", "properties": { "start_date": 1905, "construction_date.nb": 1, "historic.building": "yes" }, "geometry": { "type": "Polygon", "coordinates": [ [ [ 2.495878753841549, 48.892465482040819 ], [ 2.495892637143445, 48.892524715064468 ], [ 2.495782726888853, 48.89253711246122 ], [ 2.495767887261331, 48.892478055264263 ], [ 2.495803796057912, 48.892473979693314 ], [ 2.495798693228085, 48.892451655323967 ], [ 2.495836782333381, 48.892447768789395 ], [ 2.495842433322422, 48.892469825682845 ], [ 2.495878753841549, 48.892465482040819 ] ] ] } },
{ "type": "Feature", "properties": { "start_date": 1924, "construction_date.nb": 1, "historic.building": "yes" }, "geometry": { "type": "Polygon", "coordinates": [ [ [ 2.4945683, 48.89153270000002 ], [ 2.49458, 48.891571299999988 ], [ 2.494479831522102, 48.891583676303775 ], [ 2.4944676, 48.891546800000015 ], [ 2.4945683, 48.89153270000002 ] ] ] } },
{ "type": "Feature", "properties": { "start_date": 1924, "construction_date.nb": 1, "historic.building": "yes" }, "geometry": { "type": "Polygon", "coordinates": [ [ [ 2.4949955, 48.891480199999961 ], [ 2.4951098, 48.891464 ], [ 2.4951301, 48.891524299999958 ], [ 2.4951206, 48.891526 ], [ 2.4951293, 48.891555199999978 ], [ 2.4950263, 48.8915703 ], [ 2.4949955, 48.891480199999961 ] ] ] } },
{ "type": "Feature", "properties": { "start_date": 1936, "construction_date.nb": 1, "historic.building": "yes" }, "geometry": { "type": "Polygon", "coordinates": [ [ [ 2.4951589, 48.8914568 ], [ 2.4952455, 48.891444199999988 ], [ 2.4952763, 48.89153869999997 ], [ 2.4952031, 48.891548599999986 ], [ 2.4951977, 48.8915307 ], [ 2.4951842, 48.891532099999971 ], [ 2.4951589, 48.8914568 ] ] ] } },
{ "type": "Feature", "properties": { "start_date": 1932, "construction_date.nb": 1, "historic.building": "yes" }, "geometry": { "type": "Polygon", "coordinates": [ [ [ 2.4957907, 48.891372299999972 ], [ 2.4958749, 48.891360800000015 ], [ 2.4958989, 48.891430599999957 ], [ 2.4958147, 48.8914426 ], [ 2.4957907, 48.891372299999972 ] ] ] } },
{ "type": "Feature", "properties": { "start_date": 1914, "construction_date.nb": 1, "historic.building": "yes" }, "geometry": { "type": "Polygon", "coordinates": [ [ [ 2.495012885275184, 48.891027970463234 ], [ 2.4950129, 48.891028 ], [ 2.494916706291312, 48.891050484302916 ], [ 2.494919924981446, 48.891049703839393 ], [ 2.495012875160355, 48.891027972804935 ], [ 2.495012885275184, 48.891027970463234 ] ] ] } },
{ "type": "Feature", "properties": { "start_date": 1931, "construction_date.nb": 1, "historic.building": "yes" }, "geometry": { "type": "Polygon", "coordinates": [ [ [ 2.494916706291312, 48.891050484302916 ], [ 2.4949145, 48.891051 ], [ 2.4948858, 48.8909959 ], [ 2.4950066, 48.890968 ], [ 2.4950175, 48.8909885 ], [ 2.494996, 48.8909941 ], [ 2.495012885275184, 48.891027970463234 ], [ 2.495012875160355, 48.891027972804935 ], [ 2.494919924981446, 48.891049703839393 ], [ 2.494916706291312, 48.891050484302916 ] ] ] } },
{ "type": "Feature", "properties": { "start_date": 1910, "construction_date.nb": 1, "historic.building": "yes" }, "geometry": { "type": "Polygon", "coordinates": [ [ [ 2.495078778545897, 48.890715103254252 ], [ 2.49499709014843, 48.89072749421328 ], [ 2.4949839, 48.890684899999975 ], [ 2.4950142, 48.8906805 ], [ 2.4950086, 48.890662100000014 ], [ 2.4950582, 48.8906549 ], [ 2.495058733364939, 48.890656186350931 ], [ 2.495061556254619, 48.890663057667993 ], [ 2.495078778545897, 48.890715103254252 ] ] ] } },
{ "type": "Feature", "properties": { "start_date": 1925, "construction_date.nb": 1, "historic.building": "yes" }, "geometry": { "type": "Polygon", "coordinates": [ [ [ 2.494548187030809, 48.891059377736255 ], [ 2.4945302, 48.891028499999983 ], [ 2.4945021, 48.891034499999982 ], [ 2.4944638, 48.8909632 ], [ 2.4945758, 48.89093619999997 ], [ 2.4946325, 48.8910393 ], [ 2.494589540901877, 48.891049542926055 ], [ 2.494548191497468, 48.891059376704888 ], [ 2.494548187030809, 48.891059377736255 ] ] ] } },
{ "type": "Feature", "properties": { "start_date": 1939, "construction_date.nb": 1, "historic.building": "yes" }, "geometry": { "type": "Polygon", "coordinates": [ [ [ 2.494589540901877, 48.891049542926055 ], [ 2.4945482, 48.891059400000024 ], [ 2.494548187030809, 48.891059377736255 ], [ 2.494548191497468, 48.891059376704888 ], [ 2.494589540901877, 48.891049542926055 ] ] ] } },
{ "type": "Feature", "properties": { "start_date": 1933, "construction_date.nb": 1, "historic.building": "yes" }, "geometry": { "type": "Polygon", "coordinates": [ [ [ 2.493324912084598, 48.890873609105974 ], [ 2.4933638, 48.8908688 ], [ 2.4933837, 48.890936199999985 ], [ 2.493329721482907, 48.890943113053204 ], [ 2.493317107362518, 48.890909720016722 ], [ 2.493324912084598, 48.890873609105974 ] ] ] } },
{ "type": "Feature", "properties": { "start_date": 1924, "construction_date.nb": 1, "historic.building": "yes" }, "geometry": { "type": "Polygon", "coordinates": [ [ [ 2.493500659518228, 48.891395628384238 ], [ 2.4935543, 48.891392199999977 ], [ 2.4935717, 48.891390899999983 ], [ 2.4935769, 48.8914106 ], [ 2.493588989053577, 48.891409307509839 ], [ 2.493603879539709, 48.89147346009149 ], [ 2.493532820087547, 48.891480764435556 ], [ 2.493500659518228, 48.891395628384238 ] ] ] } },
{ "type": "Feature", "properties": { "start_date": 1925, "construction_date.nb": 1, "historic.building": "yes" }, "geometry": { "type": "Polygon", "coordinates": [ [ [ 2.493528206951629, 48.890119652322433 ], [ 2.4935546, 48.89016849999998 ], [ 2.493473374864373, 48.890186691052406 ], [ 2.493483936535571, 48.89013782284129 ], [ 2.493528206951629, 48.890119652322433 ] ] ] } },
{ "type": "Feature", "properties": { "start_date": 1912, "construction_date.nb": 2, "historic.building": "yes" }, "geometry": { "type": "MultiPolygon", "coordinates": [ [ [ [ 2.494337480920759, 48.890478263973286 ], [ 2.494264290958785, 48.8904953833894 ], [ 2.4942041, 48.890384799999971 ], [ 2.4942842, 48.890365800000012 ], [ 2.4943253, 48.89044269999998 ], [ 2.4943196, 48.8904445 ], [ 2.494337480920759, 48.890478263973286 ] ] ], [ [ [ 2.494344013840419, 48.890476825932055 ], [ 2.494343957628158, 48.890476839771146 ], [ 2.494341874557165, 48.890477297588824 ], [ 2.494344, 48.890476800000023 ], [ 2.494344013840419, 48.890476825932055 ] ] ], [ [ [ 2.494254092535429, 48.890497848253879 ], [ 2.494249640915333, 48.89049892424736 ], [ 2.494249616134838, 48.890498930283862 ], [ 2.4942496, 48.890498899999962 ], [ 2.494254092535429, 48.890497848253879 ] ] ] ] } },
{ "type": "Feature", "properties": { "start_date": 1920, "construction_date.nb": 2, "historic.building": "yes" }, "geometry": { "type": "MultiPolygon", "coordinates": [ [ [ [ 2.494264290958785, 48.8904953833894 ], [ 2.494337480920759, 48.890478263973286 ], [ 2.4943375, 48.8904783 ], [ 2.4942643, 48.890495399999956 ], [ 2.494264290958785, 48.8904953833894 ] ] ], [ [ [ 2.494343957628158, 48.890476839771146 ], [ 2.494344013840419, 48.890476825932055 ], [ 2.494417579890646, 48.890614662322385 ], [ 2.494284615123815, 48.890633069397886 ], [ 2.494284586773395, 48.890633073452321 ], [ 2.4942706, 48.890605 ], [ 2.4943099, 48.8905972 ], [ 2.4943018, 48.89057769999998 ], [ 2.4943137, 48.890575799999986 ], [ 2.4943011, 48.8905507 ], [ 2.4942888, 48.890553 ], [ 2.4942732, 48.8905347 ], [ 2.4942691, 48.890535499999977 ], [ 2.494249616134838, 48.890498930283862 ], [ 2.494249640915333, 48.89049892424736 ], [ 2.494254092535429, 48.890497848253879 ], [ 2.494341874557165, 48.890477297588824 ], [ 2.494343957628158, 48.890476839771146 ] ] ] ] } },
{ "type": "Feature", "properties": { "start_date": 1924, "construction_date.nb": 2, "historic.building": "yes" }, "geometry": { "type": "MultiPolygon", "coordinates": [ [ [ [ 2.494264290958785, 48.8904953833894 ], [ 2.494337480920759, 48.890478263973286 ], [ 2.4943375, 48.8904783 ], [ 2.4942643, 48.890495399999956 ], [ 2.494264290958785, 48.8904953833894 ] ] ], [ [ [ 2.494343957628158, 48.890476839771146 ], [ 2.494344013840419, 48.890476825932055 ], [ 2.494417579890646, 48.890614662322385 ], [ 2.494284615123815, 48.890633069397886 ], [ 2.494284586773395, 48.890633073452321 ], [ 2.4942706, 48.890605 ], [ 2.4943099, 48.8905972 ], [ 2.4943018, 48.89057769999998 ], [ 2.4943137, 48.890575799999986 ], [ 2.4943011, 48.8905507 ], [ 2.4942888, 48.890553 ], [ 2.4942732, 48.8905347 ], [ 2.4942691, 48.890535499999977 ], [ 2.494249616134838, 48.890498930283862 ], [ 2.494249640915333, 48.89049892424736 ], [ 2.494254092535429, 48.890497848253879 ], [ 2.494341874557165, 48.890477297588824 ], [ 2.494343957628158, 48.890476839771146 ] ] ] ] } },
{ "type": "Feature", "properties": { "start_date": 1936, "construction_date.nb": 1, "historic.building": "yes" }, "geometry": { "type": "Polygon", "coordinates": [ [ [ 2.4946875, 48.8904472 ], [ 2.4945819, 48.890471500000032 ], [ 2.4945508, 48.8904151 ], [ 2.4946563, 48.8903901 ], [ 2.4946875, 48.8904472 ] ] ] } },
{ "type": "Feature", "properties": { "start_date": 1910, "construction_date.nb": 1, "historic.building": "yes" }, "geometry": { "type": "Polygon", "coordinates": [ [ [ 2.4945215, 48.8903084 ], [ 2.4946079, 48.890288300000016 ], [ 2.4946165, 48.890305 ], [ 2.494629, 48.8903024 ], [ 2.4946364, 48.890316799999972 ], [ 2.4946244, 48.890319900000023 ], [ 2.4946459, 48.8903601 ], [ 2.4946099, 48.8903682 ], [ 2.4945608, 48.890379199999956 ], [ 2.4945215, 48.8903084 ] ] ] } },
{ "type": "Feature", "properties": { "start_date": 1933, "construction_date.nb": 1, "historic.building": "yes" }, "geometry": { "type": "Polygon", "coordinates": [ [ [ 2.494480757009804, 48.889747911783559 ], [ 2.494494265682093, 48.889772683567735 ], [ 2.494494277563862, 48.889772705224281 ], [ 2.4943908, 48.889796799999978 ], [ 2.494376727614149, 48.889771376429536 ], [ 2.494424551601532, 48.88975174671107 ], [ 2.494480757009804, 48.889747911783559 ] ] ] } },
{ "type": "Feature", "properties": { "start_date": 1925, "construction_date.nb": 1, "historic.building": "yes" }, "geometry": { "type": "Polygon", "coordinates": [ [ [ 2.494480784893065, 48.889747909881059 ], [ 2.4944943, 48.8897727 ], [ 2.494494277563862, 48.889772705224281 ], [ 2.494494265682093, 48.889772683567735 ], [ 2.494480757009804, 48.889747911783559 ], [ 2.494480784893065, 48.889747909881059 ] ] ] } },
{ "type": "Feature", "properties": { "start_date": 1929, "construction_date.nb": 1, "historic.building": "yes" }, "geometry": { "type": "Polygon", "coordinates": [ [ [ 2.494878680331374, 48.889885601016431 ], [ 2.4948804, 48.889885199999988 ], [ 2.494906, 48.8899302 ], [ 2.4947618, 48.889963 ], [ 2.49473760579668, 48.88991851065915 ], [ 2.494737649514182, 48.889918500058414 ], [ 2.494742023047501, 48.889917529269319 ], [ 2.494872286574628, 48.889887142508975 ], [ 2.494878680331374, 48.889885601016431 ] ] ] } },
{ "type": "Feature", "properties": { "start_date": 1928, "construction_date.nb": 1, "historic.building": "yes" }, "geometry": { "type": "Polygon", "coordinates": [ [ [ 2.495007317707472, 48.890109933218675 ], [ 2.495046, 48.89018249999998 ], [ 2.4949497, 48.89020450000001 ], [ 2.494938, 48.8901819 ], [ 2.4949257, 48.8901843 ], [ 2.4949181, 48.8901712 ], [ 2.4949304, 48.890168699999975 ], [ 2.4949104, 48.890132499999979 ], [ 2.494961445438384, 48.890120594677818 ], [ 2.495007317707472, 48.890109933218675 ] ] ] } },
{ "type": "Feature", "properties": { "start_date": 1928, "construction_date.nb": 1, "historic.building": "yes" }, "geometry": { "type": "Polygon", "coordinates": [ [ [ 2.495014030753692, 48.890470098434029 ], [ 2.4950204, 48.890489400000014 ], [ 2.4948672, 48.8905126 ], [ 2.4948412, 48.890434300000024 ], [ 2.4949527, 48.890417399999968 ], [ 2.4949557, 48.8904257 ], [ 2.494997363575745, 48.890419705240909 ], [ 2.495014030753692, 48.890470098434029 ] ] ] } },
{ "type": "Feature", "properties": { "start_date": 1910, "construction_date.nb": 1, "historic.building": "yes" }, "geometry": { "type": "Polygon", "coordinates": [ [ [ 2.494997363575745, 48.890419705240909 ], [ 2.4949974, 48.890419699999974 ], [ 2.495014030753692, 48.890470098434029 ], [ 2.494997363575745, 48.890419705240909 ] ] ] } },
{ "type": "Feature", "properties": { "start_date": 1932, "construction_date.nb": 1, "historic.building": "yes" }, "geometry": { "type": "Polygon", "coordinates": [ [ [ 2.497622138316867, 48.890940928874777 ], [ 2.4975922, 48.890945399999985 ], [ 2.4975829, 48.8909405 ], [ 2.4975576, 48.8908628 ], [ 2.4975819, 48.8908603 ], [ 2.497624595271366, 48.890856683034364 ], [ 2.497640002632766, 48.890896330618205 ], [ 2.497622138316867, 48.890940928874777 ] ] ] } },
{ "type": "Feature", "properties": { "start_date": 1904, "construction_date.nb": 1, "historic.building": "yes" }, "geometry": { "type": "Polygon", "coordinates": [ [ [ 2.497432502336923, 48.890362367069699 ], [ 2.497447854567454, 48.89040187359268 ], [ 2.4973931, 48.8904096 ], [ 2.4973654, 48.8903305 ], [ 2.497384195398712, 48.890327746879002 ], [ 2.497432502336923, 48.890362367069699 ] ] ] } },
{ "type": "Feature", "properties": { "start_date": 1905, "construction_date.nb": 1, "historic.building": "yes" }, "geometry": { "type": "Polygon", "coordinates": [ [ [ 2.496882809574118, 48.890592030379153 ], [ 2.496898762351906, 48.890642649334154 ], [ 2.4968038, 48.8906556 ], [ 2.4967887102471, 48.890605933727215 ], [ 2.496882785458701, 48.890592033801411 ], [ 2.496882809574118, 48.890592030379153 ] ] ] } },
{ "type": "Feature", "properties": { "start_date": 1895, "construction_date.nb": 2, "historic.building": "yes" }, "geometry": { "type": "MultiPolygon", "coordinates": [ [ [ [ 2.4968527, 48.890563199999981 ], [ 2.4967599, 48.890577399999955 ], [ 2.4967423, 48.890522499999967 ], [ 2.49683313208425, 48.89050877825953 ], [ 2.4968527, 48.890563199999981 ] ] ], [ [ [ 2.496882785458701, 48.890592033801411 ], [ 2.4967887102471, 48.890605933727215 ], [ 2.4967887, 48.890605899999976 ], [ 2.4968828, 48.890592 ], [ 2.496882809574118, 48.890592030379153 ], [ 2.496882785458701, 48.890592033801411 ] ] ] ] } },
{ "type": "Feature", "properties": { "start_date": 1910, "construction_date.nb": 1, "historic.building": "yes" }, "geometry": { "type": "Polygon", "coordinates": [ [ [ 2.4967176, 48.890467300000019 ], [ 2.4966947, 48.890469799999984 ], [ 2.4966781, 48.8904173 ], [ 2.4967739, 48.8904042 ], [ 2.4967954, 48.890472099999982 ], [ 2.4967226, 48.890482500000012 ], [ 2.4967176, 48.890467300000019 ] ] ] } },
{ "type": "Feature", "properties": { "start_date": 1983, "construction_date.nb": 1, "historic.building": "yes" }, "geometry": { "type": "Polygon", "coordinates": [ [ [ 2.496353203749201, 48.88964581837444 ], [ 2.4963527, 48.8896449 ], [ 2.496352617681319, 48.889644739070896 ], [ 2.496352699301114, 48.889644898424507 ], [ 2.496353203749201, 48.88964581837444 ] ] ] } },
{ "type": "Feature", "properties": { "start_date": 1957, "construction_date.nb": 1, "historic.building": "yes" }, "geometry": { "type": "MultiPolygon", "coordinates": [ [ [ [ 2.496436481906285, 48.889648534148741 ], [ 2.4964304, 48.8896499 ], [ 2.496425300388905, 48.889640520358356 ], [ 2.496436481906285, 48.889648534148741 ] ] ], [ [ [ 2.496424176486722, 48.889639714857779 ], [ 2.4964058, 48.8896431 ], [ 2.4964261, 48.889681 ], [ 2.4963787, 48.8896923 ], [ 2.496353203749201, 48.88964581837444 ], [ 2.496352699301114, 48.889644898424507 ], [ 2.496352617681319, 48.889644739070896 ], [ 2.496340477825928, 48.889621006221049 ], [ 2.496393065044515, 48.889617417275637 ], [ 2.496424176486722, 48.889639714857779 ] ] ] ] } },
{ "type": "Feature", "properties": { "start_date": 1906, "construction_date.nb": 1, "historic.building": "yes" }, "geometry": { "type": "MultiPolygon", "coordinates": [ [ [ [ 2.496436481906285, 48.889648534148741 ], [ 2.4964304, 48.8896499 ], [ 2.496425300388905, 48.889640520358356 ], [ 2.496436481906285, 48.889648534148741 ] ] ], [ [ [ 2.496424176486722, 48.889639714857779 ], [ 2.4964058, 48.8896431 ], [ 2.4964261, 48.889681 ], [ 2.4963787, 48.8896923 ], [ 2.496353203749201, 48.88964581837444 ], [ 2.496352699301114, 48.889644898424507 ], [ 2.496352617681319, 48.889644739070896 ], [ 2.496340477825928, 48.889621006221049 ], [ 2.496393065044515, 48.889617417275637 ], [ 2.496424176486722, 48.889639714857779 ] ] ] ] } },
{ "type": "Feature", "properties": { "start_date": 1912, "construction_date.nb": 1, "historic.building": "yes" }, "geometry": { "type": "Polygon", "coordinates": [ [ [ 2.49473760579668, 48.88991851065915 ], [ 2.4947376, 48.889918499999951 ], [ 2.494878680331374, 48.889885601016431 ], [ 2.494872286574628, 48.889887142508975 ], [ 2.494742023047501, 48.889917529269319 ], [ 2.494737649514182, 48.889918500058414 ], [ 2.49473760579668, 48.88991851065915 ] ] ] } },
{ "type": "Feature", "properties": { "start_date": 1920, "construction_date.nb": 1, "historic.building": "yes" }, "geometry": { "type": "Polygon", "coordinates": [ [ [ 2.495058733364939, 48.890656186350931 ], [ 2.4950616, 48.890663099999983 ], [ 2.4950788, 48.890715099999973 ], [ 2.495078778545897, 48.890715103254252 ], [ 2.495061556254619, 48.890663057667993 ], [ 2.495058733364939, 48.890656186350931 ] ] ] } },
{ "type": "Feature", "properties": { "start_date": 1974, "construction_date.nb": 1, "historic.building": "yes" }, "geometry": { "type": "Polygon", "coordinates": [ [ [ 2.495037524320106, 48.894308496696972 ], [ 2.4950375, 48.8943085 ], [ 2.495019202833198, 48.894250532000662 ], [ 2.495037522037046, 48.894308489443056 ], [ 2.495037524320106, 48.894308496696972 ] ] ] } },
{ "type": "Feature", "properties": { "start_date": 1930, "construction_date.nb": 1, "historic.building": "yes" }, "geometry": { "type": "Polygon", "coordinates": [ [ [ 2.495019202833198, 48.894250532000662 ], [ 2.4950149, 48.894236899999989 ], [ 2.4951145, 48.8942232 ], [ 2.4951369, 48.894295 ], [ 2.495037524320106, 48.894308496696972 ], [ 2.495037522037046, 48.894308489443056 ], [ 2.495019202833198, 48.894250532000662 ] ] ] } },
{ "type": "Feature", "properties": { "start_date": 1928, "construction_date.nb": 1, "historic.building": "yes" }, "geometry": { "type": "Polygon", "coordinates": [ [ [ 2.4951612, 48.894225799999987 ], [ 2.4952077, 48.8942178 ], [ 2.4952117, 48.894227500000021 ], [ 2.4952608, 48.8942207 ], [ 2.4952819, 48.8942839 ], [ 2.4951851, 48.894297499999979 ], [ 2.4951612, 48.894225799999987 ] ] ] } },
{ "type": "Feature", "properties": { "start_date": 1920, "construction_date.nb": 1, "historic.building": "yes" }, "geometry": { "type": "Polygon", "coordinates": [ [ [ 2.4953723, 48.89427730000002 ], [ 2.4955197, 48.8942504 ], [ 2.4955375, 48.8942965 ], [ 2.4953897, 48.894323100000015 ], [ 2.4953723, 48.89427730000002 ] ] ] } },
{ "type": "Feature", "properties": { "start_date": 1929, "construction_date.nb": 1, "historic.building": "yes" }, "geometry": { "type": "Polygon", "coordinates": [ [ [ 2.495505722711451, 48.894395645449613 ], [ 2.4954878, 48.894359799999982 ], [ 2.4955926, 48.8943364 ], [ 2.495598208584862, 48.894348002875127 ], [ 2.49555788751083, 48.894383868133339 ], [ 2.495505722711451, 48.894395645449613 ] ] ] } },
{ "type": "Feature", "properties": { "start_date": 1930, "construction_date.nb": 1, "historic.building": "yes" }, "geometry": { "type": "Polygon", "coordinates": [ [ [ 2.494684960599218, 48.894530534875315 ], [ 2.4947186, 48.8945228 ], [ 2.4947297, 48.8945442 ], [ 2.4947229, 48.894545799999968 ], [ 2.494736246094486, 48.894569367833149 ], [ 2.494702509366264, 48.894576984326363 ], [ 2.494684960599218, 48.894530534875315 ] ] ] } },
{ "type": "Feature", "properties": { "start_date": 1925, "construction_date.nb": 1, "historic.building": "yes" }, "geometry": { "type": "Polygon", "coordinates": [ [ [ 2.494585122417415, 48.894036556567883 ], [ 2.4945787, 48.894025799999966 ], [ 2.494578725058108, 48.89402579407966 ], [ 2.494585122417415, 48.894036556567883 ] ] ] } },
{ "type": "Feature", "properties": { "start_date": 1928, "construction_date.nb": 1, "historic.building": "yes" }, "geometry": { "type": "Polygon", "coordinates": [ [ [ 2.494645499830005, 48.894010335472444 ], [ 2.4946666, 48.894005899999961 ], [ 2.4947039, 48.893996899999976 ], [ 2.494718699246641, 48.893993100193391 ], [ 2.494718702331215, 48.893993106060051 ], [ 2.494703935371267, 48.893996910779883 ], [ 2.494666613611498, 48.89400592624532 ], [ 2.494645499830005, 48.894010335472444 ] ] ] } },
{ "type": "Feature", "properties": { "start_date": 1930, "construction_date.nb": 1, "historic.building": "yes" }, "geometry": { "type": "Polygon", "coordinates": [ [ [ 2.494578725058108, 48.89402579407966 ], [ 2.4946333, 48.8940129 ], [ 2.494645499830005, 48.894010335472444 ], [ 2.494666613611498, 48.89400592624532 ], [ 2.494703935371267, 48.893996910779883 ], [ 2.494718702331215, 48.893993106060051 ], [ 2.494721645518064, 48.89399858812439 ], [ 2.4947823, 48.894111599999967 ], [ 2.494767123822327, 48.894132619879677 ], [ 2.494764918808585, 48.894135661633477 ], [ 2.494648287024456, 48.894152075899115 ], [ 2.494595, 48.894053099999987 ], [ 2.494585122417415, 48.894036556567883 ], [ 2.494578725058108, 48.89402579407966 ] ] ] } },
{ "type": "Feature", "properties": { "start_date": 1927, "construction_date.nb": 1, "historic.building": "yes" }, "geometry": { "type": "Polygon", "coordinates": [ [ [ 2.4947669, 48.8934858 ], [ 2.4946656, 48.8935099 ], [ 2.4946405, 48.8934619 ], [ 2.4947417, 48.8934399 ], [ 2.4947598, 48.8934718 ], [ 2.4947669, 48.8934858 ] ] ] } },
{ "type": "Feature", "properties": { "start_date": 1923, "construction_date.nb": 1, "historic.building": "yes" }, "geometry": { "type": "Polygon", "coordinates": [ [ [ 2.49586518466767, 48.893876677272331 ], [ 2.4958601, 48.893867 ], [ 2.495860143985153, 48.893866990121282 ], [ 2.49586518466767, 48.893876677272331 ] ] ] } },
{ "type": "Feature", "properties": { "start_date": 1912, "construction_date.nb": 1, "historic.building": "yes" }, "geometry": { "type": "Polygon", "coordinates": [ [ [ 2.495536793437368, 48.893622351154605 ], [ 2.49558651459221, 48.893610673775477 ], [ 2.4955954, 48.8936305 ], [ 2.495604, 48.8936509 ], [ 2.4956196, 48.8936835 ], [ 2.4956212, 48.89368539999996 ], [ 2.4955509, 48.893701 ], [ 2.4955407, 48.8936825 ], [ 2.4955187, 48.893688499999982 ], [ 2.495490609571241, 48.893633218835951 ], [ 2.495536793437368, 48.893622351154605 ] ] ] } },
{ "type": "Feature", "properties": { "start_date": 1914, "construction_date.nb": 1, "historic.building": "yes" }, "geometry": { "type": "Polygon", "coordinates": [ [ [ 2.495490609571241, 48.893633218835951 ], [ 2.4954906, 48.893633200000018 ], [ 2.495536793437368, 48.893622351154605 ], [ 2.495490609571241, 48.893633218835951 ] ] ] } },
{ "type": "Feature", "properties": { "start_date": 1929, "construction_date.nb": 1, "historic.building": "yes" }, "geometry": { "type": "Polygon", "coordinates": [ [ [ 2.4954494, 48.8934192 ], [ 2.49539, 48.8934338 ], [ 2.4953519, 48.893363599999986 ], [ 2.4954117, 48.893349299999983 ], [ 2.4954494, 48.8934192 ] ] ] } },
{ "type": "Feature", "properties": { "start_date": 1926, "construction_date.nb": 1, "historic.building": "yes" }, "geometry": { "type": "Polygon", "coordinates": [ [ [ 2.495860143985153, 48.893866990121282 ], [ 2.4959398, 48.8938491 ], [ 2.495985, 48.89393050000001 ], [ 2.4959164, 48.893947 ], [ 2.4958803, 48.8938823 ], [ 2.4958694, 48.893884699999951 ], [ 2.49586518466767, 48.893876677272331 ], [ 2.495860143985153, 48.893866990121282 ] ] ] } },
{ "type": "Feature", "properties": { "start_date": 1922, "construction_date.nb": 1, "historic.building": "yes" }, "geometry": { "type": "Polygon", "coordinates": [ [ [ 2.496110127412522, 48.893892649662064 ], [ 2.4960897, 48.89382220000001 ], [ 2.496189674422801, 48.893808203587902 ], [ 2.496158378143226, 48.89384972995903 ], [ 2.496110127412522, 48.893892649662064 ] ] ] } },
{ "type": "Feature", "properties": { "start_date": 1914, "construction_date.nb": 1, "historic.building": "yes" }, "geometry": { "type": "Polygon", "coordinates": [ [ [ 2.496140702391068, 48.892921365469626 ], [ 2.49607881659074, 48.892931986699594 ], [ 2.496084493793432, 48.892951345759563 ], [ 2.496031066166287, 48.892961732773635 ], [ 2.496031066156498, 48.892961732756142 ], [ 2.495994073615082, 48.892895424695553 ], [ 2.495981329789848, 48.892872581701468 ], [ 2.496115176076412, 48.892853180323613 ], [ 2.49612725952643, 48.892885457286951 ], [ 2.496140702385309, 48.892921365454086 ], [ 2.496140702391068, 48.892921365469626 ] ] ] } },
{ "type": "Feature", "properties": { "start_date": 1910, "construction_date.nb": 1, "historic.building": "yes" }, "geometry": { "type": "Polygon", "coordinates": [ [ [ 2.49612725952643, 48.892885457286951 ], [ 2.496140702405054, 48.892921365467231 ], [ 2.496140702391068, 48.892921365469626 ], [ 2.496140702385309, 48.892921365454086 ], [ 2.49612725952643, 48.892885457286951 ] ] ] } },
{ "type": "Feature", "properties": { "start_date": 2000, "construction_date.nb": 1, "historic.building": "yes" }, "geometry": { "type": "Polygon", "coordinates": [ [ [ 2.496768260056339, 48.893040476601051 ], [ 2.496753123736322, 48.893043548872612 ], [ 2.496749913200568, 48.893037060341307 ], [ 2.496741609698303, 48.893021287529884 ], [ 2.496728715373338, 48.892986609938227 ], [ 2.496809114046365, 48.892970556473017 ], [ 2.496795679446211, 48.893004093074573 ], [ 2.496768260056339, 48.893040476601051 ] ] ] } },
{ "type": "Feature", "properties": { "start_date": 1967, "construction_date.nb": 1, "historic.building": "yes" }, "geometry": { "type": "Polygon", "coordinates": [ [ [ 2.496480195632788, 48.892565947329437 ], [ 2.496495859433653, 48.892638587492705 ], [ 2.496382006224005, 48.892649709831659 ], [ 2.496364700814618, 48.89257760231331 ], [ 2.496480195632788, 48.892565947329437 ] ] ] } },
{ "type": "Feature", "properties": { "start_date": 1910, "construction_date.nb": 2, "historic.building": "yes" }, "geometry": { "type": "MultiPolygon", "coordinates": [ [ [ [ 2.496108208797283, 48.892600714757279 ], [ 2.496218640277988, 48.892590837311751 ], [ 2.496233625311502, 48.892663114921447 ], [ 2.496125096903034, 48.892673629902646 ], [ 2.496108208797283, 48.892600714757279 ] ] ], [ [ [ 2.496098004220157, 48.892668659622942 ], [ 2.496098004219451, 48.892668659619744 ], [ 2.49609800422123, 48.892668659619567 ], [ 2.49611585743637, 48.892740499660675 ], [ 2.496115857425356, 48.892740499661784 ], [ 2.496098004220157, 48.892668659622942 ] ] ] ] } },
{ "type": "Feature", "properties": { "start_date": 1948, "construction_date.nb": 1, "historic.building": "yes" }, "geometry": { "type": "Polygon", "coordinates": [ [ [ 2.496115857425356, 48.892740499661784 ], [ 2.496082949153514, 48.892743785966644 ], [ 2.495950807295478, 48.892756981871862 ], [ 2.495933366967015, 48.892684783837609 ], [ 2.495929198693588, 48.892664531820856 ], [ 2.495987478242303, 48.892660100711673 ], [ 2.495991795134372, 48.892679094323661 ], [ 2.496098004219451, 48.892668659619744 ], [ 2.496098004220157, 48.892668659622942 ], [ 2.496115857425356, 48.892740499661784 ] ] ] } },
{ "type": "Feature", "properties": { "start_date": 1911, "construction_date.nb": 2, "historic.building": "yes" }, "geometry": { "type": "Polygon", "coordinates": [ [ [ 2.495615783776502, 48.892734977033975 ], [ 2.495615783781044, 48.892734977054047 ], [ 2.495532922532707, 48.892742721780017 ], [ 2.495534460625462, 48.892752890469701 ], [ 2.495534460603395, 48.892752890471542 ], [ 2.495534460601387, 48.892752890463456 ], [ 2.495532922494177, 48.892742721783264 ], [ 2.49552265904061, 48.892689978990809 ], [ 2.49551050894223, 48.892634890043986 ], [ 2.495510508963618, 48.892634890041748 ], [ 2.495592286848498, 48.89262633138474 ], [ 2.495598840531728, 48.892656634467563 ], [ 2.495615783776502, 48.892734977033975 ] ] ] } },
{ "type": "Feature", "properties": { "start_date": 1930, "construction_date.nb": 2, "historic.building": "yes" }, "geometry": { "type": "MultiPolygon", "coordinates": [ [ [ [ 2.495534460601387, 48.892752890463456 ], [ 2.495534460603395, 48.892752890471542 ], [ 2.495466485686697, 48.892758539538413 ], [ 2.495449930500997, 48.892679510395027 ], [ 2.49547764703368, 48.892676389650994 ], [ 2.495471736063797, 48.892638953457762 ], [ 2.49551050894223, 48.892634890043986 ], [ 2.49552265904061, 48.892689978990809 ], [ 2.495532922494177, 48.892742721783264 ], [ 2.495534460601387, 48.892752890463456 ] ] ], [ [ [ 2.495451853303843, 48.892748495544254 ], [ 2.495432434611546, 48.892655335173231 ], [ 2.495432434642346, 48.892655335170026 ], [ 2.495451853309091, 48.892748495543778 ], [ 2.495451853303843, 48.892748495544254 ] ] ] ] } },
{ "type": "Feature", "properties": { "start_date": 1925, "construction_date.nb": 1, "historic.building": "yes" }, "geometry": { "type": "Polygon", "coordinates": [ [ [ 2.4946107, 48.892657299999982 ], [ 2.4946008, 48.892612499999977 ], [ 2.4946395, 48.892608599999974 ], [ 2.4946327, 48.892580599999988 ], [ 2.4947314, 48.892570399999975 ], [ 2.4947392, 48.8926017 ], [ 2.4947528, 48.892599599999961 ], [ 2.494756, 48.89261209999998 ], [ 2.4947425, 48.892613799999943 ], [ 2.4947498, 48.892641900000022 ], [ 2.4946107, 48.892657299999982 ] ] ] } },
{ "type": "Feature", "properties": { "start_date": 1930, "construction_date.nb": 1, "historic.building": "yes" }, "geometry": { "type": "Polygon", "coordinates": [ [ [ 2.494383161372299, 48.89277366522176 ], [ 2.494383161378255, 48.892773665220396 ], [ 2.494391986477571, 48.892790254165654 ], [ 2.494383161375061, 48.892773665227892 ], [ 2.494383161372299, 48.89277366522176 ] ] ] } },
{ "type": "Feature", "properties": { "start_date": 1925, "construction_date.nb": 2, "historic.building": "yes" }, "geometry": { "type": "Polygon", "coordinates": [ [ [ 2.494383161375061, 48.892773665227892 ], [ 2.494391986477571, 48.892790254165654 ], [ 2.49441945942755, 48.892841896260443 ], [ 2.494340723435892, 48.892860179523993 ], [ 2.494340723433891, 48.892860179524462 ], [ 2.494340723422368, 48.892860179502719 ], [ 2.494304155310049, 48.892791677537716 ], [ 2.494302269567982, 48.892789241440241 ], [ 2.494302269594188, 48.892789241434443 ], [ 2.494304155329914, 48.892791677538547 ], [ 2.494383161372299, 48.89277366522176 ], [ 2.494383161375061, 48.892773665227892 ] ] ] } },
{ "type": "Feature", "properties": { "start_date": 1926, "construction_date.nb": 1, "historic.building": "yes" }, "geometry": { "type": "Polygon", "coordinates": [ [ [ 2.494340723433891, 48.892860179524462 ], [ 2.494325277471934, 48.892863711519219 ], [ 2.494285639765484, 48.89287253723041 ], [ 2.494281218663644, 48.892864334842002 ], [ 2.49423693090026, 48.892874489877755 ], [ 2.494199348459748, 48.892882334994574 ], [ 2.494185479261495, 48.892857516758795 ], [ 2.494183127671173, 48.892853308694484 ], [ 2.494179133177461, 48.892845628091244 ], [ 2.494160768868856, 48.892810317166855 ], [ 2.494147363220777, 48.892786338898219 ], [ 2.494145726255016, 48.892782167847052 ], [ 2.494145100650108, 48.892780573761037 ], [ 2.494219887706182, 48.892761644433797 ], [ 2.494243223954457, 48.892802301854921 ], [ 2.494302269567982, 48.892789241440241 ], [ 2.494304155310049, 48.892791677537716 ], [ 2.494340723422368, 48.892860179502719 ], [ 2.494340723433891, 48.892860179524462 ] ] ] } },
{ "type": "Feature", "properties": { "start_date": 1928, "construction_date.nb": 1, "historic.building": "yes" }, "geometry": { "type": "MultiPolygon", "coordinates": [ [ [ [ 2.494145100650108, 48.892780573761037 ], [ 2.494145726255016, 48.892782167847052 ], [ 2.494145100642731, 48.892780573762913 ], [ 2.494145100650108, 48.892780573761037 ] ] ], [ [ [ 2.494183127671173, 48.892853308694484 ], [ 2.494185479261495, 48.892857516758795 ], [ 2.494183127665976, 48.892853308693816 ], [ 2.494179133177461, 48.892845628091244 ], [ 2.494183127671173, 48.892853308694484 ] ] ] ] } },
{ "type": "Feature", "properties": { "start_date": 1914, "construction_date.nb": 1, "historic.building": "yes" }, "geometry": { "type": "Polygon", "coordinates": [ [ [ 2.495451853303843, 48.892748495544254 ], [ 2.495316577457249, 48.892760605769688 ], [ 2.495314175778523, 48.892755109852644 ], [ 2.495303340027487, 48.892705152496461 ], [ 2.495393308746144, 48.892695819115801 ], [ 2.495385061042696, 48.892660261614623 ], [ 2.495432434611546, 48.892655335173231 ], [ 2.495451853303843, 48.892748495544254 ] ] ] } },
{ "type": "Feature", "properties": { "start_date": 1999, "construction_date.nb": 1, "historic.building": "yes" }, "geometry": { "type": "Polygon", "coordinates": [ [ [ 2.495598840531728, 48.892656634467563 ], [ 2.495615783810673, 48.892734977051269 ], [ 2.495615783781044, 48.892734977054047 ], [ 2.495615783776502, 48.892734977033975 ], [ 2.495598840531728, 48.892656634467563 ] ] ] } },
{ "type": "Feature", "properties": { "start_date": 1905, "construction_date.nb": 1, "historic.building": "yes" }, "geometry": { "type": "Polygon", "coordinates": [ [ [ 2.495878753841549, 48.892465482040819 ], [ 2.495892637143445, 48.892524715064468 ], [ 2.495782726888853, 48.89253711246122 ], [ 2.495767887261331, 48.892478055264263 ], [ 2.495803796057912, 48.892473979693314 ], [ 2.495798693228085, 48.892451655323967 ], [ 2.495836782333381, 48.892447768789395 ], [ 2.495842433322422, 48.892469825682845 ], [ 2.495878753841549, 48.892465482040819 ] ] ] } },
{ "type": "Feature", "properties": { "start_date": 1924, "construction_date.nb": 1, "historic.building": "yes" }, "geometry": { "type": "Polygon", "coordinates": [ [ [ 2.4945683, 48.89153270000002 ], [ 2.49458, 48.891571299999988 ], [ 2.494479831522102, 48.891583676303775 ], [ 2.4944676, 48.891546800000015 ], [ 2.4945683, 48.89153270000002 ] ] ] } },
{ "type": "Feature", "properties": { "start_date": 1924, "construction_date.nb": 1, "historic.building": "yes" }, "geometry": { "type": "Polygon", "coordinates": [ [ [ 2.4949955, 48.891480199999961 ], [ 2.4951098, 48.891464 ], [ 2.4951301, 48.891524299999958 ], [ 2.4951206, 48.891526 ], [ 2.4951293, 48.891555199999978 ], [ 2.4950263, 48.8915703 ], [ 2.4949955, 48.891480199999961 ] ] ] } },
{ "type": "Feature", "properties": { "start_date": 1936, "construction_date.nb": 1, "historic.building": "yes" }, "geometry": { "type": "Polygon", "coordinates": [ [ [ 2.4951589, 48.8914568 ], [ 2.4952455, 48.891444199999988 ], [ 2.4952763, 48.89153869999997 ], [ 2.4952031, 48.891548599999986 ], [ 2.4951977, 48.8915307 ], [ 2.4951842, 48.891532099999971 ], [ 2.4951589, 48.8914568 ] ] ] } },
{ "type": "Feature", "properties": { "start_date": 1932, "construction_date.nb": 1, "historic.building": "yes" }, "geometry": { "type": "Polygon", "coordinates": [ [ [ 2.4957907, 48.891372299999972 ], [ 2.4958749, 48.891360800000015 ], [ 2.4958989, 48.891430599999957 ], [ 2.4958147, 48.8914426 ], [ 2.4957907, 48.891372299999972 ] ] ] } },
{ "type": "Feature", "properties": { "start_date": 1914, "construction_date.nb": 1, "historic.building": "yes" }, "geometry": { "type": "Polygon", "coordinates": [ [ [ 2.495012885275184, 48.891027970463234 ], [ 2.4950129, 48.891028 ], [ 2.494916706291312, 48.891050484302916 ], [ 2.494919924981446, 48.891049703839393 ], [ 2.495012875160355, 48.891027972804935 ], [ 2.495012885275184, 48.891027970463234 ] ] ] } },
{ "type": "Feature", "properties": { "start_date": 1931, "construction_date.nb": 1, "historic.building": "yes" }, "geometry": { "type": "Polygon", "coordinates": [ [ [ 2.494916706291312, 48.891050484302916 ], [ 2.4949145, 48.891051 ], [ 2.4948858, 48.8909959 ], [ 2.4950066, 48.890968 ], [ 2.4950175, 48.8909885 ], [ 2.494996, 48.8909941 ], [ 2.495012885275184, 48.891027970463234 ], [ 2.495012875160355, 48.891027972804935 ], [ 2.494919924981446, 48.891049703839393 ], [ 2.494916706291312, 48.891050484302916 ] ] ] } },
{ "type": "Feature", "properties": { "start_date": 1910, "construction_date.nb": 1, "historic.building": "yes" }, "geometry": { "type": "Polygon", "coordinates": [ [ [ 2.495078778545897, 48.890715103254252 ], [ 2.49499709014843, 48.89072749421328 ], [ 2.4949839, 48.890684899999975 ], [ 2.4950142, 48.8906805 ], [ 2.4950086, 48.890662100000014 ], [ 2.4950582, 48.8906549 ], [ 2.495058733364939, 48.890656186350931 ], [ 2.495061556254619, 48.890663057667993 ], [ 2.495078778545897, 48.890715103254252 ] ] ] } },
{ "type": "Feature", "properties": { "start_date": 1925, "construction_date.nb": 1, "historic.building": "yes" }, "geometry": { "type": "Polygon", "coordinates": [ [ [ 2.494548187030809, 48.891059377736255 ], [ 2.4945302, 48.891028499999983 ], [ 2.4945021, 48.891034499999982 ], [ 2.4944638, 48.8909632 ], [ 2.4945758, 48.89093619999997 ], [ 2.4946325, 48.8910393 ], [ 2.494589540901877, 48.891049542926055 ], [ 2.494548191497468, 48.891059376704888 ], [ 2.494548187030809, 48.891059377736255 ] ] ] } },
{ "type": "Feature", "properties": { "start_date": 1939, "construction_date.nb": 1, "historic.building": "yes" }, "geometry": { "type": "Polygon", "coordinates": [ [ [ 2.494589540901877, 48.891049542926055 ], [ 2.4945482, 48.891059400000024 ], [ 2.494548187030809, 48.891059377736255 ], [ 2.494548191497468, 48.891059376704888 ], [ 2.494589540901877, 48.891049542926055 ] ] ] } },
{ "type": "Feature", "properties": { "start_date": 1933, "construction_date.nb": 1, "historic.building": "yes" }, "geometry": { "type": "Polygon", "coordinates": [ [ [ 2.493324912084598, 48.890873609105974 ], [ 2.4933638, 48.8908688 ], [ 2.4933837, 48.890936199999985 ], [ 2.493329721482907, 48.890943113053204 ], [ 2.493317107362518, 48.890909720016722 ], [ 2.493324912084598, 48.890873609105974 ] ] ] } },
{ "type": "Feature", "properties": { "start_date": 1924, "construction_date.nb": 1, "historic.building": "yes" }, "geometry": { "type": "Polygon", "coordinates": [ [ [ 2.493500659518228, 48.891395628384238 ], [ 2.4935543, 48.891392199999977 ], [ 2.4935717, 48.891390899999983 ], [ 2.4935769, 48.8914106 ], [ 2.493588989053577, 48.891409307509839 ], [ 2.493603879539709, 48.89147346009149 ], [ 2.493532820087547, 48.891480764435556 ], [ 2.493500659518228, 48.891395628384238 ] ] ] } },
{ "type": "Feature", "properties": { "start_date": 1925, "construction_date.nb": 1, "historic.building": "yes" }, "geometry": { "type": "Polygon", "coordinates": [ [ [ 2.493528206951629, 48.890119652322433 ], [ 2.4935546, 48.89016849999998 ], [ 2.493473374864373, 48.890186691052406 ], [ 2.493483936535571, 48.89013782284129 ], [ 2.493528206951629, 48.890119652322433 ] ] ] } },
{ "type": "Feature", "properties": { "start_date": 1912, "construction_date.nb": 2, "historic.building": "yes" }, "geometry": { "type": "MultiPolygon", "coordinates": [ [ [ [ 2.494337480920759, 48.890478263973286 ], [ 2.494264290958785, 48.8904953833894 ], [ 2.4942041, 48.890384799999971 ], [ 2.4942842, 48.890365800000012 ], [ 2.4943253, 48.89044269999998 ], [ 2.4943196, 48.8904445 ], [ 2.494337480920759, 48.890478263973286 ] ] ], [ [ [ 2.494344013840419, 48.890476825932055 ], [ 2.494343957628158, 48.890476839771146 ], [ 2.494341874557165, 48.890477297588824 ], [ 2.494344, 48.890476800000023 ], [ 2.494344013840419, 48.890476825932055 ] ] ], [ [ [ 2.494254092535429, 48.890497848253879 ], [ 2.494249640915333, 48.89049892424736 ], [ 2.494249616134838, 48.890498930283862 ], [ 2.4942496, 48.890498899999962 ], [ 2.494254092535429, 48.890497848253879 ] ] ] ] } },
{ "type": "Feature", "properties": { "start_date": 1920, "construction_date.nb": 2, "historic.building": "yes" }, "geometry": { "type": "MultiPolygon", "coordinates": [ [ [ [ 2.494264290958785, 48.8904953833894 ], [ 2.494337480920759, 48.890478263973286 ], [ 2.4943375, 48.8904783 ], [ 2.4942643, 48.890495399999956 ], [ 2.494264290958785, 48.8904953833894 ] ] ], [ [ [ 2.494343957628158, 48.890476839771146 ], [ 2.494344013840419, 48.890476825932055 ], [ 2.494417579890646, 48.890614662322385 ], [ 2.494284615123815, 48.890633069397886 ], [ 2.494284586773395, 48.890633073452321 ], [ 2.4942706, 48.890605 ], [ 2.4943099, 48.8905972 ], [ 2.4943018, 48.89057769999998 ], [ 2.4943137, 48.890575799999986 ], [ 2.4943011, 48.8905507 ], [ 2.4942888, 48.890553 ], [ 2.4942732, 48.8905347 ], [ 2.4942691, 48.890535499999977 ], [ 2.494249616134838, 48.890498930283862 ], [ 2.494249640915333, 48.89049892424736 ], [ 2.494254092535429, 48.890497848253879 ], [ 2.494341874557165, 48.890477297588824 ], [ 2.494343957628158, 48.890476839771146 ] ] ] ] } },
{ "type": "Feature", "properties": { "start_date": 1924, "construction_date.nb": 2, "historic.building": "yes" }, "geometry": { "type": "MultiPolygon", "coordinates": [ [ [ [ 2.494264290958785, 48.8904953833894 ], [ 2.494337480920759, 48.890478263973286 ], [ 2.4943375, 48.8904783 ], [ 2.4942643, 48.890495399999956 ], [ 2.494264290958785, 48.8904953833894 ] ] ], [ [ [ 2.494343957628158, 48.890476839771146 ], [ 2.494344013840419, 48.890476825932055 ], [ 2.494417579890646, 48.890614662322385 ], [ 2.494284615123815, 48.890633069397886 ], [ 2.494284586773395, 48.890633073452321 ], [ 2.4942706, 48.890605 ], [ 2.4943099, 48.8905972 ], [ 2.4943018, 48.89057769999998 ], [ 2.4943137, 48.890575799999986 ], [ 2.4943011, 48.8905507 ], [ 2.4942888, 48.890553 ], [ 2.4942732, 48.8905347 ], [ 2.4942691, 48.890535499999977 ], [ 2.494249616134838, 48.890498930283862 ], [ 2.494249640915333, 48.89049892424736 ], [ 2.494254092535429, 48.890497848253879 ], [ 2.494341874557165, 48.890477297588824 ], [ 2.494343957628158, 48.890476839771146 ] ] ] ] } },
{ "type": "Feature", "properties": { "start_date": 1936, "construction_date.nb": 1, "historic.building": "yes" }, "geometry": { "type": "Polygon", "coordinates": [ [ [ 2.4946875, 48.8904472 ], [ 2.4945819, 48.890471500000032 ], [ 2.4945508, 48.8904151 ], [ 2.4946563, 48.8903901 ], [ 2.4946875, 48.8904472 ] ] ] } },
{ "type": "Feature", "properties": { "start_date": 1910, "construction_date.nb": 1, "historic.building": "yes" }, "geometry": { "type": "Polygon", "coordinates": [ [ [ 2.4945215, 48.8903084 ], [ 2.4946079, 48.890288300000016 ], [ 2.4946165, 48.890305 ], [ 2.494629, 48.8903024 ], [ 2.4946364, 48.890316799999972 ], [ 2.4946244, 48.890319900000023 ], [ 2.4946459, 48.8903601 ], [ 2.4946099, 48.8903682 ], [ 2.4945608, 48.890379199999956 ], [ 2.4945215, 48.8903084 ] ] ] } },
{ "type": "Feature", "properties": { "start_date": 1933, "construction_date.nb": 1, "historic.building": "yes" }, "geometry": { "type": "Polygon", "coordinates": [ [ [ 2.494480757009804, 48.889747911783559 ], [ 2.494494265682093, 48.889772683567735 ], [ 2.494494277563862, 48.889772705224281 ], [ 2.4943908, 48.889796799999978 ], [ 2.494376727614149, 48.889771376429536 ], [ 2.494424551601532, 48.88975174671107 ], [ 2.494480757009804, 48.889747911783559 ] ] ] } },
{ "type": "Feature", "properties": { "start_date": 1925, "construction_date.nb": 1, "historic.building": "yes" }, "geometry": { "type": "Polygon", "coordinates": [ [ [ 2.494480784893065, 48.889747909881059 ], [ 2.4944943, 48.8897727 ], [ 2.494494277563862, 48.889772705224281 ], [ 2.494494265682093, 48.889772683567735 ], [ 2.494480757009804, 48.889747911783559 ], [ 2.494480784893065, 48.889747909881059 ] ] ] } },
{ "type": "Feature", "properties": { "start_date": 1929, "construction_date.nb": 1, "historic.building": "yes" }, "geometry": { "type": "Polygon", "coordinates": [ [ [ 2.494878680331374, 48.889885601016431 ], [ 2.4948804, 48.889885199999988 ], [ 2.494906, 48.8899302 ], [ 2.4947618, 48.889963 ], [ 2.49473760579668, 48.88991851065915 ], [ 2.494737649514182, 48.889918500058414 ], [ 2.494742023047501, 48.889917529269319 ], [ 2.494872286574628, 48.889887142508975 ], [ 2.494878680331374, 48.889885601016431 ] ] ] } },
{ "type": "Feature", "properties": { "start_date": 1928, "construction_date.nb": 1, "historic.building": "yes" }, "geometry": { "type": "Polygon", "coordinates": [ [ [ 2.495007317707472, 48.890109933218675 ], [ 2.495046, 48.89018249999998 ], [ 2.4949497, 48.89020450000001 ], [ 2.494938, 48.8901819 ], [ 2.4949257, 48.8901843 ], [ 2.4949181, 48.8901712 ], [ 2.4949304, 48.890168699999975 ], [ 2.4949104, 48.890132499999979 ], [ 2.494961445438384, 48.890120594677818 ], [ 2.495007317707472, 48.890109933218675 ] ] ] } },
{ "type": "Feature", "properties": { "start_date": 1928, "construction_date.nb": 1, "historic.building": "yes" }, "geometry": { "type": "Polygon", "coordinates": [ [ [ 2.495014030753692, 48.890470098434029 ], [ 2.4950204, 48.890489400000014 ], [ 2.4948672, 48.8905126 ], [ 2.4948412, 48.890434300000024 ], [ 2.4949527, 48.890417399999968 ], [ 2.4949557, 48.8904257 ], [ 2.494997363575745, 48.890419705240909 ], [ 2.495014030753692, 48.890470098434029 ] ] ] } },
{ "type": "Feature", "properties": { "start_date": 1910, "construction_date.nb": 1, "historic.building": "yes" }, "geometry": { "type": "Polygon", "coordinates": [ [ [ 2.494997363575745, 48.890419705240909 ], [ 2.4949974, 48.890419699999974 ], [ 2.495014030753692, 48.890470098434029 ], [ 2.494997363575745, 48.890419705240909 ] ] ] } },
{ "type": "Feature", "properties": { "start_date": 1932, "construction_date.nb": 1, "historic.building": "yes" }, "geometry": { "type": "Polygon", "coordinates": [ [ [ 2.497622138316867, 48.890940928874777 ], [ 2.4975922, 48.890945399999985 ], [ 2.4975829, 48.8909405 ], [ 2.4975576, 48.8908628 ], [ 2.4975819, 48.8908603 ], [ 2.497624595271366, 48.890856683034364 ], [ 2.497640002632766, 48.890896330618205 ], [ 2.497622138316867, 48.890940928874777 ] ] ] } },
{ "type": "Feature", "properties": { "start_date": 1904, "construction_date.nb": 1, "historic.building": "yes" }, "geometry": { "type": "Polygon", "coordinates": [ [ [ 2.497432502336923, 48.890362367069699 ], [ 2.497447854567454, 48.89040187359268 ], [ 2.4973931, 48.8904096 ], [ 2.4973654, 48.8903305 ], [ 2.497384195398712, 48.890327746879002 ], [ 2.497432502336923, 48.890362367069699 ] ] ] } },
{ "type": "Feature", "properties": { "start_date": 1905, "construction_date.nb": 1, "historic.building": "yes" }, "geometry": { "type": "Polygon", "coordinates": [ [ [ 2.496882809574118, 48.890592030379153 ], [ 2.496898762351906, 48.890642649334154 ], [ 2.4968038, 48.8906556 ], [ 2.4967887102471, 48.890605933727215 ], [ 2.496882785458701, 48.890592033801411 ], [ 2.496882809574118, 48.890592030379153 ] ] ] } },
{ "type": "Feature", "properties": { "start_date": 1895, "construction_date.nb": 2, "historic.building": "yes" }, "geometry": { "type": "MultiPolygon", "coordinates": [ [ [ [ 2.4968527, 48.890563199999981 ], [ 2.4967599, 48.890577399999955 ], [ 2.4967423, 48.890522499999967 ], [ 2.49683313208425, 48.89050877825953 ], [ 2.4968527, 48.890563199999981 ] ] ], [ [ [ 2.496882785458701, 48.890592033801411 ], [ 2.4967887102471, 48.890605933727215 ], [ 2.4967887, 48.890605899999976 ], [ 2.4968828, 48.890592 ], [ 2.496882809574118, 48.890592030379153 ], [ 2.496882785458701, 48.890592033801411 ] ] ] ] } },
{ "type": "Feature", "properties": { "start_date": 1910, "construction_date.nb": 1, "historic.building": "yes" }, "geometry": { "type": "Polygon", "coordinates": [ [ [ 2.4967176, 48.890467300000019 ], [ 2.4966947, 48.890469799999984 ], [ 2.4966781, 48.8904173 ], [ 2.4967739, 48.8904042 ], [ 2.4967954, 48.890472099999982 ], [ 2.4967226, 48.890482500000012 ], [ 2.4967176, 48.890467300000019 ] ] ] } },
{ "type": "Feature", "properties": { "start_date": 1983, "construction_date.nb": 1, "historic.building": "yes" }, "geometry": { "type": "Polygon", "coordinates": [ [ [ 2.496353203749201, 48.88964581837444 ], [ 2.4963527, 48.8896449 ], [ 2.496352617681319, 48.889644739070896 ], [ 2.496352699301114, 48.889644898424507 ], [ 2.496353203749201, 48.88964581837444 ] ] ] } },
{ "type": "Feature", "properties": { "start_date": 1957, "construction_date.nb": 1, "historic.building": "yes" }, "geometry": { "type": "MultiPolygon", "coordinates": [ [ [ [ 2.496436481906285, 48.889648534148741 ], [ 2.4964304, 48.8896499 ], [ 2.496425300388905, 48.889640520358356 ], [ 2.496436481906285, 48.889648534148741 ] ] ], [ [ [ 2.496424176486722, 48.889639714857779 ], [ 2.4964058, 48.8896431 ], [ 2.4964261, 48.889681 ], [ 2.4963787, 48.8896923 ], [ 2.496353203749201, 48.88964581837444 ], [ 2.496352699301114, 48.889644898424507 ], [ 2.496352617681319, 48.889644739070896 ], [ 2.496340477825928, 48.889621006221049 ], [ 2.496393065044515, 48.889617417275637 ], [ 2.496424176486722, 48.889639714857779 ] ] ] ] } },
{ "type": "Feature", "properties": { "start_date": 1906, "construction_date.nb": 1, "historic.building": "yes" }, "geometry": { "type": "MultiPolygon", "coordinates": [ [ [ [ 2.496436481906285, 48.889648534148741 ], [ 2.4964304, 48.8896499 ], [ 2.496425300388905, 48.889640520358356 ], [ 2.496436481906285, 48.889648534148741 ] ] ], [ [ [ 2.496424176486722, 48.889639714857779 ], [ 2.4964058, 48.8896431 ], [ 2.4964261, 48.889681 ], [ 2.4963787, 48.8896923 ], [ 2.496353203749201, 48.88964581837444 ], [ 2.496352699301114, 48.889644898424507 ], [ 2.496352617681319, 48.889644739070896 ], [ 2.496340477825928, 48.889621006221049 ], [ 2.496393065044515, 48.889617417275637 ], [ 2.496424176486722, 48.889639714857779 ] ] ] ] } },
{ "type": "Feature", "properties": { "start_date": 1912, "construction_date.nb": 1, "historic.building": "yes" }, "geometry": { "type": "Polygon", "coordinates": [ [ [ 2.49473760579668, 48.88991851065915 ], [ 2.4947376, 48.889918499999951 ], [ 2.494878680331374, 48.889885601016431 ], [ 2.494872286574628, 48.889887142508975 ], [ 2.494742023047501, 48.889917529269319 ], [ 2.494737649514182, 48.889918500058414 ], [ 2.49473760579668, 48.88991851065915 ] ] ] } },
{ "type": "Feature", "properties": { "start_date": 1920, "construction_date.nb": 1, "historic.building": "yes" }, "geometry": { "type": "Polygon", "coordinates": [ [ [ 2.495058733364939, 48.890656186350931 ], [ 2.4950616, 48.890663099999983 ], [ 2.4950788, 48.890715099999973 ], [ 2.495078778545897, 48.890715103254252 ], [ 2.495061556254619, 48.890663057667993 ], [ 2.495058733364939, 48.890656186350931 ] ] ] } }
]
}
