{
"type": "FeatureCollection",
"name": "12_zone",
"crs": { "type": "name", "properties": { "name": "urn:ogc:def:crs:OGC:1.3:CRS84" } },
"features": [
{ "type": "Feature", "properties": { "name": 12, "boundary": "patrimoine" }, "geometry": { "type": "Polygon", "coordinates": [ [ [ 2.496393065044515, 48.889617417275637 ], [ 2.494424551601532, 48.88975174671107 ], [ 2.493483936535571, 48.89013782284129 ], [ 2.493317107362518, 48.89090972001673 ], [ 2.494702509366264, 48.894576984326363 ], [ 2.49555788751083, 48.894383868133339 ], [ 2.496158378143226, 48.89384972995903 ], [ 2.496795679446211, 48.893004093074573 ], [ 2.497640002632766, 48.890896330618197 ], [ 2.497432502336923, 48.890362367069706 ], [ 2.496393065044515, 48.889617417275637 ] ] ] } },
{ "type": "Feature", "properties": { "name": 12, "boundary": "patrimoine" }, "geometry": { "type": "Polygon", "coordinates": [ [ [ 2.496393065044515, 48.889617417275637 ], [ 2.494424551601532, 48.88975174671107 ], [ 2.493483936535571, 48.89013782284129 ], [ 2.493317107362518, 48.89090972001673 ], [ 2.494702509366264, 48.894576984326363 ], [ 2.49555788751083, 48.894383868133339 ], [ 2.496158378143226, 48.89384972995903 ], [ 2.496795679446211, 48.893004093074573 ], [ 2.497640002632766, 48.890896330618197 ], [ 2.497432502336923, 48.890362367069706 ], [ 2.496393065044515, 48.889617417275637 ] ] ] } },
{ "type": "Feature", "properties": { "name": 12, "boundary": "patrimoine" }, "geometry": { "type": "Polygon", "coordinates": [ [ [ 2.496393065044515, 48.889617417275637 ], [ 2.494424551601532, 48.88975174671107 ], [ 2.493483936535571, 48.89013782284129 ], [ 2.493317107362518, 48.89090972001673 ], [ 2.494702509366264, 48.894576984326363 ], [ 2.49555788751083, 48.894383868133339 ], [ 2.496158378143226, 48.89384972995903 ], [ 2.496795679446211, 48.893004093074573 ], [ 2.497640002632766, 48.890896330618197 ], [ 2.497432502336923, 48.890362367069706 ], [ 2.496393065044515, 48.889617417275637 ] ] ] } }
]
}
