{
"type": "FeatureCollection",
"name": "14_adresse",
"crs": { "type": "name", "properties": { "name": "urn:ogc:def:crs:OGC:1.3:CRS84" } },
"features": [
{ "type": "Feature", "properties": { "building.architecture": "Lotissements/maisons pavillonnaires", "building.architecture.niveau": " 2", "addr.housenumber": "133", "addr.street": "Avenue Carnot" }, "geometry": { "type": "Point", "coordinates": [ 2.479828, 48.896146 ] } },
{ "type": "Feature", "properties": { "building.architecture": "Lotissements/maisons pavillonnaires", "building.architecture.niveau": " 2", "addr.housenumber": "134", "addr.street": "Avenue Carnot" }, "geometry": { "type": "Point", "coordinates": [ 2.479585, 48.895939 ] } },
{ "type": "Feature", "properties": { "building.architecture": "Lotissements/maisons pavillonnaires", "building.architecture.niveau": " 2", "addr.housenumber": "135", "addr.street": "Avenue Carnot" }, "geometry": { "type": "Point", "coordinates": [ 2.479796, 48.896084 ] } },
{ "type": "Feature", "properties": { "building.architecture": "Lotissements/maisons pavillonnaires", "building.architecture.niveau": " 2", "addr.housenumber": "136", "addr.street": "Avenue Carnot" }, "geometry": { "type": "Point", "coordinates": [ 2.479549, 48.895875 ] } },
{ "type": "Feature", "properties": { "building.architecture": "Lotissements/maisons pavillonnaires", "building.architecture.niveau": " 2", "addr.housenumber": "137", "addr.street": "Avenue Carnot" }, "geometry": { "type": "Point", "coordinates": [ 2.479745, 48.895996 ] } },
{ "type": "Feature", "properties": { "building.architecture": "Lotissements/maisons pavillonnaires", "building.architecture.niveau": " 2", "addr.housenumber": "138", "addr.street": "Avenue Carnot" }, "geometry": { "type": "Point", "coordinates": [ 2.47951, 48.895812 ] } },
{ "type": "Feature", "properties": { "building.architecture": "Lotissements/maisons pavillonnaires", "building.architecture.niveau": " 2", "addr.housenumber": "140", "addr.street": "Avenue Carnot" }, "geometry": { "type": "Point", "coordinates": [ 2.479478, 48.895751 ] } },
{ "type": "Feature", "properties": { "building.architecture": "Lotissements/maisons pavillonnaires", "building.architecture.niveau": " 2", "addr.housenumber": "142", "addr.street": "Avenue Carnot" }, "geometry": { "type": "Point", "coordinates": [ 2.479443, 48.89569 ] } },
{ "type": "Feature", "properties": { "building.architecture": "Lotissements/maisons pavillonnaires", "building.architecture.niveau": " 2", "addr.housenumber": "143", "addr.street": "Avenue Carnot" }, "geometry": { "type": "Point", "coordinates": [ 2.479578, 48.895711 ] } },
{ "type": "Feature", "properties": { "building.architecture": "Lotissements/maisons pavillonnaires", "building.architecture.niveau": " 2", "addr.housenumber": "144", "addr.street": "Avenue Carnot" }, "geometry": { "type": "Point", "coordinates": [ 2.479407, 48.895629 ] } },
{ "type": "Feature", "properties": { "building.architecture": "Lotissements/maisons pavillonnaires", "building.architecture.niveau": " 2", "addr.housenumber": "145", "addr.street": "Avenue Carnot" }, "geometry": { "type": "Point", "coordinates": [ 2.479527, 48.895626 ] } },
{ "type": "Feature", "properties": { "building.architecture": "Lotissements/maisons pavillonnaires", "building.architecture.niveau": " 2", "addr.housenumber": "147", "addr.street": "Avenue Carnot" }, "geometry": { "type": "Point", "coordinates": [ 2.479464, 48.895512 ] } },
{ "type": "Feature", "properties": { "building.architecture": "Lotissements/maisons pavillonnaires", "building.architecture.niveau": " 2", "addr.housenumber": "148", "addr.street": "Avenue Carnot" }, "geometry": { "type": "Point", "coordinates": [ 2.479336, 48.895502 ] } },
{ "type": "Feature", "properties": { "building.architecture": "Lotissements/maisons pavillonnaires", "building.architecture.niveau": " 2", "addr.housenumber": "149", "addr.street": "Avenue Carnot" }, "geometry": { "type": "Point", "coordinates": [ 2.479403, 48.895403 ] } },
{ "type": "Feature", "properties": { "building.architecture": "Lotissements/maisons pavillonnaires", "building.architecture.niveau": " 2", "addr.housenumber": "150", "addr.street": "Avenue Carnot" }, "geometry": { "type": "Point", "coordinates": [ 2.479301, 48.895449 ] } },
{ "type": "Feature", "properties": { "building.architecture": "Lotissements/maisons pavillonnaires", "building.architecture.niveau": " 2", "addr.housenumber": "132", "addr.street": "Avenue Carnot" }, "geometry": { "type": "Point", "coordinates": [ 2.479622, 48.896004 ] } },
{ "type": "Feature", "properties": { "building.architecture": "Lotissements/maisons pavillonnaires", "building.architecture.niveau": " 2", "addr.housenumber": "3", "addr.street": "Rue du Lion" }, "geometry": { "type": "Point", "coordinates": [ 2.480981, 48.895869 ] } },
{ "type": "Feature", "properties": { "building.architecture": "Lotissements/maisons pavillonnaires", "building.architecture.niveau": " 2", "addr.housenumber": "4", "addr.street": "Rue du Lion" }, "geometry": { "type": "Point", "coordinates": [ 2.480846, 48.895855 ] } },
{ "type": "Feature", "properties": { "building.architecture": "Lotissements/maisons pavillonnaires", "building.architecture.niveau": " 2", "addr.housenumber": "6", "addr.street": "Rue du Lion" }, "geometry": { "type": "Point", "coordinates": [ 2.480791, 48.895754 ] } },
{ "type": "Feature", "properties": { "building.architecture": "Lotissements/maisons pavillonnaires", "building.architecture.niveau": " 2", "addr.housenumber": "7", "addr.street": "Rue du Lion" }, "geometry": { "type": "Point", "coordinates": [ 2.480917, 48.895752 ] } },
{ "type": "Feature", "properties": { "building.architecture": "Lotissements/maisons pavillonnaires", "building.architecture.niveau": " 2", "addr.housenumber": "8", "addr.street": "Rue du Lion" }, "geometry": { "type": "Point", "coordinates": [ 2.480426, 48.895759 ] } },
{ "type": "Feature", "properties": { "building.architecture": "Lotissements/maisons pavillonnaires", "building.architecture.niveau": " 2", "addr.housenumber": "9", "addr.street": "Rue du Lion" }, "geometry": { "type": "Point", "coordinates": [ 2.480867, 48.895671 ] } },
{ "type": "Feature", "properties": { "building.architecture": "Lotissements/maisons pavillonnaires", "building.architecture.niveau": " 2", "addr.housenumber": "10", "addr.street": "Rue du Lion" }, "geometry": { "type": "Point", "coordinates": [ 2.480267, 48.895671 ] } },
{ "type": "Feature", "properties": { "building.architecture": "Lotissements/maisons pavillonnaires", "building.architecture.niveau": " 2", "addr.housenumber": "11", "addr.street": "Rue du Lion" }, "geometry": { "type": "Point", "coordinates": [ 2.480829, 48.895599 ] } },
{ "type": "Feature", "properties": { "building.architecture": "Lotissements/maisons pavillonnaires", "building.architecture.niveau": " 2", "addr.housenumber": "12", "addr.street": "Rue du Lion" }, "geometry": { "type": "Point", "coordinates": [ 2.480628, 48.895462 ] } },
{ "type": "Feature", "properties": { "building.architecture": "Lotissements/maisons pavillonnaires", "building.architecture.niveau": " 2", "addr.housenumber": "13", "addr.street": "Rue du Lion" }, "geometry": { "type": "Point", "coordinates": [ 2.480746, 48.895454 ] } },
{ "type": "Feature", "properties": { "building.architecture": "Lotissements/maisons pavillonnaires", "building.architecture.niveau": " 2", "addr.housenumber": "14", "addr.street": "Rue du Lion" }, "geometry": { "type": "Point", "coordinates": [ 2.480558, 48.895343 ] } },
{ "type": "Feature", "properties": { "building.architecture": "Lotissements/maisons pavillonnaires", "building.architecture.niveau": " 2", "addr.housenumber": "15", "addr.street": "Rue du Lion" }, "geometry": { "type": "Point", "coordinates": [ 2.480707, 48.895385 ] } },
{ "type": "Feature", "properties": { "building.architecture": "Lotissements/maisons pavillonnaires", "building.architecture.niveau": " 2", "addr.housenumber": "16", "addr.street": "Rue du Lion" }, "geometry": { "type": "Point", "coordinates": [ 2.480503, 48.895242 ] } },
{ "type": "Feature", "properties": { "building.architecture": "Lotissements/maisons pavillonnaires", "building.architecture.niveau": " 2", "addr.housenumber": "17", "addr.street": "Rue du Lion" }, "geometry": { "type": "Point", "coordinates": [ 2.480663, 48.895311 ] } },
{ "type": "Feature", "properties": { "building.architecture": "Lotissements/maisons pavillonnaires", "building.architecture.niveau": " 2", "addr.housenumber": "19", "addr.street": "Rue du Lion" }, "geometry": { "type": "Point", "coordinates": [ 2.480622, 48.895232 ] } },
{ "type": "Feature", "properties": { "building.architecture": "Lotissements/maisons pavillonnaires", "building.architecture.niveau": " 2", "addr.housenumber": "20", "addr.street": "Rue du Lion" }, "geometry": { "type": "Point", "coordinates": [ 2.480385, 48.895035 ] } },
{ "type": "Feature", "properties": { "building.architecture": "Lotissements/maisons pavillonnaires", "building.architecture.niveau": " 2", "addr.housenumber": "21", "addr.street": "Rue du Lion" }, "geometry": { "type": "Point", "coordinates": [ 2.480568, 48.895138 ] } },
{ "type": "Feature", "properties": { "building.architecture": "Lotissements/maisons pavillonnaires", "building.architecture.niveau": " 2", "addr.housenumber": "23", "addr.street": "Rue du Lion" }, "geometry": { "type": "Point", "coordinates": [ 2.480514, 48.895044 ] } },
{ "type": "Feature", "properties": { "building.architecture": "Lotissements/maisons pavillonnaires", "building.architecture.niveau": " 2", "addr.housenumber": "25", "addr.street": "Rue du Lion" }, "geometry": { "type": "Point", "coordinates": [ 2.480454, 48.89494 ] } },
{ "type": "Feature", "properties": { "building.architecture": "Lotissements/maisons pavillonnaires", "building.architecture.niveau": " 2", "addr.housenumber": "11bis", "addr.street": "Rue du Lion" }, "geometry": { "type": "Point", "coordinates": [ 2.481016, 48.895482 ] } },
{ "type": "Feature", "properties": { "building.architecture": "Lotissements/maisons pavillonnaires", "building.architecture.niveau": " 2", "addr.housenumber": "3bis", "addr.street": "Rue du Lion" }, "geometry": { "type": "Point", "coordinates": [ 2.480981, 48.895871 ] } },
{ "type": "Feature", "properties": { "building.architecture": "Immeubles", "building.architecture.niveau": " 2", "addr.housenumber": "22", "addr.street": "Rue Edouard Vaillant" }, "geometry": { "type": "Point", "coordinates": [ 2.479507, 48.896243 ] } },
{ "type": "Feature", "properties": { "building.architecture": "Lotissements/maisons pavillonnaires", "building.architecture.niveau": " 2", "addr.housenumber": "23", "addr.street": "Rue Edouard Vaillant" }, "geometry": { "type": "Point", "coordinates": [ 2.479555, 48.896319 ] } },
{ "type": "Feature", "properties": { "building.architecture": "Lotissements/maisons pavillonnaires", "building.architecture.niveau": " 3", "addr.housenumber": "29", "addr.street": "Rue Edouard Vaillant" }, "geometry": { "type": "Point", "coordinates": [ 2.480172, 48.896236 ] } },
{ "type": "Feature", "properties": { "building.architecture": "Lotissements/maisons pavillonnaires", "building.architecture.niveau": " 2", "addr.housenumber": "31", "addr.street": "Rue Edouard Vaillant" }, "geometry": { "type": "Point", "coordinates": [ 2.480357, 48.896212 ] } },
{ "type": "Feature", "properties": { "building.architecture": "Lotissements/maisons pavillonnaires", "building.architecture.niveau": " 2", "addr.housenumber": "33", "addr.street": "Rue Edouard Vaillant" }, "geometry": { "type": "Point", "coordinates": [ 2.480507, 48.896191 ] } },
{ "type": "Feature", "properties": { "building.architecture": "Immeubles", "building.architecture.niveau": " 2", "addr.housenumber": "34", "addr.street": "Rue Edouard Vaillant" }, "geometry": { "type": "Point", "coordinates": [ 2.480724, 48.89608 ] } },
{ "type": "Feature", "properties": { "building.architecture": "Immeubles", "building.architecture.niveau": " 2", "addr.housenumber": "35", "addr.street": "Rue Edouard Vaillant" }, "geometry": { "type": "Point", "coordinates": [ 2.480648, 48.896172 ] } },
{ "type": "Feature", "properties": { "building.architecture": "Lotissements/maisons pavillonnaires", "building.architecture.niveau": " 2", "addr.housenumber": "37", "addr.street": "Rue Edouard Vaillant" }, "geometry": { "type": "Point", "coordinates": [ 2.480765, 48.896156 ] } },
{ "type": "Feature", "properties": { "building.architecture": "Lotissements/maisons pavillonnaires", "building.architecture.niveau": " 2", "addr.housenumber": "32bis", "addr.street": "Rue Edouard Vaillant" }, "geometry": { "type": "Point", "coordinates": [ 2.480632, 48.89609 ] } },
{ "type": "Feature", "properties": { "building.architecture": "Lotissements\/maisons pavillonnaires", "building.architecture.niveau": " 2", "addr.housenumber": "133", "addr.street": "Avenue Carnot" }, "geometry": { "type": "Point", "coordinates": [ 2.479828, 48.896146 ] } },
{ "type": "Feature", "properties": { "building.architecture": "Lotissements\/maisons pavillonnaires", "building.architecture.niveau": " 2", "addr.housenumber": "134", "addr.street": "Avenue Carnot" }, "geometry": { "type": "Point", "coordinates": [ 2.479585, 48.895939 ] } },
{ "type": "Feature", "properties": { "building.architecture": "Lotissements\/maisons pavillonnaires", "building.architecture.niveau": " 2", "addr.housenumber": "135", "addr.street": "Avenue Carnot" }, "geometry": { "type": "Point", "coordinates": [ 2.479796, 48.896084 ] } },
{ "type": "Feature", "properties": { "building.architecture": "Lotissements\/maisons pavillonnaires", "building.architecture.niveau": " 2", "addr.housenumber": "136", "addr.street": "Avenue Carnot" }, "geometry": { "type": "Point", "coordinates": [ 2.479549, 48.895875 ] } },
{ "type": "Feature", "properties": { "building.architecture": "Lotissements\/maisons pavillonnaires", "building.architecture.niveau": " 2", "addr.housenumber": "137", "addr.street": "Avenue Carnot" }, "geometry": { "type": "Point", "coordinates": [ 2.479745, 48.895996 ] } },
{ "type": "Feature", "properties": { "building.architecture": "Lotissements\/maisons pavillonnaires", "building.architecture.niveau": " 2", "addr.housenumber": "138", "addr.street": "Avenue Carnot" }, "geometry": { "type": "Point", "coordinates": [ 2.47951, 48.895812 ] } },
{ "type": "Feature", "properties": { "building.architecture": "Lotissements\/maisons pavillonnaires", "building.architecture.niveau": " 2", "addr.housenumber": "140", "addr.street": "Avenue Carnot" }, "geometry": { "type": "Point", "coordinates": [ 2.479478, 48.895751 ] } },
{ "type": "Feature", "properties": { "building.architecture": "Lotissements\/maisons pavillonnaires", "building.architecture.niveau": " 2", "addr.housenumber": "142", "addr.street": "Avenue Carnot" }, "geometry": { "type": "Point", "coordinates": [ 2.479443, 48.89569 ] } },
{ "type": "Feature", "properties": { "building.architecture": "Lotissements\/maisons pavillonnaires", "building.architecture.niveau": " 2", "addr.housenumber": "143", "addr.street": "Avenue Carnot" }, "geometry": { "type": "Point", "coordinates": [ 2.479578, 48.895711 ] } },
{ "type": "Feature", "properties": { "building.architecture": "Lotissements\/maisons pavillonnaires", "building.architecture.niveau": " 2", "addr.housenumber": "144", "addr.street": "Avenue Carnot" }, "geometry": { "type": "Point", "coordinates": [ 2.479407, 48.895629 ] } },
{ "type": "Feature", "properties": { "building.architecture": "Lotissements\/maisons pavillonnaires", "building.architecture.niveau": " 2", "addr.housenumber": "145", "addr.street": "Avenue Carnot" }, "geometry": { "type": "Point", "coordinates": [ 2.479527, 48.895626 ] } },
{ "type": "Feature", "properties": { "building.architecture": "Lotissements\/maisons pavillonnaires", "building.architecture.niveau": " 2", "addr.housenumber": "147", "addr.street": "Avenue Carnot" }, "geometry": { "type": "Point", "coordinates": [ 2.479464, 48.895512 ] } },
{ "type": "Feature", "properties": { "building.architecture": "Lotissements\/maisons pavillonnaires", "building.architecture.niveau": " 2", "addr.housenumber": "148", "addr.street": "Avenue Carnot" }, "geometry": { "type": "Point", "coordinates": [ 2.479336, 48.895502 ] } },
{ "type": "Feature", "properties": { "building.architecture": "Lotissements\/maisons pavillonnaires", "building.architecture.niveau": " 2", "addr.housenumber": "149", "addr.street": "Avenue Carnot" }, "geometry": { "type": "Point", "coordinates": [ 2.479403, 48.895403 ] } },
{ "type": "Feature", "properties": { "building.architecture": "Lotissements\/maisons pavillonnaires", "building.architecture.niveau": " 2", "addr.housenumber": "150", "addr.street": "Avenue Carnot" }, "geometry": { "type": "Point", "coordinates": [ 2.479301, 48.895449 ] } },
{ "type": "Feature", "properties": { "building.architecture": "Lotissements\/maisons pavillonnaires", "building.architecture.niveau": " 2", "addr.housenumber": "132", "addr.street": "Avenue Carnot" }, "geometry": { "type": "Point", "coordinates": [ 2.479622, 48.896004 ] } },
{ "type": "Feature", "properties": { "building.architecture": "Lotissements\/maisons pavillonnaires", "building.architecture.niveau": " 2", "addr.housenumber": "3", "addr.street": "Rue du Lion" }, "geometry": { "type": "Point", "coordinates": [ 2.480981, 48.895869 ] } },
{ "type": "Feature", "properties": { "building.architecture": "Lotissements\/maisons pavillonnaires", "building.architecture.niveau": " 2", "addr.housenumber": "4", "addr.street": "Rue du Lion" }, "geometry": { "type": "Point", "coordinates": [ 2.480846, 48.895855 ] } },
{ "type": "Feature", "properties": { "building.architecture": "Lotissements\/maisons pavillonnaires", "building.architecture.niveau": " 2", "addr.housenumber": "6", "addr.street": "Rue du Lion" }, "geometry": { "type": "Point", "coordinates": [ 2.480791, 48.895754 ] } },
{ "type": "Feature", "properties": { "building.architecture": "Lotissements\/maisons pavillonnaires", "building.architecture.niveau": " 2", "addr.housenumber": "7", "addr.street": "Rue du Lion" }, "geometry": { "type": "Point", "coordinates": [ 2.480917, 48.895752 ] } },
{ "type": "Feature", "properties": { "building.architecture": "Lotissements\/maisons pavillonnaires", "building.architecture.niveau": " 2", "addr.housenumber": "8", "addr.street": "Rue du Lion" }, "geometry": { "type": "Point", "coordinates": [ 2.480426, 48.895759 ] } },
{ "type": "Feature", "properties": { "building.architecture": "Lotissements\/maisons pavillonnaires", "building.architecture.niveau": " 2", "addr.housenumber": "9", "addr.street": "Rue du Lion" }, "geometry": { "type": "Point", "coordinates": [ 2.480867, 48.895671 ] } },
{ "type": "Feature", "properties": { "building.architecture": "Lotissements\/maisons pavillonnaires", "building.architecture.niveau": " 2", "addr.housenumber": "10", "addr.street": "Rue du Lion" }, "geometry": { "type": "Point", "coordinates": [ 2.480267, 48.895671 ] } },
{ "type": "Feature", "properties": { "building.architecture": "Lotissements\/maisons pavillonnaires", "building.architecture.niveau": " 2", "addr.housenumber": "11", "addr.street": "Rue du Lion" }, "geometry": { "type": "Point", "coordinates": [ 2.480829, 48.895599 ] } },
{ "type": "Feature", "properties": { "building.architecture": "Lotissements\/maisons pavillonnaires", "building.architecture.niveau": " 2", "addr.housenumber": "12", "addr.street": "Rue du Lion" }, "geometry": { "type": "Point", "coordinates": [ 2.480628, 48.895462 ] } },
{ "type": "Feature", "properties": { "building.architecture": "Lotissements\/maisons pavillonnaires", "building.architecture.niveau": " 2", "addr.housenumber": "13", "addr.street": "Rue du Lion" }, "geometry": { "type": "Point", "coordinates": [ 2.480746, 48.895454 ] } },
{ "type": "Feature", "properties": { "building.architecture": "Lotissements\/maisons pavillonnaires", "building.architecture.niveau": " 2", "addr.housenumber": "14", "addr.street": "Rue du Lion" }, "geometry": { "type": "Point", "coordinates": [ 2.480558, 48.895343 ] } },
{ "type": "Feature", "properties": { "building.architecture": "Lotissements\/maisons pavillonnaires", "building.architecture.niveau": " 2", "addr.housenumber": "15", "addr.street": "Rue du Lion" }, "geometry": { "type": "Point", "coordinates": [ 2.480707, 48.895385 ] } },
{ "type": "Feature", "properties": { "building.architecture": "Lotissements\/maisons pavillonnaires", "building.architecture.niveau": " 2", "addr.housenumber": "16", "addr.street": "Rue du Lion" }, "geometry": { "type": "Point", "coordinates": [ 2.480503, 48.895242 ] } },
{ "type": "Feature", "properties": { "building.architecture": "Lotissements\/maisons pavillonnaires", "building.architecture.niveau": " 2", "addr.housenumber": "17", "addr.street": "Rue du Lion" }, "geometry": { "type": "Point", "coordinates": [ 2.480663, 48.895311 ] } },
{ "type": "Feature", "properties": { "building.architecture": "Lotissements\/maisons pavillonnaires", "building.architecture.niveau": " 2", "addr.housenumber": "19", "addr.street": "Rue du Lion" }, "geometry": { "type": "Point", "coordinates": [ 2.480622, 48.895232 ] } },
{ "type": "Feature", "properties": { "building.architecture": "Lotissements\/maisons pavillonnaires", "building.architecture.niveau": " 2", "addr.housenumber": "20", "addr.street": "Rue du Lion" }, "geometry": { "type": "Point", "coordinates": [ 2.480385, 48.895035 ] } },
{ "type": "Feature", "properties": { "building.architecture": "Lotissements\/maisons pavillonnaires", "building.architecture.niveau": " 2", "addr.housenumber": "21", "addr.street": "Rue du Lion" }, "geometry": { "type": "Point", "coordinates": [ 2.480568, 48.895138 ] } },
{ "type": "Feature", "properties": { "building.architecture": "Lotissements\/maisons pavillonnaires", "building.architecture.niveau": " 2", "addr.housenumber": "23", "addr.street": "Rue du Lion" }, "geometry": { "type": "Point", "coordinates": [ 2.480514, 48.895044 ] } },
{ "type": "Feature", "properties": { "building.architecture": "Lotissements\/maisons pavillonnaires", "building.architecture.niveau": " 2", "addr.housenumber": "25", "addr.street": "Rue du Lion" }, "geometry": { "type": "Point", "coordinates": [ 2.480454, 48.89494 ] } },
{ "type": "Feature", "properties": { "building.architecture": "Lotissements\/maisons pavillonnaires", "building.architecture.niveau": " 2", "addr.housenumber": "11bis", "addr.street": "Rue du Lion" }, "geometry": { "type": "Point", "coordinates": [ 2.481016, 48.895482 ] } },
{ "type": "Feature", "properties": { "building.architecture": "Lotissements\/maisons pavillonnaires", "building.architecture.niveau": " 2", "addr.housenumber": "3bis", "addr.street": "Rue du Lion" }, "geometry": { "type": "Point", "coordinates": [ 2.480981, 48.895871 ] } },
{ "type": "Feature", "properties": { "building.architecture": "Immeubles", "building.architecture.niveau": " 2", "addr.housenumber": "22", "addr.street": "Rue Edouard Vaillant" }, "geometry": { "type": "Point", "coordinates": [ 2.479507, 48.896243 ] } },
{ "type": "Feature", "properties": { "building.architecture": "Lotissements\/maisons pavillonnaires", "building.architecture.niveau": " 2", "addr.housenumber": "23", "addr.street": "Rue Edouard Vaillant" }, "geometry": { "type": "Point", "coordinates": [ 2.479555, 48.896319 ] } },
{ "type": "Feature", "properties": { "building.architecture": "Lotissements\/maisons pavillonnaires", "building.architecture.niveau": " 3", "addr.housenumber": "29", "addr.street": "Rue Edouard Vaillant" }, "geometry": { "type": "Point", "coordinates": [ 2.480172, 48.896236 ] } },
{ "type": "Feature", "properties": { "building.architecture": "Lotissements\/maisons pavillonnaires", "building.architecture.niveau": " 2", "addr.housenumber": "31", "addr.street": "Rue Edouard Vaillant" }, "geometry": { "type": "Point", "coordinates": [ 2.480357, 48.896212 ] } },
{ "type": "Feature", "properties": { "building.architecture": "Lotissements\/maisons pavillonnaires", "building.architecture.niveau": " 2", "addr.housenumber": "33", "addr.street": "Rue Edouard Vaillant" }, "geometry": { "type": "Point", "coordinates": [ 2.480507, 48.896191 ] } },
{ "type": "Feature", "properties": { "building.architecture": "Immeubles", "building.architecture.niveau": " 2", "addr.housenumber": "34", "addr.street": "Rue Edouard Vaillant" }, "geometry": { "type": "Point", "coordinates": [ 2.480724, 48.89608 ] } },
{ "type": "Feature", "properties": { "building.architecture": "Immeubles", "building.architecture.niveau": " 2", "addr.housenumber": "35", "addr.street": "Rue Edouard Vaillant" }, "geometry": { "type": "Point", "coordinates": [ 2.480648, 48.896172 ] } },
{ "type": "Feature", "properties": { "building.architecture": "Lotissements\/maisons pavillonnaires", "building.architecture.niveau": " 2", "addr.housenumber": "37", "addr.street": "Rue Edouard Vaillant" }, "geometry": { "type": "Point", "coordinates": [ 2.480765, 48.896156 ] } },
{ "type": "Feature", "properties": { "building.architecture": "Lotissements\/maisons pavillonnaires", "building.architecture.niveau": " 2", "addr.housenumber": "32bis", "addr.street": "Rue Edouard Vaillant" }, "geometry": { "type": "Point", "coordinates": [ 2.480632, 48.89609 ] } },
{ "type": "Feature", "properties": { "building.architecture": "Lotissements\/maisons pavillonnaires", "building.architecture.niveau": " 2", "addr.housenumber": "133", "addr.street": "Avenue Carnot" }, "geometry": { "type": "Point", "coordinates": [ 2.479828, 48.896146 ] } },
{ "type": "Feature", "properties": { "building.architecture": "Lotissements\/maisons pavillonnaires", "building.architecture.niveau": " 2", "addr.housenumber": "134", "addr.street": "Avenue Carnot" }, "geometry": { "type": "Point", "coordinates": [ 2.479585, 48.895939 ] } },
{ "type": "Feature", "properties": { "building.architecture": "Lotissements\/maisons pavillonnaires", "building.architecture.niveau": " 2", "addr.housenumber": "135", "addr.street": "Avenue Carnot" }, "geometry": { "type": "Point", "coordinates": [ 2.479796, 48.896084 ] } },
{ "type": "Feature", "properties": { "building.architecture": "Lotissements\/maisons pavillonnaires", "building.architecture.niveau": " 2", "addr.housenumber": "136", "addr.street": "Avenue Carnot" }, "geometry": { "type": "Point", "coordinates": [ 2.479549, 48.895875 ] } },
{ "type": "Feature", "properties": { "building.architecture": "Lotissements\/maisons pavillonnaires", "building.architecture.niveau": " 2", "addr.housenumber": "137", "addr.street": "Avenue Carnot" }, "geometry": { "type": "Point", "coordinates": [ 2.479745, 48.895996 ] } },
{ "type": "Feature", "properties": { "building.architecture": "Lotissements\/maisons pavillonnaires", "building.architecture.niveau": " 2", "addr.housenumber": "138", "addr.street": "Avenue Carnot" }, "geometry": { "type": "Point", "coordinates": [ 2.47951, 48.895812 ] } },
{ "type": "Feature", "properties": { "building.architecture": "Lotissements\/maisons pavillonnaires", "building.architecture.niveau": " 2", "addr.housenumber": "140", "addr.street": "Avenue Carnot" }, "geometry": { "type": "Point", "coordinates": [ 2.479478, 48.895751 ] } },
{ "type": "Feature", "properties": { "building.architecture": "Lotissements\/maisons pavillonnaires", "building.architecture.niveau": " 2", "addr.housenumber": "142", "addr.street": "Avenue Carnot" }, "geometry": { "type": "Point", "coordinates": [ 2.479443, 48.89569 ] } },
{ "type": "Feature", "properties": { "building.architecture": "Lotissements\/maisons pavillonnaires", "building.architecture.niveau": " 2", "addr.housenumber": "143", "addr.street": "Avenue Carnot" }, "geometry": { "type": "Point", "coordinates": [ 2.479578, 48.895711 ] } },
{ "type": "Feature", "properties": { "building.architecture": "Lotissements\/maisons pavillonnaires", "building.architecture.niveau": " 2", "addr.housenumber": "144", "addr.street": "Avenue Carnot" }, "geometry": { "type": "Point", "coordinates": [ 2.479407, 48.895629 ] } },
{ "type": "Feature", "properties": { "building.architecture": "Lotissements\/maisons pavillonnaires", "building.architecture.niveau": " 2", "addr.housenumber": "145", "addr.street": "Avenue Carnot" }, "geometry": { "type": "Point", "coordinates": [ 2.479527, 48.895626 ] } },
{ "type": "Feature", "properties": { "building.architecture": "Lotissements\/maisons pavillonnaires", "building.architecture.niveau": " 2", "addr.housenumber": "147", "addr.street": "Avenue Carnot" }, "geometry": { "type": "Point", "coordinates": [ 2.479464, 48.895512 ] } },
{ "type": "Feature", "properties": { "building.architecture": "Lotissements\/maisons pavillonnaires", "building.architecture.niveau": " 2", "addr.housenumber": "148", "addr.street": "Avenue Carnot" }, "geometry": { "type": "Point", "coordinates": [ 2.479336, 48.895502 ] } },
{ "type": "Feature", "properties": { "building.architecture": "Lotissements\/maisons pavillonnaires", "building.architecture.niveau": " 2", "addr.housenumber": "149", "addr.street": "Avenue Carnot" }, "geometry": { "type": "Point", "coordinates": [ 2.479403, 48.895403 ] } },
{ "type": "Feature", "properties": { "building.architecture": "Lotissements\/maisons pavillonnaires", "building.architecture.niveau": " 2", "addr.housenumber": "150", "addr.street": "Avenue Carnot" }, "geometry": { "type": "Point", "coordinates": [ 2.479301, 48.895449 ] } },
{ "type": "Feature", "properties": { "building.architecture": "Lotissements\/maisons pavillonnaires", "building.architecture.niveau": " 2", "addr.housenumber": "132", "addr.street": "Avenue Carnot" }, "geometry": { "type": "Point", "coordinates": [ 2.479622, 48.896004 ] } },
{ "type": "Feature", "properties": { "building.architecture": "Lotissements\/maisons pavillonnaires", "building.architecture.niveau": " 2", "addr.housenumber": "3", "addr.street": "Rue du Lion" }, "geometry": { "type": "Point", "coordinates": [ 2.480981, 48.895869 ] } },
{ "type": "Feature", "properties": { "building.architecture": "Lotissements\/maisons pavillonnaires", "building.architecture.niveau": " 2", "addr.housenumber": "4", "addr.street": "Rue du Lion" }, "geometry": { "type": "Point", "coordinates": [ 2.480846, 48.895855 ] } },
{ "type": "Feature", "properties": { "building.architecture": "Lotissements\/maisons pavillonnaires", "building.architecture.niveau": " 2", "addr.housenumber": "6", "addr.street": "Rue du Lion" }, "geometry": { "type": "Point", "coordinates": [ 2.480791, 48.895754 ] } },
{ "type": "Feature", "properties": { "building.architecture": "Lotissements\/maisons pavillonnaires", "building.architecture.niveau": " 2", "addr.housenumber": "7", "addr.street": "Rue du Lion" }, "geometry": { "type": "Point", "coordinates": [ 2.480917, 48.895752 ] } },
{ "type": "Feature", "properties": { "building.architecture": "Lotissements\/maisons pavillonnaires", "building.architecture.niveau": " 2", "addr.housenumber": "8", "addr.street": "Rue du Lion" }, "geometry": { "type": "Point", "coordinates": [ 2.480426, 48.895759 ] } },
{ "type": "Feature", "properties": { "building.architecture": "Lotissements\/maisons pavillonnaires", "building.architecture.niveau": " 2", "addr.housenumber": "9", "addr.street": "Rue du Lion" }, "geometry": { "type": "Point", "coordinates": [ 2.480867, 48.895671 ] } },
{ "type": "Feature", "properties": { "building.architecture": "Lotissements\/maisons pavillonnaires", "building.architecture.niveau": " 2", "addr.housenumber": "10", "addr.street": "Rue du Lion" }, "geometry": { "type": "Point", "coordinates": [ 2.480267, 48.895671 ] } },
{ "type": "Feature", "properties": { "building.architecture": "Lotissements\/maisons pavillonnaires", "building.architecture.niveau": " 2", "addr.housenumber": "11", "addr.street": "Rue du Lion" }, "geometry": { "type": "Point", "coordinates": [ 2.480829, 48.895599 ] } },
{ "type": "Feature", "properties": { "building.architecture": "Lotissements\/maisons pavillonnaires", "building.architecture.niveau": " 2", "addr.housenumber": "12", "addr.street": "Rue du Lion" }, "geometry": { "type": "Point", "coordinates": [ 2.480628, 48.895462 ] } },
{ "type": "Feature", "properties": { "building.architecture": "Lotissements\/maisons pavillonnaires", "building.architecture.niveau": " 2", "addr.housenumber": "13", "addr.street": "Rue du Lion" }, "geometry": { "type": "Point", "coordinates": [ 2.480746, 48.895454 ] } },
{ "type": "Feature", "properties": { "building.architecture": "Lotissements\/maisons pavillonnaires", "building.architecture.niveau": " 2", "addr.housenumber": "14", "addr.street": "Rue du Lion" }, "geometry": { "type": "Point", "coordinates": [ 2.480558, 48.895343 ] } },
{ "type": "Feature", "properties": { "building.architecture": "Lotissements\/maisons pavillonnaires", "building.architecture.niveau": " 2", "addr.housenumber": "15", "addr.street": "Rue du Lion" }, "geometry": { "type": "Point", "coordinates": [ 2.480707, 48.895385 ] } },
{ "type": "Feature", "properties": { "building.architecture": "Lotissements\/maisons pavillonnaires", "building.architecture.niveau": " 2", "addr.housenumber": "16", "addr.street": "Rue du Lion" }, "geometry": { "type": "Point", "coordinates": [ 2.480503, 48.895242 ] } },
{ "type": "Feature", "properties": { "building.architecture": "Lotissements\/maisons pavillonnaires", "building.architecture.niveau": " 2", "addr.housenumber": "17", "addr.street": "Rue du Lion" }, "geometry": { "type": "Point", "coordinates": [ 2.480663, 48.895311 ] } },
{ "type": "Feature", "properties": { "building.architecture": "Lotissements\/maisons pavillonnaires", "building.architecture.niveau": " 2", "addr.housenumber": "19", "addr.street": "Rue du Lion" }, "geometry": { "type": "Point", "coordinates": [ 2.480622, 48.895232 ] } },
{ "type": "Feature", "properties": { "building.architecture": "Lotissements\/maisons pavillonnaires", "building.architecture.niveau": " 2", "addr.housenumber": "20", "addr.street": "Rue du Lion" }, "geometry": { "type": "Point", "coordinates": [ 2.480385, 48.895035 ] } },
{ "type": "Feature", "properties": { "building.architecture": "Lotissements\/maisons pavillonnaires", "building.architecture.niveau": " 2", "addr.housenumber": "21", "addr.street": "Rue du Lion" }, "geometry": { "type": "Point", "coordinates": [ 2.480568, 48.895138 ] } },
{ "type": "Feature", "properties": { "building.architecture": "Lotissements\/maisons pavillonnaires", "building.architecture.niveau": " 2", "addr.housenumber": "23", "addr.street": "Rue du Lion" }, "geometry": { "type": "Point", "coordinates": [ 2.480514, 48.895044 ] } },
{ "type": "Feature", "properties": { "building.architecture": "Lotissements\/maisons pavillonnaires", "building.architecture.niveau": " 2", "addr.housenumber": "25", "addr.street": "Rue du Lion" }, "geometry": { "type": "Point", "coordinates": [ 2.480454, 48.89494 ] } },
{ "type": "Feature", "properties": { "building.architecture": "Lotissements\/maisons pavillonnaires", "building.architecture.niveau": " 2", "addr.housenumber": "11bis", "addr.street": "Rue du Lion" }, "geometry": { "type": "Point", "coordinates": [ 2.481016, 48.895482 ] } },
{ "type": "Feature", "properties": { "building.architecture": "Lotissements\/maisons pavillonnaires", "building.architecture.niveau": " 2", "addr.housenumber": "3bis", "addr.street": "Rue du Lion" }, "geometry": { "type": "Point", "coordinates": [ 2.480981, 48.895871 ] } },
{ "type": "Feature", "properties": { "building.architecture": "Immeubles", "building.architecture.niveau": " 2", "addr.housenumber": "22", "addr.street": "Rue Edouard Vaillant" }, "geometry": { "type": "Point", "coordinates": [ 2.479507, 48.896243 ] } },
{ "type": "Feature", "properties": { "building.architecture": "Lotissements\/maisons pavillonnaires", "building.architecture.niveau": " 2", "addr.housenumber": "23", "addr.street": "Rue Edouard Vaillant" }, "geometry": { "type": "Point", "coordinates": [ 2.479555, 48.896319 ] } },
{ "type": "Feature", "properties": { "building.architecture": "Lotissements\/maisons pavillonnaires", "building.architecture.niveau": " 3", "addr.housenumber": "29", "addr.street": "Rue Edouard Vaillant" }, "geometry": { "type": "Point", "coordinates": [ 2.480172, 48.896236 ] } },
{ "type": "Feature", "properties": { "building.architecture": "Lotissements\/maisons pavillonnaires", "building.architecture.niveau": " 2", "addr.housenumber": "31", "addr.street": "Rue Edouard Vaillant" }, "geometry": { "type": "Point", "coordinates": [ 2.480357, 48.896212 ] } },
{ "type": "Feature", "properties": { "building.architecture": "Lotissements\/maisons pavillonnaires", "building.architecture.niveau": " 2", "addr.housenumber": "33", "addr.street": "Rue Edouard Vaillant" }, "geometry": { "type": "Point", "coordinates": [ 2.480507, 48.896191 ] } },
{ "type": "Feature", "properties": { "building.architecture": "Immeubles", "building.architecture.niveau": " 2", "addr.housenumber": "34", "addr.street": "Rue Edouard Vaillant" }, "geometry": { "type": "Point", "coordinates": [ 2.480724, 48.89608 ] } },
{ "type": "Feature", "properties": { "building.architecture": "Immeubles", "building.architecture.niveau": " 2", "addr.housenumber": "35", "addr.street": "Rue Edouard Vaillant" }, "geometry": { "type": "Point", "coordinates": [ 2.480648, 48.896172 ] } },
{ "type": "Feature", "properties": { "building.architecture": "Lotissements\/maisons pavillonnaires", "building.architecture.niveau": " 2", "addr.housenumber": "37", "addr.street": "Rue Edouard Vaillant" }, "geometry": { "type": "Point", "coordinates": [ 2.480765, 48.896156 ] } },
{ "type": "Feature", "properties": { "building.architecture": "Lotissements\/maisons pavillonnaires", "building.architecture.niveau": " 2", "addr.housenumber": "32bis", "addr.street": "Rue Edouard Vaillant" }, "geometry": { "type": "Point", "coordinates": [ 2.480632, 48.89609 ] } }
]
}
