{
"type": "FeatureCollection",
"name": "14_zone",
"crs": { "type": "name", "properties": { "name": "urn:ogc:def:crs:OGC:1.3:CRS84" } },
"features": [
{ "type": "Feature", "properties": { "name": 14, "boundary": "patrimoine" }, "geometry": { "type": "Polygon", "coordinates": [ [ [ 2.481136161582736, 48.894701890216453 ], [ 2.481022693551781, 48.894702541481017 ], [ 2.480552534982227, 48.89475955034824 ], [ 2.479305283171012, 48.894958810249342 ], [ 2.479265359545126, 48.895600737243093 ], [ 2.479276686199323, 48.895661602924797 ], [ 2.47947477207348, 48.896416368981569 ], [ 2.480088281826336, 48.896471177607765 ], [ 2.480809770304399, 48.896238486547844 ], [ 2.481109353877628, 48.895840269766097 ], [ 2.481136161582736, 48.894701890216453 ] ] ] } },
{ "type": "Feature", "properties": { "name": 14, "boundary": "patrimoine" }, "geometry": { "type": "Polygon", "coordinates": [ [ [ 2.481136161582736, 48.894701890216453 ], [ 2.481022693551781, 48.894702541481017 ], [ 2.480552534982227, 48.89475955034824 ], [ 2.479305283171012, 48.894958810249342 ], [ 2.479265359545126, 48.895600737243093 ], [ 2.479276686199323, 48.895661602924797 ], [ 2.47947477207348, 48.896416368981569 ], [ 2.480088281826336, 48.896471177607765 ], [ 2.480809770304399, 48.896238486547844 ], [ 2.481109353877628, 48.895840269766097 ], [ 2.481136161582736, 48.894701890216453 ] ] ] } },
{ "type": "Feature", "properties": { "name": 14, "boundary": "patrimoine" }, "geometry": { "type": "Polygon", "coordinates": [ [ [ 2.481136161582736, 48.894701890216453 ], [ 2.481022693551781, 48.894702541481017 ], [ 2.480552534982227, 48.89475955034824 ], [ 2.479305283171012, 48.894958810249342 ], [ 2.479265359545126, 48.895600737243093 ], [ 2.479276686199323, 48.895661602924797 ], [ 2.47947477207348, 48.896416368981569 ], [ 2.480088281826336, 48.896471177607765 ], [ 2.480809770304399, 48.896238486547844 ], [ 2.481109353877628, 48.895840269766097 ], [ 2.481136161582736, 48.894701890216453 ] ] ] } }
]
}
