{
"type": "FeatureCollection",
"name": "1_bat",
"crs": { "type": "name", "properties": { "name": "urn:ogc:def:crs:OGC:1.3:CRS84" } },
"features": [
{ "type": "Feature", "properties": { "start_date": 1893, "construction_date.nb": 1, "historic.building": "yes" }, "geometry": { "type": "Polygon", "coordinates": [ [ [ 2.477538700456505, 48.90139176127979 ], [ 2.477523037105295, 48.90135694612038 ], [ 2.477621586494271, 48.901337141642308 ], [ 2.4776543721406, 48.901408895758351 ], [ 2.477575125150525, 48.901408008752178 ], [ 2.477538700456505, 48.90139176127979 ] ] ] } },
{ "type": "Feature", "properties": { "start_date": 1930, "construction_date.nb": 1, "historic.building": "yes" }, "geometry": { "type": "Polygon", "coordinates": [ [ [ 2.477671644883195, 48.901409089083771 ], [ 2.477659589152239, 48.901383441657416 ], [ 2.477776726308021, 48.901360030970075 ], [ 2.477797026735627, 48.90140321798598 ], [ 2.477736054539751, 48.901409809967028 ], [ 2.477671644883195, 48.901409089083771 ] ] ] } },
{ "type": "Feature", "properties": { "start_date": 1920, "construction_date.nb": 2, "historic.building": "yes" }, "geometry": { "type": "Polygon", "coordinates": [ [ [ 2.477916356693882, 48.901390316584141 ], [ 2.477907442736416, 48.901369953618435 ], [ 2.477925350296935, 48.901366164668083 ], [ 2.477911733931313, 48.90133651820328 ], [ 2.477965993123106, 48.901326053005064 ], [ 2.477964003875903, 48.90132037870957 ], [ 2.477973102938132, 48.901310795818141 ], [ 2.478004131260448, 48.90130445608709 ], [ 2.478013486265171, 48.901310162449533 ], [ 2.478022091313699, 48.901309030881492 ], [ 2.478049822864622, 48.901369603187185 ], [ 2.477999304604221, 48.901381348564179 ], [ 2.477916356693882, 48.901390316584141 ] ] ] } },
{ "type": "Feature", "properties": { "start_date": 1924, "construction_date.nb": 2, "historic.building": "yes" }, "geometry": { "type": "Polygon", "coordinates": [ [ [ 2.478082331772597, 48.901362044927772 ], [ 2.478056367166659, 48.901305313245828 ], [ 2.478153961431617, 48.901285504169813 ], [ 2.47817651049672, 48.901332807844568 ], [ 2.478113858582852, 48.901354714993317 ], [ 2.478082331772597, 48.901362044927772 ] ] ] } },
{ "type": "Feature", "properties": { "start_date": 1926, "construction_date.nb": 2, "historic.building": "yes" }, "geometry": { "type": "MultiPolygon", "coordinates": [ [ [ [ 2.478212437496082, 48.901320245425126 ], [ 2.478191787318283, 48.901281442231216 ], [ 2.478241912630476, 48.901270524603135 ], [ 2.478256268631654, 48.901304919181072 ], [ 2.478212437496082, 48.901320245425126 ] ] ], [ [ [ 2.47817651049672, 48.901332807844568 ], [ 2.478153961431617, 48.901285504169813 ], [ 2.478153961441556, 48.901285504167816 ], [ 2.478176510514335, 48.901332807838408 ], [ 2.47817651049672, 48.901332807844568 ] ] ] ] } },
{ "type": "Feature", "properties": { "start_date": 1900, "construction_date.nb": 2, "historic.building": "yes" }, "geometry": { "type": "Polygon", "coordinates": [ [ [ 2.476584849649552, 48.90074330124289 ], [ 2.476584849650738, 48.900743301245562 ], [ 2.476613393942446, 48.900807636328537 ], [ 2.476512389955391, 48.900827429253134 ], [ 2.476483983065348, 48.900763004830885 ], [ 2.476483983059277, 48.900763004817037 ], [ 2.476483983062371, 48.90076300481649 ], [ 2.476584849649552, 48.90074330124289 ] ] ] } },
{ "type": "Feature", "properties": { "start_date": 1910, "construction_date.nb": 1, "historic.building": "yes" }, "geometry": { "type": "Polygon", "coordinates": [ [ [ 2.476483983059277, 48.900763004817037 ], [ 2.476456113722959, 48.900699392088825 ], [ 2.476556430074758, 48.900680135798019 ], [ 2.476560815786849, 48.900689883501272 ], [ 2.476584849649552, 48.90074330124289 ], [ 2.476483983062371, 48.90076300481649 ], [ 2.476483983059277, 48.900763004817037 ] ] ] } },
{ "type": "Feature", "properties": { "start_date": 1931, "construction_date.nb": 2, "historic.building": "yes" }, "geometry": { "type": "MultiPolygon", "coordinates": [ [ [ [ 2.476201028126906, 48.900238911828247 ], [ 2.476276607746493, 48.900224841587807 ], [ 2.476201028115259, 48.900238911848092 ], [ 2.476201028108184, 48.900238911831721 ], [ 2.476201028126906, 48.900238911828247 ] ] ], [ [ [ 2.476184647754839, 48.900363531184603 ], [ 2.476238746706757, 48.900353918058364 ], [ 2.476230627153813, 48.900333917968595 ], [ 2.476340349941283, 48.90031515263648 ], [ 2.476374162480421, 48.900398126448707 ], [ 2.476264707813274, 48.900417342629105 ], [ 2.47621680154169, 48.900425729219329 ], [ 2.476194004578251, 48.900391906742641 ], [ 2.476184647754839, 48.900363531184603 ] ] ] ] } },
{ "type": "Feature", "properties": { "start_date": 1910, "construction_date.nb": 1, "historic.building": "yes" }, "geometry": { "type": "Polygon", "coordinates": [ [ [ 2.476201028108184, 48.900238911831721 ], [ 2.476179433563891, 48.900188905943047 ], [ 2.476227263013373, 48.900180212020821 ], [ 2.476216468019876, 48.900154984274423 ], [ 2.476264847514445, 48.900145843062482 ], [ 2.476297784639025, 48.900220899187758 ], [ 2.476276607746493, 48.900224841587807 ], [ 2.476201028126906, 48.900238911828247 ], [ 2.476201028108184, 48.900238911831721 ] ] ] } },
{ "type": "Feature", "properties": { "start_date": 1926, "construction_date.nb": 1, "historic.building": "yes" }, "geometry": { "type": "Polygon", "coordinates": [ [ [ 2.476022207383187, 48.899870908296933 ], [ 2.476100277471521, 48.899854108102659 ], [ 2.476112443605479, 48.899878622438237 ], [ 2.476134305405511, 48.899874940964231 ], [ 2.476142287569217, 48.899895030383924 ], [ 2.47612301822677, 48.89989863324935 ], [ 2.476125812909872, 48.899905570129071 ], [ 2.476039589883476, 48.899923623607407 ], [ 2.476022207383187, 48.899870908296933 ] ] ] } },
{ "type": "Feature", "properties": { "start_date": 1935, "construction_date.nb": 1, "historic.building": "yes" }, "geometry": { "type": "Polygon", "coordinates": [ [ [ 2.475951232016534, 48.899491373025342 ], [ 2.475978596418968, 48.899543225426449 ], [ 2.475918562415804, 48.899556585408561 ], [ 2.47590640824723, 48.899519725337669 ], [ 2.475951232016534, 48.899491373025342 ] ] ] } },
{ "type": "Feature", "properties": { "start_date": 1920, "construction_date.nb": 2, "historic.building": "yes" }, "geometry": { "type": "MultiPolygon", "coordinates": [ [ [ [ 2.476356833586381, 48.899530760655473 ], [ 2.476356833599049, 48.89953076067787 ], [ 2.476356833595519, 48.899530760678154 ], [ 2.476347338968142, 48.899514102600058 ], [ 2.476356833586381, 48.899530760655473 ] ] ], [ [ [ 2.476344075449109, 48.899592217377915 ], [ 2.476248229363009, 48.899613654156113 ], [ 2.476227733770801, 48.899618238148321 ], [ 2.476219195007331, 48.899599261080738 ], [ 2.47619744732671, 48.899550927589281 ], [ 2.476249247973842, 48.899540632236686 ], [ 2.476241506106324, 48.89952378137427 ], [ 2.476251681851928, 48.899515642194054 ], [ 2.476305792249386, 48.899506256243882 ], [ 2.476344075455209, 48.899592217376551 ], [ 2.476344075449109, 48.899592217377915 ] ] ] ] } },
{ "type": "Feature", "properties": { "start_date": 1933, "construction_date.nb": 1, "historic.building": "yes" }, "geometry": { "type": "Polygon", "coordinates": [ [ [ 2.476344075455209, 48.899592217376551 ], [ 2.476344075466558, 48.899592217402031 ], [ 2.476248229363009, 48.899613654156113 ], [ 2.476344075449109, 48.899592217377915 ], [ 2.476344075455209, 48.899592217376551 ] ] ] } },
{ "type": "Feature", "properties": { "start_date": 1931, "construction_date.nb": 1, "historic.building": "yes" }, "geometry": { "type": "Polygon", "coordinates": [ [ [ 2.476359795639605, 48.899914327394683 ], [ 2.476335775740414, 48.899861343212798 ], [ 2.476442514844922, 48.899840766154426 ], [ 2.476465994652414, 48.899893208339066 ], [ 2.476465994647632, 48.899893208340018 ], [ 2.476359795639605, 48.899914327394683 ] ] ] } },
{ "type": "Feature", "properties": { "start_date": 1920, "construction_date.nb": 2, "historic.building": "yes" }, "geometry": { "type": "MultiPolygon", "coordinates": [ [ [ [ 2.476465994647632, 48.899893208340018 ], [ 2.476465994652414, 48.899893208339066 ], [ 2.476465994663013, 48.899893208362727 ], [ 2.47635979564128, 48.899914327398363 ], [ 2.476359795639605, 48.899914327394683 ], [ 2.476465994647632, 48.899893208340018 ] ] ], [ [ [ 2.476505014532591, 48.899987356303683 ], [ 2.476499881282786, 48.899988316134852 ], [ 2.476505014552411, 48.899987356298993 ], [ 2.476505014552514, 48.899987356299228 ], [ 2.476505014532591, 48.899987356303683 ] ] ] ] } },
{ "type": "Feature", "properties": { "start_date": 1905, "construction_date.nb": 2, "historic.building": "yes" }, "geometry": { "type": "MultiPolygon", "coordinates": [ [ [ [ 2.476806766736984, 48.899930669674568 ], [ 2.476806766744771, 48.899930669694299 ], [ 2.47680676672947, 48.899930669697184 ], [ 2.476806766721455, 48.89993066967746 ], [ 2.476806766736984, 48.899930669674568 ] ] ], [ [ [ 2.476505014532591, 48.899987356303683 ], [ 2.476505014552514, 48.899987356299228 ], [ 2.476535709063524, 48.900054848435538 ], [ 2.476429651595159, 48.900075428588828 ], [ 2.476405968100147, 48.90002217041345 ], [ 2.47639923901376, 48.9000070383658 ], [ 2.476401151299815, 48.900006776946363 ], [ 2.476499881282786, 48.899988316134852 ], [ 2.476505014532591, 48.899987356303683 ] ] ] ] } },
{ "type": "Feature", "properties": { "start_date": 1903, "construction_date.nb": 1, "historic.building": "yes" }, "geometry": { "type": "Polygon", "coordinates": [ [ [ 2.47672711430185, 48.90059481816705 ], [ 2.476697511313463, 48.900527240987302 ], [ 2.476759701045481, 48.900514832499475 ], [ 2.476756513278019, 48.900506275170223 ], [ 2.476810762799088, 48.900496709738981 ], [ 2.47684423745241, 48.900572667345259 ], [ 2.476844237449201, 48.900572667345862 ], [ 2.476807743459155, 48.900579972161999 ], [ 2.47672711430185, 48.90059481816705 ] ] ] } },
{ "type": "Feature", "properties": { "start_date": 1903, "construction_date.nb": 1, "historic.building": "yes" }, "geometry": { "type": "Polygon", "coordinates": [ [ [ 2.47684423745241, 48.900572667345259 ], [ 2.476844237458435, 48.900572667358936 ], [ 2.476807743493747, 48.900579972157374 ], [ 2.476727114309817, 48.900594818185247 ], [ 2.47672711430185, 48.90059481816705 ], [ 2.476807743459155, 48.900579972161999 ], [ 2.476844237449201, 48.900572667345862 ], [ 2.47684423745241, 48.900572667345259 ] ] ] } },
{ "type": "Feature", "properties": { "start_date": 2011, "construction_date.nb": 1, "historic.building": "yes" }, "geometry": { "type": "Polygon", "coordinates": [ [ [ 2.476933880884446, 48.900692945438145 ], [ 2.476941091522133, 48.900707896137092 ], [ 2.476931247139334, 48.900710191355259 ], [ 2.476941790619732, 48.90073334952752 ], [ 2.47690735157707, 48.900739764039017 ], [ 2.476896394406246, 48.900717053702465 ], [ 2.476889697177662, 48.900718373422038 ], [ 2.476882910560847, 48.900715016362668 ], [ 2.476855719791986, 48.900719573951882 ], [ 2.476879327816198, 48.900772915918552 ], [ 2.476750732063451, 48.900796455541808 ], [ 2.476722865993006, 48.900732483149568 ], [ 2.476773025490252, 48.900722720035958 ], [ 2.476849962988031, 48.900708757178187 ], [ 2.476933880884446, 48.900692945438145 ] ] ] } },
{ "type": "Feature", "properties": { "start_date": 1952, "construction_date.nb": 2, "historic.building": "yes" }, "geometry": { "type": "Polygon", "coordinates": [ [ [ 2.477414256027293, 48.90102354909579 ], [ 2.477441316834603, 48.901018361273799 ], [ 2.477441316840671, 48.901018361287498 ], [ 2.477481086548336, 48.90101089068984 ], [ 2.47750859771043, 48.901069555439804 ], [ 2.477523495311675, 48.901066652708494 ], [ 2.477550975011216, 48.901128464850217 ], [ 2.477550974989278, 48.901128464854338 ], [ 2.477428373134277, 48.901152750786544 ], [ 2.477428373132886, 48.9011527507868 ], [ 2.477374475516158, 48.90103209876888 ], [ 2.477374475517004, 48.901032098768724 ], [ 2.4773840179876, 48.901030047891467 ], [ 2.477414256021904, 48.901023549114321 ], [ 2.477414256015717, 48.901023549098277 ], [ 2.477414256027293, 48.90102354909579 ] ] ] } },
{ "type": "Feature", "properties": { "start_date": 1907, "construction_date.nb": 3, "historic.building": "yes" }, "geometry": { "type": "MultiPolygon", "coordinates": [ [ [ [ 2.477454415450085, 48.900950071287419 ], [ 2.477454415486886, 48.900950071280221 ], [ 2.477454415488725, 48.900950071284143 ], [ 2.477475917573464, 48.90099584977289 ], [ 2.477435047714563, 48.901004214859512 ], [ 2.477441316834603, 48.901018361273799 ], [ 2.477414256027293, 48.90102354909579 ], [ 2.477414256015717, 48.901023549098277 ], [ 2.477404284975321, 48.900997695548156 ], [ 2.477370391434303, 48.901004112606344 ], [ 2.477368675126266, 48.900998439489896 ], [ 2.477355322051972, 48.900969783339356 ], [ 2.477355322043648, 48.900969783321514 ], [ 2.477454415450085, 48.900950071287419 ] ] ], [ [ [ 2.4773840179876, 48.901030047891467 ], [ 2.477374475517004, 48.901032098768724 ], [ 2.477374475516158, 48.90103209876888 ], [ 2.477374475513931, 48.901032098763906 ], [ 2.4773840179876, 48.901030047891467 ] ] ] ] } },
{ "type": "Feature", "properties": { "start_date": 1910, "construction_date.nb": 2, "historic.building": "yes" }, "geometry": { "type": "Polygon", "coordinates": [ [ [ 2.477466692896704, 48.90088204750765 ], [ 2.477466692897782, 48.900882047510308 ], [ 2.477383593774619, 48.900898322083712 ], [ 2.477388369723219, 48.900911742540472 ], [ 2.477432513176518, 48.900903391752522 ], [ 2.477454415486886, 48.900950071280221 ], [ 2.477454415450085, 48.900950071287419 ], [ 2.477355322043648, 48.900969783321514 ], [ 2.477326878830149, 48.900908866221982 ], [ 2.477334810579316, 48.900907391593023 ], [ 2.477383593782104, 48.90089832206386 ], [ 2.477466692896704, 48.90088204750765 ] ] ] } },
{ "type": "Feature", "properties": { "start_date": 1933, "construction_date.nb": 3, "historic.building": "yes" }, "geometry": { "type": "MultiPolygon", "coordinates": [ [ [ [ 2.477285562895141, 48.900730713550246 ], [ 2.477383573430764, 48.900711496610761 ], [ 2.477285562903653, 48.900730713572294 ], [ 2.477285562895141, 48.900730713550246 ] ] ], [ [ [ 2.477466692896704, 48.90088204750765 ], [ 2.477383593782104, 48.90089832206386 ], [ 2.477334810579316, 48.900907391593023 ], [ 2.477326878830149, 48.900908866221982 ], [ 2.477326878828859, 48.900908866219218 ], [ 2.477295847950987, 48.90091547557995 ], [ 2.477282183414261, 48.900917844069753 ], [ 2.477266422133012, 48.9008845010435 ], [ 2.477280636795019, 48.900881685276737 ], [ 2.477268356923394, 48.900854832412818 ], [ 2.477282576994427, 48.900851477142908 ], [ 2.477274196795387, 48.900830216976679 ], [ 2.477432739205943, 48.900799343218878 ], [ 2.477466692896704, 48.90088204750765 ] ] ] ] } },
{ "type": "Feature", "properties": { "start_date": 1908, "construction_date.nb": 2, "historic.building": "yes" }, "geometry": { "type": "Polygon", "coordinates": [ [ [ 2.477250111827204, 48.900634153371037 ], [ 2.477322844599118, 48.900620619332848 ], [ 2.477355888302673, 48.900614470578041 ], [ 2.477395040418199, 48.900709248267979 ], [ 2.477383573430764, 48.900711496610761 ], [ 2.477285562895141, 48.900730713550246 ], [ 2.477274927139058, 48.900703148420469 ], [ 2.477251149995961, 48.900707361302025 ], [ 2.477245007403702, 48.90069420465246 ], [ 2.477236537862936, 48.900695426706228 ], [ 2.47721266487916, 48.900641274309706 ], [ 2.477250111826087, 48.900634153378604 ], [ 2.477250111823288, 48.900634153371776 ], [ 2.477250111827204, 48.900634153371037 ] ] ] } },
{ "type": "Feature", "properties": { "start_date": 1906, "construction_date.nb": 2, "historic.building": "yes" }, "geometry": { "type": "Polygon", "coordinates": [ [ [ 2.47734135649001, 48.900580953046912 ], [ 2.477355888301333, 48.900614470574943 ], [ 2.477355888302673, 48.900614470578041 ], [ 2.477322844599118, 48.900620619332848 ], [ 2.477250111827204, 48.900634153371037 ], [ 2.477250111823288, 48.900634153371776 ], [ 2.477239193358576, 48.900607576227713 ], [ 2.477231267693185, 48.900608980519998 ], [ 2.47720610567402, 48.900547358245568 ], [ 2.477274289639237, 48.900535695116275 ], [ 2.477286117762149, 48.90056677275934 ], [ 2.47729868741698, 48.900564759186253 ], [ 2.477302908579995, 48.900565497068612 ], [ 2.47730792383932, 48.900568666509074 ], [ 2.477315119689033, 48.900585604851024 ], [ 2.47734135649001, 48.900580953046912 ] ] ] } },
{ "type": "Feature", "properties": { "start_date": 1913, "construction_date.nb": 1, "historic.building": "yes" }, "geometry": { "type": "Polygon", "coordinates": [ [ [ 2.477310537216943, 48.900505166709785 ], [ 2.4773195, 48.900527599999961 ], [ 2.4772027, 48.9005474 ], [ 2.4771674, 48.900464099999965 ], [ 2.477285464282011, 48.900442506532656 ], [ 2.477310537216943, 48.900505166709785 ] ] ] } },
{ "type": "Feature", "properties": { "start_date": 1906, "construction_date.nb": 2, "historic.building": "yes" }, "geometry": { "type": "Polygon", "coordinates": [ [ [ 2.477020244409902, 48.900201843241042 ], [ 2.477124777112261, 48.900183684040684 ], [ 2.477124777118974, 48.900183684056763 ], [ 2.477150618197005, 48.900245579114966 ], [ 2.477045673435794, 48.900264006321272 ], [ 2.477020244417656, 48.900201843259701 ], [ 2.477020244409902, 48.900201843241042 ] ] ] } },
{ "type": "Feature", "properties": { "start_date": 1908, "construction_date.nb": 1, "historic.building": "yes" }, "geometry": { "type": "Polygon", "coordinates": [ [ [ 2.477020244409902, 48.900201843241042 ], [ 2.477005194418542, 48.900165625473683 ], [ 2.477009158150359, 48.900164833406336 ], [ 2.476998887560343, 48.900141676419253 ], [ 2.477100002083535, 48.900124311686781 ], [ 2.477124777112261, 48.900183684040684 ], [ 2.477020244409902, 48.900201843241042 ] ] ] } },
{ "type": "Feature", "properties": { "start_date": 1913, "construction_date.nb": 1, "historic.building": "yes" }, "geometry": { "type": "Polygon", "coordinates": [ [ [ 2.477056746301799, 48.900003615921754 ], [ 2.477085241987843, 48.900072806979892 ], [ 2.476987122038949, 48.900090814288191 ], [ 2.476957257984252, 48.900022066911482 ], [ 2.477056746301799, 48.900003615921754 ] ] ] } },
{ "type": "Feature", "properties": { "start_date": 1908, "construction_date.nb": 1, "historic.building": "yes" }, "geometry": { "type": "Polygon", "coordinates": [ [ [ 2.476979923055914, 48.899897702019793 ], [ 2.476979923066287, 48.8998977020441 ], [ 2.476908853767255, 48.899911510755196 ], [ 2.476806766744771, 48.899930669694299 ], [ 2.476806766736984, 48.899930669674568 ], [ 2.47690885375809, 48.899911510735237 ], [ 2.47697992304664, 48.899897702021391 ], [ 2.476979923055914, 48.899897702019793 ] ] ] } },
{ "type": "Feature", "properties": { "start_date": 1935, "construction_date.nb": 2, "historic.building": "yes" }, "geometry": { "type": "MultiPolygon", "coordinates": [ [ [ [ 2.476831791472192, 48.899829427278384 ], [ 2.476982940237224, 48.899801039877623 ], [ 2.476982940245499, 48.89980103989646 ], [ 2.476831791481104, 48.899829427299451 ], [ 2.476831791472192, 48.899829427278384 ] ] ], [ [ [ 2.476806766736984, 48.899930669674568 ], [ 2.476806766721455, 48.89993066967746 ], [ 2.476780543299664, 48.899866164880407 ], [ 2.476951937030698, 48.899832110375378 ], [ 2.476979923055914, 48.899897702019793 ], [ 2.47697992304664, 48.899897702021391 ], [ 2.47690885375809, 48.899911510735237 ], [ 2.476806766736984, 48.899930669674568 ] ] ] ] } },
{ "type": "Feature", "properties": { "start_date": 1907, "construction_date.nb": 2, "historic.building": "yes" }, "geometry": { "type": "Polygon", "coordinates": [ [ [ 2.476958594594673, 48.899739690856883 ], [ 2.476958594604369, 48.899739690854965 ], [ 2.476958594610179, 48.899739690867271 ], [ 2.476890396202964, 48.899752882594981 ], [ 2.476894514334171, 48.899763872118967 ], [ 2.476961203328045, 48.899751573088828 ], [ 2.476982940237224, 48.899801039877623 ], [ 2.476831791472192, 48.899829427278384 ], [ 2.476806076571145, 48.899768611854384 ], [ 2.476848714238152, 48.899760704344544 ], [ 2.476848714235931, 48.899760704339535 ], [ 2.476890396210352, 48.89975288258475 ], [ 2.476958594594673, 48.899739690856883 ] ] ] } },
{ "type": "Feature", "properties": { "start_date": 1905, "construction_date.nb": 2, "historic.building": "yes" }, "geometry": { "type": "MultiPolygon", "coordinates": [ [ [ [ 2.476871152199978, 48.899654459813327 ], [ 2.476902901850792, 48.899648617774346 ], [ 2.476902901859301, 48.899648617795783 ], [ 2.476871152199978, 48.899654459813327 ] ] ], [ [ [ 2.476780875885549, 48.8996702076616 ], [ 2.476780875900087, 48.899670207658929 ], [ 2.476848182634619, 48.899658504468057 ], [ 2.476780875890767, 48.899670207674689 ], [ 2.476780875885549, 48.8996702076616 ] ] ], [ [ [ 2.476958594594673, 48.899739690856883 ], [ 2.476890396210352, 48.89975288258475 ], [ 2.476848714235931, 48.899760704339535 ], [ 2.476823369712054, 48.899703757533459 ], [ 2.476928746093702, 48.899682994188652 ], [ 2.476939288461118, 48.899706242328733 ], [ 2.476942433749691, 48.899705446688927 ], [ 2.476958594604369, 48.899739690854965 ], [ 2.476958594594673, 48.899739690856883 ] ] ] ] } },
{ "type": "Feature", "properties": { "start_date": 1935, "construction_date.nb": 1, "historic.building": "yes" }, "geometry": { "type": "Polygon", "coordinates": [ [ [ 2.476347338968142, 48.899514102600058 ], [ 2.476331500357244, 48.899486314141065 ], [ 2.476310999689872, 48.899449622762305 ], [ 2.476383216450452, 48.89944373328462 ], [ 2.47638412148309, 48.899448683415962 ], [ 2.47644813997496, 48.899444196978088 ], [ 2.476447508642506, 48.899439158093919 ], [ 2.476497188137848, 48.899436317649382 ], [ 2.476503734297731, 48.899436436178007 ], [ 2.476514767159596, 48.899519400375397 ], [ 2.476514767162283, 48.899519400396812 ], [ 2.476438332812798, 48.899524192325011 ], [ 2.476356833599049, 48.89953076067787 ], [ 2.476356833586381, 48.899530760655473 ], [ 2.476347338968142, 48.899514102600058 ] ] ] } },
{ "type": "Feature", "properties": { "start_date": 1910, "construction_date.nb": 1, "historic.building": "yes" }, "geometry": { "type": "Polygon", "coordinates": [ [ [ 2.476503734297731, 48.899436436178007 ], [ 2.476503734316268, 48.899436436178334 ], [ 2.476514767164585, 48.899519400396677 ], [ 2.476514767162283, 48.899519400396812 ], [ 2.476514767159596, 48.899519400375397 ], [ 2.476503734297731, 48.899436436178007 ] ] ] } },
{ "type": "Feature", "properties": { "start_date": 1939, "construction_date.nb": 1, "historic.building": "yes" }, "geometry": { "type": "Polygon", "coordinates": [ [ [ 2.477256907258145, 48.899522731831368 ], [ 2.477202584776232, 48.899526091953447 ], [ 2.477202861400739, 48.899526709941945 ], [ 2.477202037112962, 48.899526288631471 ], [ 2.477189201243063, 48.899493370350932 ], [ 2.477188416625921, 48.899492511133339 ], [ 2.477189146370007, 48.899492399247436 ], [ 2.477173371075648, 48.899446915455442 ], [ 2.477270696731995, 48.899453545478309 ], [ 2.4772703031225, 48.899456705139038 ], [ 2.477269509845266, 48.899463072938445 ], [ 2.477256907259669, 48.899522731824895 ], [ 2.477256907258145, 48.899522731831368 ] ] ] } },
{ "type": "Feature", "properties": { "start_date": 1935, "construction_date.nb": 1, "historic.building": "yes" }, "geometry": { "type": "Polygon", "coordinates": [ [ [ 2.47728720584084, 48.899561804009487 ], [ 2.477287205822654, 48.899561804018838 ], [ 2.477252347486891, 48.899542136928012 ], [ 2.477252347487024, 48.899542136927444 ], [ 2.477287205819557, 48.89956180399615 ], [ 2.47728720584084, 48.899561804009487 ] ] ] } },
{ "type": "Feature", "properties": { "start_date": 1912, "construction_date.nb": 1, "historic.building": "yes" }, "geometry": { "type": "Polygon", "coordinates": [ [ [ 2.477375169809456, 48.900174884567683 ], [ 2.477347598680931, 48.900108665347041 ], [ 2.477437232852343, 48.900093498493327 ], [ 2.477445084540013, 48.900113047655161 ], [ 2.477458066871004, 48.900110676169518 ], [ 2.477462725344904, 48.900122207622573 ], [ 2.477451787167308, 48.90012476785823 ], [ 2.477465085913673, 48.900158819620543 ], [ 2.477375169809456, 48.900174884567683 ] ] ] } },
{ "type": "Feature", "properties": { "start_date": 1912, "construction_date.nb": 2, "historic.building": "yes" }, "geometry": { "type": "Polygon", "coordinates": [ [ [ 2.477375169809456, 48.900174884567683 ], [ 2.477465085913673, 48.900158819620543 ], [ 2.477465085919223, 48.900158819634754 ], [ 2.477477448850233, 48.900190978759213 ], [ 2.477490423075911, 48.900189416610722 ], [ 2.477494121302779, 48.900201483433449 ], [ 2.477483735994178, 48.900203326657703 ], [ 2.477483717941962, 48.900205125195811 ], [ 2.477394213649437, 48.900220922161068 ], [ 2.477375169810368, 48.900174884569864 ], [ 2.477375169809456, 48.900174884567683 ] ] ] } },
{ "type": "Feature", "properties": { "start_date": 2018, "construction_date.nb": 2, "historic.building": "yes" }, "geometry": { "type": "Polygon", "coordinates": [ [ [ 2.477437889546704, 48.900353118841366 ], [ 2.477409195019687, 48.900359120759859 ], [ 2.477371124406761, 48.900265337012549 ], [ 2.477427284055763, 48.90025568972132 ], [ 2.477448391163805, 48.900313607090546 ], [ 2.477619069703524, 48.900282965922493 ], [ 2.477632888941956, 48.900319537960534 ], [ 2.477632888928329, 48.900319537963625 ], [ 2.47758574790257, 48.900327605954246 ], [ 2.477467594686843, 48.900347919704302 ], [ 2.477440361033714, 48.900352601890866 ], [ 2.477440361032816, 48.900352601888734 ], [ 2.477437889546704, 48.900353118841366 ] ] ] } },
{ "type": "Feature", "properties": { "start_date": 1908, "construction_date.nb": 2, "historic.building": "yes" }, "geometry": { "type": "MultiPolygon", "coordinates": [ [ [ [ 2.477632888928329, 48.900319537963625 ], [ 2.477632888941956, 48.900319537960534 ], [ 2.477632888952226, 48.900319537987713 ], [ 2.477585747916227, 48.900327605961841 ], [ 2.477607547196221, 48.900384537105509 ], [ 2.477607547192959, 48.900384537106127 ], [ 2.477464474443619, 48.900409992821267 ], [ 2.477464474425816, 48.900409992825089 ], [ 2.477440361033714, 48.900352601890866 ], [ 2.477467594686843, 48.900347919704302 ], [ 2.47758574790257, 48.900327605954246 ], [ 2.477632888928329, 48.900319537963625 ] ] ], [ [ [ 2.477409195026099, 48.900359120775633 ], [ 2.477409195019687, 48.900359120759859 ], [ 2.477437889546704, 48.900353118841366 ], [ 2.477409195026099, 48.900359120775633 ] ] ] ] } },
{ "type": "Feature", "properties": { "start_date": 1911, "construction_date.nb": 2, "historic.building": "yes" }, "geometry": { "type": "Polygon", "coordinates": [ [ [ 2.477607547192959, 48.900384537106127 ], [ 2.477607547196221, 48.900384537105509 ], [ 2.477607547198317, 48.900384537110988 ], [ 2.477617250548031, 48.900382690901708 ], [ 2.47764137864317, 48.90043864295172 ], [ 2.477641378634535, 48.900438642953262 ], [ 2.47748831693393, 48.90046720269666 ], [ 2.47748831693299, 48.900467202696824 ], [ 2.477464474431986, 48.900409992839769 ], [ 2.477464474425816, 48.900409992825089 ], [ 2.477464474443619, 48.900409992821267 ], [ 2.477607547192959, 48.900384537106127 ] ] ] } },
{ "type": "Feature", "properties": { "start_date": 1913, "construction_date.nb": 1, "historic.building": "yes" }, "geometry": { "type": "MultiPolygon", "coordinates": [ [ [ [ 2.477745563577318, 48.900753978539043 ], [ 2.477699911796844, 48.900763457285166 ], [ 2.477649886108486, 48.900773491183514 ], [ 2.477699911802109, 48.900763457279034 ], [ 2.477745563577318, 48.900753978539043 ] ] ], [ [ [ 2.477649886108486, 48.900773491183514 ], [ 2.477649886105357, 48.900773491184175 ], [ 2.477649886105344, 48.90077349118414 ], [ 2.477649886108486, 48.900773491183514 ] ] ] ] } },
{ "type": "Feature", "properties": { "start_date": 1830, "construction_date.nb": 2, "historic.building": "yes" }, "geometry": { "type": "Polygon", "coordinates": [ [ [ 2.47810069979818, 48.900932199655287 ], [ 2.478091330449402, 48.900933693224196 ], [ 2.478089314894235, 48.900930197929092 ], [ 2.478088783005084, 48.900929275538196 ], [ 2.478041949671093, 48.900797773014794 ], [ 2.478035047952425, 48.90077867765693 ], [ 2.478036511890895, 48.900778413402989 ], [ 2.47810069979818, 48.900932199655287 ] ] ] } },
{ "type": "Feature", "properties": { "start_date": 1909, "construction_date.nb": 2, "historic.building": "yes" }, "geometry": { "type": "Polygon", "coordinates": [ [ [ 2.477409734189415, 48.899481958309273 ], [ 2.4773903334653, 48.899547595379261 ], [ 2.477351503397151, 48.899543109272088 ], [ 2.477349224429345, 48.89955272189362 ], [ 2.477338047923474, 48.899551863743234 ], [ 2.477340611432741, 48.899541083256885 ], [ 2.477300149075661, 48.899536140363743 ], [ 2.47729310164082, 48.899558772110467 ], [ 2.47728720584084, 48.899561804009487 ], [ 2.477287205819557, 48.89956180399615 ], [ 2.477252347487024, 48.899542136927444 ], [ 2.477256907262729, 48.899522731831091 ], [ 2.477256907258145, 48.899522731831368 ], [ 2.477256907259669, 48.899522731824895 ], [ 2.477269509845266, 48.899463072938445 ], [ 2.4772703031225, 48.899456705139038 ], [ 2.477269509862839, 48.899463072950226 ], [ 2.477408435781956, 48.899481488024477 ], [ 2.477409734189415, 48.899481958309273 ] ] ] } },
{ "type": "Feature", "properties": { "start_date": 1910, "construction_date.nb": 1, "historic.building": "yes" }, "geometry": { "type": "Polygon", "coordinates": [ [ [ 2.477510666427464, 48.899518516018595 ], [ 2.477528256944951, 48.899560663015762 ], [ 2.477506447978633, 48.899557724564957 ], [ 2.477498209825748, 48.899549504945782 ], [ 2.477501704616405, 48.89954106673261 ], [ 2.477454161330863, 48.899534923892872 ], [ 2.477464459748457, 48.899501779952907 ], [ 2.477510666427464, 48.899518516018595 ] ] ] } },
{ "type": "Feature", "properties": { "start_date": 1911, "construction_date.nb": 2, "historic.building": "yes" }, "geometry": { "type": "MultiPolygon", "coordinates": [ [ [ [ 2.476750260059405, 48.899432027717722 ], [ 2.476792297628432, 48.899429513459644 ], [ 2.476800563391559, 48.899489263460126 ], [ 2.476702972037627, 48.899495491968061 ], [ 2.4766939440783, 48.899430162910356 ], [ 2.476692628936511, 48.899425300904952 ], [ 2.476748727245828, 48.899421679026005 ], [ 2.476750260059405, 48.899432027717722 ] ] ], [ [ [ 2.47674239067439, 48.899549982232806 ], [ 2.476740083614663, 48.899550550161308 ], [ 2.476742390667357, 48.899549982228002 ], [ 2.476772849284702, 48.899544711724673 ], [ 2.47674239067439, 48.899549982232806 ] ] ] ] } },
{ "type": "Feature", "properties": { "start_date": 1908, "construction_date.nb": 2, "historic.building": "yes" }, "geometry": { "type": "MultiPolygon", "coordinates": [ [ [ [ 2.477641378634535, 48.900438642953262 ], [ 2.47764137864317, 48.90043864295172 ], [ 2.477641378645935, 48.900438642958136 ], [ 2.477488316934922, 48.900467202701464 ], [ 2.47748831693299, 48.900467202696824 ], [ 2.47748831693393, 48.90046720269666 ], [ 2.477641378634535, 48.900438642953262 ] ] ], [ [ [ 2.477547738930983, 48.900485897667252 ], [ 2.477642574970277, 48.900468954737569 ], [ 2.477678697642887, 48.900553017426006 ], [ 2.47756089921791, 48.900574536610911 ], [ 2.477543582295789, 48.900533093034568 ], [ 2.477565446976209, 48.900529141567233 ], [ 2.477547738930983, 48.900485897667252 ] ] ] ] } },
{ "type": "Feature", "properties": { "start_date": 1960, "construction_date.nb": 2, "historic.building": "yes" }, "geometry": { "type": "Polygon", "coordinates": [ [ [ 2.477727407715452, 48.900674096378445 ], [ 2.477741758677537, 48.900671281183833 ], [ 2.477741758677973, 48.900671281184763 ], [ 2.477727407720662, 48.900674096377806 ], [ 2.477761423133835, 48.900750685591156 ], [ 2.477745563577318, 48.900753978539043 ], [ 2.477699911802109, 48.900763457279034 ], [ 2.477649886108486, 48.900773491183514 ], [ 2.477649886105344, 48.90077349118414 ], [ 2.47761547970371, 48.900695101620144 ], [ 2.477707714828784, 48.900677792100623 ], [ 2.477727407715452, 48.900674096378445 ] ] ] } },
{ "type": "Feature", "properties": { "start_date": 1924, "construction_date.nb": 1, "historic.building": "yes" }, "geometry": { "type": "Polygon", "coordinates": [ [ [ 2.475918562415804, 48.899556585408561 ], [ 2.475978596418968, 48.899543225426449 ], [ 2.475978596427597, 48.899543225442798 ], [ 2.475918562420004, 48.899556585421287 ], [ 2.475918562415804, 48.899556585408561 ] ] ] } },
{ "type": "Feature", "properties": { "start_date": 1968, "construction_date.nb": 2, "historic.building": "yes" }, "geometry": { "type": "Polygon", "coordinates": [ [ [ 2.477727407715452, 48.900674096378445 ], [ 2.477707714828784, 48.900677792100623 ], [ 2.47761547970371, 48.900695101620144 ], [ 2.477615479703083, 48.900695101618723 ], [ 2.477581601821335, 48.90061842304339 ], [ 2.477706383870432, 48.900594236386262 ], [ 2.477741758677537, 48.900671281183833 ], [ 2.477727407715452, 48.900674096378445 ] ] ] } },
{ "type": "Feature", "properties": { "start_date": 1912, "construction_date.nb": 1, "historic.building": "yes" }, "geometry": { "type": "Polygon", "coordinates": [ [ [ 2.476871152199978, 48.899654459813327 ], [ 2.476866141169757, 48.899655381854672 ], [ 2.476848182634619, 48.899658504468057 ], [ 2.476780875900087, 48.899670207658929 ], [ 2.476780875885549, 48.8996702076616 ], [ 2.476733775938564, 48.899552102938493 ], [ 2.476740083614663, 48.899550550161308 ], [ 2.47674239067439, 48.899549982232806 ], [ 2.476772849284702, 48.899544711724673 ], [ 2.476855939832236, 48.899530333843607 ], [ 2.476902901850792, 48.899648617774346 ], [ 2.476871152199978, 48.899654459813327 ] ] ] } },
{ "type": "Feature", "properties": { "start_date": 1926, "construction_date.nb": 2, "historic.building": "yes" }, "geometry": { "type": "Polygon", "coordinates": [ [ [ 2.476593921501411, 48.900922758125368 ], [ 2.47659395795126, 48.90092275230657 ], [ 2.476593957955883, 48.900922752305803 ], [ 2.476593957958586, 48.900922752312752 ], [ 2.476593921511784, 48.900922758131053 ], [ 2.476593921501411, 48.900922758125368 ] ] ] } },
{ "type": "Feature", "properties": { "start_date": 1928, "construction_date.nb": 1, "historic.building": "yes" }, "geometry": { "type": "Polygon", "coordinates": [ [ [ 2.476988976521481, 48.901139636909434 ], [ 2.47707592976872, 48.901122075063761 ], [ 2.4771023665047, 48.901179026511812 ], [ 2.477134351472601, 48.901172511316801 ], [ 2.477148121848566, 48.901200359899242 ], [ 2.477121742073322, 48.901205772703065 ], [ 2.477056156659436, 48.901176517391612 ], [ 2.476988976521481, 48.901139636909434 ] ] ] } },
{ "type": "Feature", "properties": { "start_date": 1922, "construction_date.nb": 2, "historic.building": "yes" }, "geometry": { "type": "Polygon", "coordinates": [ [ [ 2.476042957687519, 48.89993383701767 ], [ 2.476132130466388, 48.899914860631036 ], [ 2.476159534814382, 48.89997037768233 ], [ 2.476159534806638, 48.899970377683893 ], [ 2.476073558781628, 48.899987987714944 ], [ 2.476061598365929, 48.899990367811519 ], [ 2.476042957687519, 48.89993383701767 ] ] ] } },
{ "type": "Feature", "properties": { "start_date": 1900, "construction_date.nb": 1, "historic.building": "yes" }, "geometry": { "type": "Polygon", "coordinates": [ [ [ 2.476450324354262, 48.899243110736499 ], [ 2.476460739305132, 48.8992764415921 ], [ 2.476460739307118, 48.899276441599064 ], [ 2.476334354068323, 48.899283982821316 ], [ 2.476339351527797, 48.899316019938006 ], [ 2.476336891116476, 48.899316176337472 ], [ 2.476216066501054, 48.899323856650625 ], [ 2.476322533438932, 48.899256512382543 ], [ 2.476450324354262, 48.899243110736499 ] ] ] } },
{ "type": "Feature", "properties": { "start_date": 1900, "construction_date.nb": 1, "historic.building": "yes" }, "geometry": { "type": "Polygon", "coordinates": [ [ [ 2.476742420318394, 48.899240253314893 ], [ 2.476744154904528, 48.899252319755668 ], [ 2.476631966830158, 48.899258754211942 ], [ 2.476627445895417, 48.899224535460235 ], [ 2.476682954281966, 48.899218714067779 ], [ 2.476742420318394, 48.899240253314893 ] ] ] } },
{ "type": "Feature", "properties": { "start_date": 2010, "construction_date.nb": 1, "historic.building": "yes" }, "geometry": { "type": "Polygon", "coordinates": [ [ [ 2.476450324377607, 48.899243110734055 ], [ 2.476460739318803, 48.899276441598381 ], [ 2.476460739307118, 48.899276441599064 ], [ 2.476460739305132, 48.8992764415921 ], [ 2.476450324354262, 48.899243110736499 ], [ 2.476450324377607, 48.899243110734055 ] ] ] } },
{ "type": "Feature", "properties": { "start_date": 1893, "construction_date.nb": 1, "historic.building": "yes" }, "geometry": { "type": "Polygon", "coordinates": [ [ [ 2.477538700456505, 48.90139176127979 ], [ 2.477523037105295, 48.90135694612038 ], [ 2.477621586494271, 48.901337141642308 ], [ 2.4776543721406, 48.901408895758351 ], [ 2.477575125150525, 48.901408008752178 ], [ 2.477538700456505, 48.90139176127979 ] ] ] } },
{ "type": "Feature", "properties": { "start_date": 1930, "construction_date.nb": 1, "historic.building": "yes" }, "geometry": { "type": "Polygon", "coordinates": [ [ [ 2.477671644883195, 48.901409089083771 ], [ 2.477659589152239, 48.901383441657416 ], [ 2.477776726308021, 48.901360030970075 ], [ 2.477797026735627, 48.90140321798598 ], [ 2.477736054539751, 48.901409809967028 ], [ 2.477671644883195, 48.901409089083771 ] ] ] } },
{ "type": "Feature", "properties": { "start_date": 1920, "construction_date.nb": 2, "historic.building": "yes" }, "geometry": { "type": "Polygon", "coordinates": [ [ [ 2.477916356693882, 48.901390316584141 ], [ 2.477907442736416, 48.901369953618435 ], [ 2.477925350296935, 48.901366164668083 ], [ 2.477911733931313, 48.90133651820328 ], [ 2.477965993123106, 48.901326053005064 ], [ 2.477964003875903, 48.90132037870957 ], [ 2.477973102938132, 48.901310795818141 ], [ 2.478004131260448, 48.90130445608709 ], [ 2.478013486265171, 48.901310162449533 ], [ 2.478022091313699, 48.901309030881492 ], [ 2.478049822864622, 48.901369603187185 ], [ 2.477999304604221, 48.901381348564179 ], [ 2.477916356693882, 48.901390316584141 ] ] ] } },
{ "type": "Feature", "properties": { "start_date": 1924, "construction_date.nb": 2, "historic.building": "yes" }, "geometry": { "type": "Polygon", "coordinates": [ [ [ 2.478082331772597, 48.901362044927772 ], [ 2.478056367166659, 48.901305313245828 ], [ 2.478153961431617, 48.901285504169813 ], [ 2.47817651049672, 48.901332807844568 ], [ 2.478113858582852, 48.901354714993317 ], [ 2.478082331772597, 48.901362044927772 ] ] ] } },
{ "type": "Feature", "properties": { "start_date": 1926, "construction_date.nb": 2, "historic.building": "yes" }, "geometry": { "type": "MultiPolygon", "coordinates": [ [ [ [ 2.478212437496082, 48.901320245425126 ], [ 2.478191787318283, 48.901281442231216 ], [ 2.478241912630476, 48.901270524603135 ], [ 2.478256268631654, 48.901304919181072 ], [ 2.478212437496082, 48.901320245425126 ] ] ], [ [ [ 2.47817651049672, 48.901332807844568 ], [ 2.478153961431617, 48.901285504169813 ], [ 2.478153961441556, 48.901285504167816 ], [ 2.478176510514335, 48.901332807838408 ], [ 2.47817651049672, 48.901332807844568 ] ] ] ] } },
{ "type": "Feature", "properties": { "start_date": 1900, "construction_date.nb": 2, "historic.building": "yes" }, "geometry": { "type": "Polygon", "coordinates": [ [ [ 2.476584849649552, 48.90074330124289 ], [ 2.476584849650738, 48.900743301245562 ], [ 2.476613393942446, 48.900807636328537 ], [ 2.476512389955391, 48.900827429253134 ], [ 2.476483983065348, 48.900763004830885 ], [ 2.476483983059277, 48.900763004817037 ], [ 2.476483983062371, 48.90076300481649 ], [ 2.476584849649552, 48.90074330124289 ] ] ] } },
{ "type": "Feature", "properties": { "start_date": 1910, "construction_date.nb": 1, "historic.building": "yes" }, "geometry": { "type": "Polygon", "coordinates": [ [ [ 2.476483983059277, 48.900763004817037 ], [ 2.476456113722959, 48.900699392088825 ], [ 2.476556430074758, 48.900680135798019 ], [ 2.476560815786849, 48.900689883501272 ], [ 2.476584849649552, 48.90074330124289 ], [ 2.476483983062371, 48.90076300481649 ], [ 2.476483983059277, 48.900763004817037 ] ] ] } },
{ "type": "Feature", "properties": { "start_date": 1931, "construction_date.nb": 2, "historic.building": "yes" }, "geometry": { "type": "MultiPolygon", "coordinates": [ [ [ [ 2.476201028126906, 48.900238911828247 ], [ 2.476276607746493, 48.900224841587807 ], [ 2.476201028115259, 48.900238911848092 ], [ 2.476201028108184, 48.900238911831721 ], [ 2.476201028126906, 48.900238911828247 ] ] ], [ [ [ 2.476184647754839, 48.900363531184603 ], [ 2.476238746706757, 48.900353918058364 ], [ 2.476230627153813, 48.900333917968595 ], [ 2.476340349941283, 48.90031515263648 ], [ 2.476374162480421, 48.900398126448707 ], [ 2.476264707813274, 48.900417342629105 ], [ 2.47621680154169, 48.900425729219329 ], [ 2.476194004578251, 48.900391906742641 ], [ 2.476184647754839, 48.900363531184603 ] ] ] ] } },
{ "type": "Feature", "properties": { "start_date": 1910, "construction_date.nb": 1, "historic.building": "yes" }, "geometry": { "type": "Polygon", "coordinates": [ [ [ 2.476201028108184, 48.900238911831721 ], [ 2.476179433563891, 48.900188905943047 ], [ 2.476227263013373, 48.900180212020821 ], [ 2.476216468019876, 48.900154984274423 ], [ 2.476264847514445, 48.900145843062482 ], [ 2.476297784639025, 48.900220899187758 ], [ 2.476276607746493, 48.900224841587807 ], [ 2.476201028126906, 48.900238911828247 ], [ 2.476201028108184, 48.900238911831721 ] ] ] } },
{ "type": "Feature", "properties": { "start_date": 1926, "construction_date.nb": 1, "historic.building": "yes" }, "geometry": { "type": "Polygon", "coordinates": [ [ [ 2.476022207383187, 48.899870908296933 ], [ 2.476100277471521, 48.899854108102659 ], [ 2.476112443605479, 48.899878622438237 ], [ 2.476134305405511, 48.899874940964231 ], [ 2.476142287569217, 48.899895030383924 ], [ 2.47612301822677, 48.89989863324935 ], [ 2.476125812909872, 48.899905570129071 ], [ 2.476039589883476, 48.899923623607407 ], [ 2.476022207383187, 48.899870908296933 ] ] ] } },
{ "type": "Feature", "properties": { "start_date": 1935, "construction_date.nb": 1, "historic.building": "yes" }, "geometry": { "type": "Polygon", "coordinates": [ [ [ 2.475951232016534, 48.899491373025342 ], [ 2.475978596418968, 48.899543225426449 ], [ 2.475918562415804, 48.899556585408561 ], [ 2.47590640824723, 48.899519725337669 ], [ 2.475951232016534, 48.899491373025342 ] ] ] } },
{ "type": "Feature", "properties": { "start_date": 1920, "construction_date.nb": 2, "historic.building": "yes" }, "geometry": { "type": "MultiPolygon", "coordinates": [ [ [ [ 2.476356833586381, 48.899530760655473 ], [ 2.476356833599049, 48.89953076067787 ], [ 2.476356833595519, 48.899530760678154 ], [ 2.476347338968142, 48.899514102600058 ], [ 2.476356833586381, 48.899530760655473 ] ] ], [ [ [ 2.476344075449109, 48.899592217377915 ], [ 2.476248229363009, 48.899613654156113 ], [ 2.476227733770801, 48.899618238148321 ], [ 2.476219195007331, 48.899599261080738 ], [ 2.47619744732671, 48.899550927589281 ], [ 2.476249247973842, 48.899540632236686 ], [ 2.476241506106324, 48.89952378137427 ], [ 2.476251681851928, 48.899515642194054 ], [ 2.476305792249386, 48.899506256243882 ], [ 2.476344075455209, 48.899592217376551 ], [ 2.476344075449109, 48.899592217377915 ] ] ] ] } },
{ "type": "Feature", "properties": { "start_date": 1933, "construction_date.nb": 1, "historic.building": "yes" }, "geometry": { "type": "Polygon", "coordinates": [ [ [ 2.476344075455209, 48.899592217376551 ], [ 2.476344075466558, 48.899592217402031 ], [ 2.476248229363009, 48.899613654156113 ], [ 2.476344075449109, 48.899592217377915 ], [ 2.476344075455209, 48.899592217376551 ] ] ] } },
{ "type": "Feature", "properties": { "start_date": 1931, "construction_date.nb": 1, "historic.building": "yes" }, "geometry": { "type": "Polygon", "coordinates": [ [ [ 2.476359795639605, 48.899914327394683 ], [ 2.476335775740414, 48.899861343212798 ], [ 2.476442514844922, 48.899840766154426 ], [ 2.476465994652414, 48.899893208339066 ], [ 2.476465994647632, 48.899893208340018 ], [ 2.476359795639605, 48.899914327394683 ] ] ] } },
{ "type": "Feature", "properties": { "start_date": 1920, "construction_date.nb": 2, "historic.building": "yes" }, "geometry": { "type": "MultiPolygon", "coordinates": [ [ [ [ 2.476465994647632, 48.899893208340018 ], [ 2.476465994652414, 48.899893208339066 ], [ 2.476465994663013, 48.899893208362727 ], [ 2.47635979564128, 48.899914327398363 ], [ 2.476359795639605, 48.899914327394683 ], [ 2.476465994647632, 48.899893208340018 ] ] ], [ [ [ 2.476505014532591, 48.899987356303683 ], [ 2.476499881282786, 48.899988316134852 ], [ 2.476505014552411, 48.899987356298993 ], [ 2.476505014552514, 48.899987356299228 ], [ 2.476505014532591, 48.899987356303683 ] ] ] ] } },
{ "type": "Feature", "properties": { "start_date": 1905, "construction_date.nb": 2, "historic.building": "yes" }, "geometry": { "type": "MultiPolygon", "coordinates": [ [ [ [ 2.476806766736984, 48.899930669674568 ], [ 2.476806766744771, 48.899930669694299 ], [ 2.47680676672947, 48.899930669697184 ], [ 2.476806766721455, 48.89993066967746 ], [ 2.476806766736984, 48.899930669674568 ] ] ], [ [ [ 2.476505014532591, 48.899987356303683 ], [ 2.476505014552514, 48.899987356299228 ], [ 2.476535709063524, 48.900054848435538 ], [ 2.476429651595159, 48.900075428588828 ], [ 2.476405968100147, 48.90002217041345 ], [ 2.47639923901376, 48.9000070383658 ], [ 2.476401151299815, 48.900006776946363 ], [ 2.476499881282786, 48.899988316134852 ], [ 2.476505014532591, 48.899987356303683 ] ] ] ] } },
{ "type": "Feature", "properties": { "start_date": 1903, "construction_date.nb": 1, "historic.building": "yes" }, "geometry": { "type": "Polygon", "coordinates": [ [ [ 2.47672711430185, 48.90059481816705 ], [ 2.476697511313463, 48.900527240987302 ], [ 2.476759701045481, 48.900514832499475 ], [ 2.476756513278019, 48.900506275170223 ], [ 2.476810762799088, 48.900496709738981 ], [ 2.47684423745241, 48.900572667345259 ], [ 2.476844237449201, 48.900572667345862 ], [ 2.476807743459155, 48.900579972161999 ], [ 2.47672711430185, 48.90059481816705 ] ] ] } },
{ "type": "Feature", "properties": { "start_date": 1903, "construction_date.nb": 1, "historic.building": "yes" }, "geometry": { "type": "Polygon", "coordinates": [ [ [ 2.47684423745241, 48.900572667345259 ], [ 2.476844237458435, 48.900572667358936 ], [ 2.476807743493747, 48.900579972157374 ], [ 2.476727114309817, 48.900594818185247 ], [ 2.47672711430185, 48.90059481816705 ], [ 2.476807743459155, 48.900579972161999 ], [ 2.476844237449201, 48.900572667345862 ], [ 2.47684423745241, 48.900572667345259 ] ] ] } },
{ "type": "Feature", "properties": { "start_date": 2011, "construction_date.nb": 1, "historic.building": "yes" }, "geometry": { "type": "Polygon", "coordinates": [ [ [ 2.476933880884446, 48.900692945438145 ], [ 2.476941091522133, 48.900707896137092 ], [ 2.476931247139334, 48.900710191355259 ], [ 2.476941790619732, 48.90073334952752 ], [ 2.47690735157707, 48.900739764039017 ], [ 2.476896394406246, 48.900717053702465 ], [ 2.476889697177662, 48.900718373422038 ], [ 2.476882910560847, 48.900715016362668 ], [ 2.476855719791986, 48.900719573951882 ], [ 2.476879327816198, 48.900772915918552 ], [ 2.476750732063451, 48.900796455541808 ], [ 2.476722865993006, 48.900732483149568 ], [ 2.476773025490252, 48.900722720035958 ], [ 2.476849962988031, 48.900708757178187 ], [ 2.476933880884446, 48.900692945438145 ] ] ] } },
{ "type": "Feature", "properties": { "start_date": 1952, "construction_date.nb": 2, "historic.building": "yes" }, "geometry": { "type": "Polygon", "coordinates": [ [ [ 2.477414256027293, 48.90102354909579 ], [ 2.477441316834603, 48.901018361273799 ], [ 2.477441316840671, 48.901018361287498 ], [ 2.477481086548336, 48.90101089068984 ], [ 2.47750859771043, 48.901069555439804 ], [ 2.477523495311675, 48.901066652708494 ], [ 2.477550975011216, 48.901128464850217 ], [ 2.477550974989278, 48.901128464854338 ], [ 2.477428373134277, 48.901152750786544 ], [ 2.477428373132886, 48.9011527507868 ], [ 2.477374475516158, 48.90103209876888 ], [ 2.477374475517004, 48.901032098768724 ], [ 2.4773840179876, 48.901030047891467 ], [ 2.477414256021904, 48.901023549114321 ], [ 2.477414256015717, 48.901023549098277 ], [ 2.477414256027293, 48.90102354909579 ] ] ] } },
{ "type": "Feature", "properties": { "start_date": 1907, "construction_date.nb": 3, "historic.building": "yes" }, "geometry": { "type": "MultiPolygon", "coordinates": [ [ [ [ 2.477454415450085, 48.900950071287419 ], [ 2.477454415486886, 48.900950071280221 ], [ 2.477454415488725, 48.900950071284143 ], [ 2.477475917573464, 48.90099584977289 ], [ 2.477435047714563, 48.901004214859512 ], [ 2.477441316834603, 48.901018361273799 ], [ 2.477414256027293, 48.90102354909579 ], [ 2.477414256015717, 48.901023549098277 ], [ 2.477404284975321, 48.900997695548156 ], [ 2.477370391434303, 48.901004112606344 ], [ 2.477368675126266, 48.900998439489896 ], [ 2.477355322051972, 48.900969783339356 ], [ 2.477355322043648, 48.900969783321514 ], [ 2.477454415450085, 48.900950071287419 ] ] ], [ [ [ 2.4773840179876, 48.901030047891467 ], [ 2.477374475517004, 48.901032098768724 ], [ 2.477374475516158, 48.90103209876888 ], [ 2.477374475513931, 48.901032098763906 ], [ 2.4773840179876, 48.901030047891467 ] ] ] ] } },
{ "type": "Feature", "properties": { "start_date": 1910, "construction_date.nb": 2, "historic.building": "yes" }, "geometry": { "type": "Polygon", "coordinates": [ [ [ 2.477466692896704, 48.90088204750765 ], [ 2.477466692897782, 48.900882047510308 ], [ 2.477383593774619, 48.900898322083712 ], [ 2.477388369723219, 48.900911742540472 ], [ 2.477432513176518, 48.900903391752522 ], [ 2.477454415486886, 48.900950071280221 ], [ 2.477454415450085, 48.900950071287419 ], [ 2.477355322043648, 48.900969783321514 ], [ 2.477326878830149, 48.900908866221982 ], [ 2.477334810579316, 48.900907391593023 ], [ 2.477383593782104, 48.90089832206386 ], [ 2.477466692896704, 48.90088204750765 ] ] ] } },
{ "type": "Feature", "properties": { "start_date": 1933, "construction_date.nb": 3, "historic.building": "yes" }, "geometry": { "type": "MultiPolygon", "coordinates": [ [ [ [ 2.477285562895141, 48.900730713550246 ], [ 2.477383573430764, 48.900711496610761 ], [ 2.477285562903653, 48.900730713572294 ], [ 2.477285562895141, 48.900730713550246 ] ] ], [ [ [ 2.477466692896704, 48.90088204750765 ], [ 2.477383593782104, 48.90089832206386 ], [ 2.477334810579316, 48.900907391593023 ], [ 2.477326878830149, 48.900908866221982 ], [ 2.477326878828859, 48.900908866219218 ], [ 2.477295847950987, 48.90091547557995 ], [ 2.477282183414261, 48.900917844069753 ], [ 2.477266422133012, 48.9008845010435 ], [ 2.477280636795019, 48.900881685276737 ], [ 2.477268356923394, 48.900854832412818 ], [ 2.477282576994427, 48.900851477142908 ], [ 2.477274196795387, 48.900830216976679 ], [ 2.477432739205943, 48.900799343218878 ], [ 2.477466692896704, 48.90088204750765 ] ] ] ] } },
{ "type": "Feature", "properties": { "start_date": 1908, "construction_date.nb": 2, "historic.building": "yes" }, "geometry": { "type": "Polygon", "coordinates": [ [ [ 2.477250111827204, 48.900634153371037 ], [ 2.477322844599118, 48.900620619332848 ], [ 2.477355888302673, 48.900614470578041 ], [ 2.477395040418199, 48.900709248267979 ], [ 2.477383573430764, 48.900711496610761 ], [ 2.477285562895141, 48.900730713550246 ], [ 2.477274927139058, 48.900703148420469 ], [ 2.477251149995961, 48.900707361302025 ], [ 2.477245007403702, 48.90069420465246 ], [ 2.477236537862936, 48.900695426706228 ], [ 2.47721266487916, 48.900641274309706 ], [ 2.477250111826087, 48.900634153378604 ], [ 2.477250111823288, 48.900634153371776 ], [ 2.477250111827204, 48.900634153371037 ] ] ] } },
{ "type": "Feature", "properties": { "start_date": 1906, "construction_date.nb": 2, "historic.building": "yes" }, "geometry": { "type": "Polygon", "coordinates": [ [ [ 2.47734135649001, 48.900580953046912 ], [ 2.477355888301333, 48.900614470574943 ], [ 2.477355888302673, 48.900614470578041 ], [ 2.477322844599118, 48.900620619332848 ], [ 2.477250111827204, 48.900634153371037 ], [ 2.477250111823288, 48.900634153371776 ], [ 2.477239193358576, 48.900607576227713 ], [ 2.477231267693185, 48.900608980519998 ], [ 2.47720610567402, 48.900547358245568 ], [ 2.477274289639237, 48.900535695116275 ], [ 2.477286117762149, 48.90056677275934 ], [ 2.47729868741698, 48.900564759186253 ], [ 2.477302908579995, 48.900565497068612 ], [ 2.47730792383932, 48.900568666509074 ], [ 2.477315119689033, 48.900585604851024 ], [ 2.47734135649001, 48.900580953046912 ] ] ] } },
{ "type": "Feature", "properties": { "start_date": 1913, "construction_date.nb": 1, "historic.building": "yes" }, "geometry": { "type": "Polygon", "coordinates": [ [ [ 2.477310537216943, 48.900505166709785 ], [ 2.4773195, 48.900527599999961 ], [ 2.4772027, 48.9005474 ], [ 2.4771674, 48.900464099999965 ], [ 2.477285464282011, 48.900442506532656 ], [ 2.477310537216943, 48.900505166709785 ] ] ] } },
{ "type": "Feature", "properties": { "start_date": 1906, "construction_date.nb": 2, "historic.building": "yes" }, "geometry": { "type": "Polygon", "coordinates": [ [ [ 2.477020244409902, 48.900201843241042 ], [ 2.477124777112261, 48.900183684040684 ], [ 2.477124777118974, 48.900183684056763 ], [ 2.477150618197005, 48.900245579114966 ], [ 2.477045673435794, 48.900264006321272 ], [ 2.477020244417656, 48.900201843259701 ], [ 2.477020244409902, 48.900201843241042 ] ] ] } },
{ "type": "Feature", "properties": { "start_date": 1908, "construction_date.nb": 1, "historic.building": "yes" }, "geometry": { "type": "Polygon", "coordinates": [ [ [ 2.477020244409902, 48.900201843241042 ], [ 2.477005194418542, 48.900165625473683 ], [ 2.477009158150359, 48.900164833406336 ], [ 2.476998887560343, 48.900141676419253 ], [ 2.477100002083535, 48.900124311686781 ], [ 2.477124777112261, 48.900183684040684 ], [ 2.477020244409902, 48.900201843241042 ] ] ] } },
{ "type": "Feature", "properties": { "start_date": 1913, "construction_date.nb": 1, "historic.building": "yes" }, "geometry": { "type": "Polygon", "coordinates": [ [ [ 2.477056746301799, 48.900003615921754 ], [ 2.477085241987843, 48.900072806979892 ], [ 2.476987122038949, 48.900090814288191 ], [ 2.476957257984252, 48.900022066911482 ], [ 2.477056746301799, 48.900003615921754 ] ] ] } },
{ "type": "Feature", "properties": { "start_date": 1908, "construction_date.nb": 1, "historic.building": "yes" }, "geometry": { "type": "Polygon", "coordinates": [ [ [ 2.476979923055914, 48.899897702019793 ], [ 2.476979923066287, 48.8998977020441 ], [ 2.476908853767255, 48.899911510755196 ], [ 2.476806766744771, 48.899930669694299 ], [ 2.476806766736984, 48.899930669674568 ], [ 2.47690885375809, 48.899911510735237 ], [ 2.47697992304664, 48.899897702021391 ], [ 2.476979923055914, 48.899897702019793 ] ] ] } },
{ "type": "Feature", "properties": { "start_date": 1935, "construction_date.nb": 2, "historic.building": "yes" }, "geometry": { "type": "MultiPolygon", "coordinates": [ [ [ [ 2.476831791472192, 48.899829427278384 ], [ 2.476982940237224, 48.899801039877623 ], [ 2.476982940245499, 48.89980103989646 ], [ 2.476831791481104, 48.899829427299451 ], [ 2.476831791472192, 48.899829427278384 ] ] ], [ [ [ 2.476806766736984, 48.899930669674568 ], [ 2.476806766721455, 48.89993066967746 ], [ 2.476780543299664, 48.899866164880407 ], [ 2.476951937030698, 48.899832110375378 ], [ 2.476979923055914, 48.899897702019793 ], [ 2.47697992304664, 48.899897702021391 ], [ 2.47690885375809, 48.899911510735237 ], [ 2.476806766736984, 48.899930669674568 ] ] ] ] } },
{ "type": "Feature", "properties": { "start_date": 1907, "construction_date.nb": 2, "historic.building": "yes" }, "geometry": { "type": "Polygon", "coordinates": [ [ [ 2.476958594594673, 48.899739690856883 ], [ 2.476958594604369, 48.899739690854965 ], [ 2.476958594610179, 48.899739690867271 ], [ 2.476890396202964, 48.899752882594981 ], [ 2.476894514334171, 48.899763872118967 ], [ 2.476961203328045, 48.899751573088828 ], [ 2.476982940237224, 48.899801039877623 ], [ 2.476831791472192, 48.899829427278384 ], [ 2.476806076571145, 48.899768611854384 ], [ 2.476848714238152, 48.899760704344544 ], [ 2.476848714235931, 48.899760704339535 ], [ 2.476890396210352, 48.89975288258475 ], [ 2.476958594594673, 48.899739690856883 ] ] ] } },
{ "type": "Feature", "properties": { "start_date": 1905, "construction_date.nb": 2, "historic.building": "yes" }, "geometry": { "type": "MultiPolygon", "coordinates": [ [ [ [ 2.476871152199978, 48.899654459813327 ], [ 2.476902901850792, 48.899648617774346 ], [ 2.476902901859301, 48.899648617795783 ], [ 2.476871152199978, 48.899654459813327 ] ] ], [ [ [ 2.476780875885549, 48.8996702076616 ], [ 2.476780875900087, 48.899670207658929 ], [ 2.476848182634619, 48.899658504468057 ], [ 2.476780875890767, 48.899670207674689 ], [ 2.476780875885549, 48.8996702076616 ] ] ], [ [ [ 2.476958594594673, 48.899739690856883 ], [ 2.476890396210352, 48.89975288258475 ], [ 2.476848714235931, 48.899760704339535 ], [ 2.476823369712054, 48.899703757533459 ], [ 2.476928746093702, 48.899682994188652 ], [ 2.476939288461118, 48.899706242328733 ], [ 2.476942433749691, 48.899705446688927 ], [ 2.476958594604369, 48.899739690854965 ], [ 2.476958594594673, 48.899739690856883 ] ] ] ] } },
{ "type": "Feature", "properties": { "start_date": 1935, "construction_date.nb": 1, "historic.building": "yes" }, "geometry": { "type": "Polygon", "coordinates": [ [ [ 2.476347338968142, 48.899514102600058 ], [ 2.476331500357244, 48.899486314141065 ], [ 2.476310999689872, 48.899449622762305 ], [ 2.476383216450452, 48.89944373328462 ], [ 2.47638412148309, 48.899448683415962 ], [ 2.47644813997496, 48.899444196978088 ], [ 2.476447508642506, 48.899439158093919 ], [ 2.476497188137848, 48.899436317649382 ], [ 2.476503734297731, 48.899436436178007 ], [ 2.476514767159596, 48.899519400375397 ], [ 2.476514767162283, 48.899519400396812 ], [ 2.476438332812798, 48.899524192325011 ], [ 2.476356833599049, 48.89953076067787 ], [ 2.476356833586381, 48.899530760655473 ], [ 2.476347338968142, 48.899514102600058 ] ] ] } },
{ "type": "Feature", "properties": { "start_date": 1910, "construction_date.nb": 1, "historic.building": "yes" }, "geometry": { "type": "Polygon", "coordinates": [ [ [ 2.476503734297731, 48.899436436178007 ], [ 2.476503734316268, 48.899436436178334 ], [ 2.476514767164585, 48.899519400396677 ], [ 2.476514767162283, 48.899519400396812 ], [ 2.476514767159596, 48.899519400375397 ], [ 2.476503734297731, 48.899436436178007 ] ] ] } },
{ "type": "Feature", "properties": { "start_date": 1939, "construction_date.nb": 1, "historic.building": "yes" }, "geometry": { "type": "Polygon", "coordinates": [ [ [ 2.477256907258145, 48.899522731831368 ], [ 2.477202584776232, 48.899526091953447 ], [ 2.477202861400739, 48.899526709941945 ], [ 2.477202037112962, 48.899526288631471 ], [ 2.477189201243063, 48.899493370350932 ], [ 2.477188416625921, 48.899492511133339 ], [ 2.477189146370007, 48.899492399247436 ], [ 2.477173371075648, 48.899446915455442 ], [ 2.477270696731995, 48.899453545478309 ], [ 2.4772703031225, 48.899456705139038 ], [ 2.477269509845266, 48.899463072938445 ], [ 2.477256907259669, 48.899522731824895 ], [ 2.477256907258145, 48.899522731831368 ] ] ] } },
{ "type": "Feature", "properties": { "start_date": 1935, "construction_date.nb": 1, "historic.building": "yes" }, "geometry": { "type": "Polygon", "coordinates": [ [ [ 2.47728720584084, 48.899561804009487 ], [ 2.477287205822654, 48.899561804018838 ], [ 2.477252347486891, 48.899542136928012 ], [ 2.477252347487024, 48.899542136927444 ], [ 2.477287205819557, 48.89956180399615 ], [ 2.47728720584084, 48.899561804009487 ] ] ] } },
{ "type": "Feature", "properties": { "start_date": 1912, "construction_date.nb": 1, "historic.building": "yes" }, "geometry": { "type": "Polygon", "coordinates": [ [ [ 2.477375169809456, 48.900174884567683 ], [ 2.477347598680931, 48.900108665347041 ], [ 2.477437232852343, 48.900093498493327 ], [ 2.477445084540013, 48.900113047655161 ], [ 2.477458066871004, 48.900110676169518 ], [ 2.477462725344904, 48.900122207622573 ], [ 2.477451787167308, 48.90012476785823 ], [ 2.477465085913673, 48.900158819620543 ], [ 2.477375169809456, 48.900174884567683 ] ] ] } },
{ "type": "Feature", "properties": { "start_date": 1912, "construction_date.nb": 2, "historic.building": "yes" }, "geometry": { "type": "Polygon", "coordinates": [ [ [ 2.477375169809456, 48.900174884567683 ], [ 2.477465085913673, 48.900158819620543 ], [ 2.477465085919223, 48.900158819634754 ], [ 2.477477448850233, 48.900190978759213 ], [ 2.477490423075911, 48.900189416610722 ], [ 2.477494121302779, 48.900201483433449 ], [ 2.477483735994178, 48.900203326657703 ], [ 2.477483717941962, 48.900205125195811 ], [ 2.477394213649437, 48.900220922161068 ], [ 2.477375169810368, 48.900174884569864 ], [ 2.477375169809456, 48.900174884567683 ] ] ] } },
{ "type": "Feature", "properties": { "start_date": 2018, "construction_date.nb": 2, "historic.building": "yes" }, "geometry": { "type": "Polygon", "coordinates": [ [ [ 2.477437889546704, 48.900353118841366 ], [ 2.477409195019687, 48.900359120759859 ], [ 2.477371124406761, 48.900265337012549 ], [ 2.477427284055763, 48.90025568972132 ], [ 2.477448391163805, 48.900313607090546 ], [ 2.477619069703524, 48.900282965922493 ], [ 2.477632888941956, 48.900319537960534 ], [ 2.477632888928329, 48.900319537963625 ], [ 2.47758574790257, 48.900327605954246 ], [ 2.477467594686843, 48.900347919704302 ], [ 2.477440361033714, 48.900352601890866 ], [ 2.477440361032816, 48.900352601888734 ], [ 2.477437889546704, 48.900353118841366 ] ] ] } },
{ "type": "Feature", "properties": { "start_date": 1908, "construction_date.nb": 2, "historic.building": "yes" }, "geometry": { "type": "MultiPolygon", "coordinates": [ [ [ [ 2.477632888928329, 48.900319537963625 ], [ 2.477632888941956, 48.900319537960534 ], [ 2.477632888952226, 48.900319537987713 ], [ 2.477585747916227, 48.900327605961841 ], [ 2.477607547196221, 48.900384537105509 ], [ 2.477607547192959, 48.900384537106127 ], [ 2.477464474443619, 48.900409992821267 ], [ 2.477464474425816, 48.900409992825089 ], [ 2.477440361033714, 48.900352601890866 ], [ 2.477467594686843, 48.900347919704302 ], [ 2.47758574790257, 48.900327605954246 ], [ 2.477632888928329, 48.900319537963625 ] ] ], [ [ [ 2.477409195026099, 48.900359120775633 ], [ 2.477409195019687, 48.900359120759859 ], [ 2.477437889546704, 48.900353118841366 ], [ 2.477409195026099, 48.900359120775633 ] ] ] ] } },
{ "type": "Feature", "properties": { "start_date": 1911, "construction_date.nb": 2, "historic.building": "yes" }, "geometry": { "type": "Polygon", "coordinates": [ [ [ 2.477607547192959, 48.900384537106127 ], [ 2.477607547196221, 48.900384537105509 ], [ 2.477607547198317, 48.900384537110988 ], [ 2.477617250548031, 48.900382690901708 ], [ 2.47764137864317, 48.90043864295172 ], [ 2.477641378634535, 48.900438642953262 ], [ 2.47748831693393, 48.90046720269666 ], [ 2.47748831693299, 48.900467202696824 ], [ 2.477464474431986, 48.900409992839769 ], [ 2.477464474425816, 48.900409992825089 ], [ 2.477464474443619, 48.900409992821267 ], [ 2.477607547192959, 48.900384537106127 ] ] ] } },
{ "type": "Feature", "properties": { "start_date": 1913, "construction_date.nb": 1, "historic.building": "yes" }, "geometry": { "type": "MultiPolygon", "coordinates": [ [ [ [ 2.477745563577318, 48.900753978539043 ], [ 2.477699911796844, 48.900763457285166 ], [ 2.477649886108486, 48.900773491183514 ], [ 2.477699911802109, 48.900763457279034 ], [ 2.477745563577318, 48.900753978539043 ] ] ], [ [ [ 2.477649886108486, 48.900773491183514 ], [ 2.477649886105357, 48.900773491184175 ], [ 2.477649886105344, 48.90077349118414 ], [ 2.477649886108486, 48.900773491183514 ] ] ] ] } },
{ "type": "Feature", "properties": { "start_date": 1830, "construction_date.nb": 2, "historic.building": "yes" }, "geometry": { "type": "Polygon", "coordinates": [ [ [ 2.47810069979818, 48.900932199655287 ], [ 2.478091330449402, 48.900933693224196 ], [ 2.478089314894235, 48.900930197929092 ], [ 2.478088783005084, 48.900929275538196 ], [ 2.478041949671093, 48.900797773014794 ], [ 2.478035047952425, 48.90077867765693 ], [ 2.478036511890895, 48.900778413402989 ], [ 2.47810069979818, 48.900932199655287 ] ] ] } },
{ "type": "Feature", "properties": { "start_date": 1909, "construction_date.nb": 2, "historic.building": "yes" }, "geometry": { "type": "Polygon", "coordinates": [ [ [ 2.477409734189415, 48.899481958309273 ], [ 2.4773903334653, 48.899547595379261 ], [ 2.477351503397151, 48.899543109272088 ], [ 2.477349224429345, 48.89955272189362 ], [ 2.477338047923474, 48.899551863743234 ], [ 2.477340611432741, 48.899541083256885 ], [ 2.477300149075661, 48.899536140363743 ], [ 2.47729310164082, 48.899558772110467 ], [ 2.47728720584084, 48.899561804009487 ], [ 2.477287205819557, 48.89956180399615 ], [ 2.477252347487024, 48.899542136927444 ], [ 2.477256907262729, 48.899522731831091 ], [ 2.477256907258145, 48.899522731831368 ], [ 2.477256907259669, 48.899522731824895 ], [ 2.477269509845266, 48.899463072938445 ], [ 2.4772703031225, 48.899456705139038 ], [ 2.477269509862839, 48.899463072950226 ], [ 2.477408435781956, 48.899481488024477 ], [ 2.477409734189415, 48.899481958309273 ] ] ] } },
{ "type": "Feature", "properties": { "start_date": 1910, "construction_date.nb": 1, "historic.building": "yes" }, "geometry": { "type": "Polygon", "coordinates": [ [ [ 2.477510666427464, 48.899518516018595 ], [ 2.477528256944951, 48.899560663015762 ], [ 2.477506447978633, 48.899557724564957 ], [ 2.477498209825748, 48.899549504945782 ], [ 2.477501704616405, 48.89954106673261 ], [ 2.477454161330863, 48.899534923892872 ], [ 2.477464459748457, 48.899501779952907 ], [ 2.477510666427464, 48.899518516018595 ] ] ] } },
{ "type": "Feature", "properties": { "start_date": 1911, "construction_date.nb": 2, "historic.building": "yes" }, "geometry": { "type": "MultiPolygon", "coordinates": [ [ [ [ 2.476750260059405, 48.899432027717722 ], [ 2.476792297628432, 48.899429513459644 ], [ 2.476800563391559, 48.899489263460126 ], [ 2.476702972037627, 48.899495491968061 ], [ 2.4766939440783, 48.899430162910356 ], [ 2.476692628936511, 48.899425300904952 ], [ 2.476748727245828, 48.899421679026005 ], [ 2.476750260059405, 48.899432027717722 ] ] ], [ [ [ 2.47674239067439, 48.899549982232806 ], [ 2.476740083614663, 48.899550550161308 ], [ 2.476742390667357, 48.899549982228002 ], [ 2.476772849284702, 48.899544711724673 ], [ 2.47674239067439, 48.899549982232806 ] ] ] ] } },
{ "type": "Feature", "properties": { "start_date": 1908, "construction_date.nb": 2, "historic.building": "yes" }, "geometry": { "type": "MultiPolygon", "coordinates": [ [ [ [ 2.477641378634535, 48.900438642953262 ], [ 2.47764137864317, 48.90043864295172 ], [ 2.477641378645935, 48.900438642958136 ], [ 2.477488316934922, 48.900467202701464 ], [ 2.47748831693299, 48.900467202696824 ], [ 2.47748831693393, 48.90046720269666 ], [ 2.477641378634535, 48.900438642953262 ] ] ], [ [ [ 2.477547738930983, 48.900485897667252 ], [ 2.477642574970277, 48.900468954737569 ], [ 2.477678697642887, 48.900553017426006 ], [ 2.47756089921791, 48.900574536610911 ], [ 2.477543582295789, 48.900533093034568 ], [ 2.477565446976209, 48.900529141567233 ], [ 2.477547738930983, 48.900485897667252 ] ] ] ] } },
{ "type": "Feature", "properties": { "start_date": 1960, "construction_date.nb": 2, "historic.building": "yes" }, "geometry": { "type": "Polygon", "coordinates": [ [ [ 2.477727407715452, 48.900674096378445 ], [ 2.477741758677537, 48.900671281183833 ], [ 2.477741758677973, 48.900671281184763 ], [ 2.477727407720662, 48.900674096377806 ], [ 2.477761423133835, 48.900750685591156 ], [ 2.477745563577318, 48.900753978539043 ], [ 2.477699911802109, 48.900763457279034 ], [ 2.477649886108486, 48.900773491183514 ], [ 2.477649886105344, 48.90077349118414 ], [ 2.47761547970371, 48.900695101620144 ], [ 2.477707714828784, 48.900677792100623 ], [ 2.477727407715452, 48.900674096378445 ] ] ] } },
{ "type": "Feature", "properties": { "start_date": 1924, "construction_date.nb": 1, "historic.building": "yes" }, "geometry": { "type": "Polygon", "coordinates": [ [ [ 2.475918562415804, 48.899556585408561 ], [ 2.475978596418968, 48.899543225426449 ], [ 2.475978596427597, 48.899543225442798 ], [ 2.475918562420004, 48.899556585421287 ], [ 2.475918562415804, 48.899556585408561 ] ] ] } },
{ "type": "Feature", "properties": { "start_date": 1968, "construction_date.nb": 2, "historic.building": "yes" }, "geometry": { "type": "Polygon", "coordinates": [ [ [ 2.477727407715452, 48.900674096378445 ], [ 2.477707714828784, 48.900677792100623 ], [ 2.47761547970371, 48.900695101620144 ], [ 2.477615479703083, 48.900695101618723 ], [ 2.477581601821335, 48.90061842304339 ], [ 2.477706383870432, 48.900594236386262 ], [ 2.477741758677537, 48.900671281183833 ], [ 2.477727407715452, 48.900674096378445 ] ] ] } },
{ "type": "Feature", "properties": { "start_date": 1912, "construction_date.nb": 1, "historic.building": "yes" }, "geometry": { "type": "Polygon", "coordinates": [ [ [ 2.476871152199978, 48.899654459813327 ], [ 2.476866141169757, 48.899655381854672 ], [ 2.476848182634619, 48.899658504468057 ], [ 2.476780875900087, 48.899670207658929 ], [ 2.476780875885549, 48.8996702076616 ], [ 2.476733775938564, 48.899552102938493 ], [ 2.476740083614663, 48.899550550161308 ], [ 2.47674239067439, 48.899549982232806 ], [ 2.476772849284702, 48.899544711724673 ], [ 2.476855939832236, 48.899530333843607 ], [ 2.476902901850792, 48.899648617774346 ], [ 2.476871152199978, 48.899654459813327 ] ] ] } },
{ "type": "Feature", "properties": { "start_date": 1926, "construction_date.nb": 2, "historic.building": "yes" }, "geometry": { "type": "Polygon", "coordinates": [ [ [ 2.476593921501411, 48.900922758125368 ], [ 2.47659395795126, 48.90092275230657 ], [ 2.476593957955883, 48.900922752305803 ], [ 2.476593957958586, 48.900922752312752 ], [ 2.476593921511784, 48.900922758131053 ], [ 2.476593921501411, 48.900922758125368 ] ] ] } },
{ "type": "Feature", "properties": { "start_date": 1928, "construction_date.nb": 1, "historic.building": "yes" }, "geometry": { "type": "Polygon", "coordinates": [ [ [ 2.476988976521481, 48.901139636909434 ], [ 2.47707592976872, 48.901122075063761 ], [ 2.4771023665047, 48.901179026511812 ], [ 2.477134351472601, 48.901172511316801 ], [ 2.477148121848566, 48.901200359899242 ], [ 2.477121742073322, 48.901205772703065 ], [ 2.477056156659436, 48.901176517391612 ], [ 2.476988976521481, 48.901139636909434 ] ] ] } },
{ "type": "Feature", "properties": { "start_date": 1922, "construction_date.nb": 2, "historic.building": "yes" }, "geometry": { "type": "Polygon", "coordinates": [ [ [ 2.476042957687519, 48.89993383701767 ], [ 2.476132130466388, 48.899914860631036 ], [ 2.476159534814382, 48.89997037768233 ], [ 2.476159534806638, 48.899970377683893 ], [ 2.476073558781628, 48.899987987714944 ], [ 2.476061598365929, 48.899990367811519 ], [ 2.476042957687519, 48.89993383701767 ] ] ] } },
{ "type": "Feature", "properties": { "start_date": 1900, "construction_date.nb": 1, "historic.building": "yes" }, "geometry": { "type": "Polygon", "coordinates": [ [ [ 2.476450324354262, 48.899243110736499 ], [ 2.476460739305132, 48.8992764415921 ], [ 2.476460739307118, 48.899276441599064 ], [ 2.476334354068323, 48.899283982821316 ], [ 2.476339351527797, 48.899316019938006 ], [ 2.476336891116476, 48.899316176337472 ], [ 2.476216066501054, 48.899323856650625 ], [ 2.476322533438932, 48.899256512382543 ], [ 2.476450324354262, 48.899243110736499 ] ] ] } },
{ "type": "Feature", "properties": { "start_date": 1900, "construction_date.nb": 1, "historic.building": "yes" }, "geometry": { "type": "Polygon", "coordinates": [ [ [ 2.476742420318394, 48.899240253314893 ], [ 2.476744154904528, 48.899252319755668 ], [ 2.476631966830158, 48.899258754211942 ], [ 2.476627445895417, 48.899224535460235 ], [ 2.476682954281966, 48.899218714067779 ], [ 2.476742420318394, 48.899240253314893 ] ] ] } },
{ "type": "Feature", "properties": { "start_date": 2010, "construction_date.nb": 1, "historic.building": "yes" }, "geometry": { "type": "Polygon", "coordinates": [ [ [ 2.476450324377607, 48.899243110734055 ], [ 2.476460739318803, 48.899276441598381 ], [ 2.476460739307118, 48.899276441599064 ], [ 2.476460739305132, 48.8992764415921 ], [ 2.476450324354262, 48.899243110736499 ], [ 2.476450324377607, 48.899243110734055 ] ] ] } }
]
}
