{
    "type": "FeatureCollection",
    "generator": "JOSM",
    "features": [
        {
            "type": "Feature",
            "properties": {
                "boundary": "patrimoine",
                "name": "1"
            },
            "geometry": {
                "type": "LineString",
                "coordinates": [
                    [
                        2.47668295428,
                        48.89921871407
                    ],
                    [
                        2.47632253344,
                        48.89925651238
                    ],
                    [
                        2.47590640825,
                        48.89951972534
                    ],
                    [
                        2.47619400458,
                        48.90039190674
                    ],
                    [
                        2.47652707710,
                        48.90088606132
                    ],
                    [
                        2.47705615666,
                        48.90117651739
                    ],
                    [
                        2.47757512515,
                        48.90140800875
                    ],
                    [
                        2.47773605454,
                        48.90140980997
                    ],
                    [
                        2.47799930460,
                        48.90138134856
                    ],
                    [
                        2.47811385858,
                        48.90135471499
                    ],
                    [
                        2.47825626863,
                        48.90130491918
                    ],
                    [
                        2.47751066643,
                        48.89951851602
                    ],
                    [
                        2.47668295428,
                        48.89921871407
                    ]
                ]
            }
        },
        {
            "type": "Feature",
            "properties": {
                "boundary": "patrimoine",
                "name": "Jaurès Yvonne"
            },
            "geometry": {
                "type": "LineString",
                "coordinates": [
                    [
                        2.47668295428,
                        48.89921871407
                    ],
                    [
                        2.47632253344,
                        48.89925651238
                    ],
                    [
                        2.47590640825,
                        48.89951972534
                    ],
                    [
                        2.47619400458,
                        48.90039190674
                    ],
                    [
                        2.47652707710,
                        48.90088606132
                    ],
                    [
                        2.47705615666,
                        48.90117651739
                    ],
                    [
                        2.47757512515,
                        48.90140800875
                    ],
                    [
                        2.47773605454,
                        48.90140980997
                    ],
                    [
                        2.47799930460,
                        48.90138134856
                    ],
                    [
                        2.47811385858,
                        48.90135471499
                    ],
                    [
                        2.47825626863,
                        48.90130491918
                    ],
                    [
                        2.47751066643,
                        48.89951851602
                    ],
                    [
                        2.47668295428,
                        48.89921871407
                    ]
                ]
            }
        }
    ]
}