{
"type": "FeatureCollection",
"name": "2_adresse",
"crs": { "type": "name", "properties": { "name": "urn:ogc:def:crs:OGC:1.3:CRS84" } },
"features": [
{ "type": "Feature", "properties": { "building.architecture": "Lotissements/maisons pavillonnaires", "building.architecture.niveau": " 2", "addr.housenumber": "4", "addr.street": "Allée des Arts" }, "geometry": { "type": "Point", "coordinates": [ 2.497281, 48.893518 ] } },
{ "type": "Feature", "properties": { "building.architecture": "Lotissements/maisons pavillonnaires", "building.architecture.niveau": " 2", "addr.housenumber": "5", "addr.street": "Allée des Arts" }, "geometry": { "type": "Point", "coordinates": [ 2.497311, 48.893316 ] } },
{ "type": "Feature", "properties": { "building.architecture": "Lotissements/maisons pavillonnaires", "building.architecture.niveau": " 2", "addr.housenumber": "6", "addr.street": "Allée des Arts" }, "geometry": { "type": "Point", "coordinates": [ 2.49723, 48.893407 ] } },
{ "type": "Feature", "properties": { "building.architecture": "Lotissements/maisons pavillonnaires", "building.architecture.niveau": " 2", "addr.housenumber": "8", "addr.street": "Allée des Arts" }, "geometry": { "type": "Point", "coordinates": [ 2.497169, 48.893277 ] } },
{ "type": "Feature", "properties": { "building.architecture": "Lotissements/maisons pavillonnaires", "building.architecture.niveau": " 2", "addr.housenumber": "4", "addr.street": "Allée des Courts Sillons" }, "geometry": { "type": "Point", "coordinates": [ 2.498064, 48.895748 ] } },
{ "type": "Feature", "properties": { "building.architecture": "Lotissements/maisons pavillonnaires", "building.architecture.niveau": " 2", "addr.housenumber": "52bis", "addr.street": "Avenue Anatole France" }, "geometry": { "type": "Point", "coordinates": [ 2.498613, 48.894119 ] } },
{ "type": "Feature", "properties": { "building.architecture": "Lotissements/maisons pavillonnaires", "building.architecture.niveau": " 2", "addr.housenumber": "10", "addr.street": "Avenue de l'Espérance" }, "geometry": { "type": "Point", "coordinates": [ 2.496979, 48.895543 ] } },
{ "type": "Feature", "properties": { "building.architecture": "Lotissements/maisons pavillonnaires", "building.architecture.niveau": " 2", "addr.housenumber": "21", "addr.street": "Avenue de l'Espérance" }, "geometry": { "type": "Point", "coordinates": [ 2.496866, 48.895188 ] } },
{ "type": "Feature", "properties": { "building.architecture": "Lotissements/maisons pavillonnaires", "building.architecture.niveau": " 2", "addr.housenumber": "25", "addr.street": "Avenue de l'Espérance" }, "geometry": { "type": "Point", "coordinates": [ 2.496771, 48.895021 ] } },
{ "type": "Feature", "properties": { "building.architecture": "Lotissements/maisons pavillonnaires", "building.architecture.niveau": " 2", "addr.housenumber": "38", "addr.street": "Avenue de l'Espérance" }, "geometry": { "type": "Point", "coordinates": [ 2.496249, 48.89426 ] } },
{ "type": "Feature", "properties": { "building.architecture": "Immeubles", "building.architecture.niveau": " 2", "addr.housenumber": "41", "addr.street": "Avenue de l'Espérance" }, "geometry": { "type": "Point", "coordinates": [ 2.496302, 48.894188 ] } },
{ "type": "Feature", "properties": { "building.architecture": "Immeubles", "building.architecture.niveau": " 2", "addr.housenumber": "14", "addr.street": "Avenue Dumesnil" }, "geometry": { "type": "Point", "coordinates": [ 2.497467, 48.894413 ] } },
{ "type": "Feature", "properties": { "building.architecture": "Lotissements/maisons pavillonnaires", "building.architecture.niveau": " 2", "addr.housenumber": "21", "addr.street": "Avenue Dumesnil" }, "geometry": { "type": "Point", "coordinates": [ 2.498255, 48.894345 ] } },
{ "type": "Feature", "properties": { "building.architecture": "Lotissements/maisons pavillonnaires", "building.architecture.niveau": " 2", "addr.housenumber": "23", "addr.street": "Avenue Dumesnil" }, "geometry": { "type": "Point", "coordinates": [ 2.498397, 48.894325 ] } },
{ "type": "Feature", "properties": { "building.architecture": "Lotissements/maisons pavillonnaires", "building.architecture.niveau": " 2", "addr.housenumber": "24", "addr.street": "Avenue Dumesnil" }, "geometry": { "type": "Point", "coordinates": [ 2.498142, 48.894318 ] } },
{ "type": "Feature", "properties": { "building.architecture": "Lotissements/maisons pavillonnaires", "building.architecture.niveau": " 2", "addr.housenumber": "23bis", "addr.street": "Avenue Dumesnil" }, "geometry": { "type": "Point", "coordinates": [ 2.498521, 48.894426 ] } },
{ "type": "Feature", "properties": { "building.architecture": "Lotissements/maisons pavillonnaires", "building.architecture.niveau": " 2", "addr.housenumber": "218", "addr.street": "Rue Edouard Vaillant" }, "geometry": { "type": "Point", "coordinates": [ 2.49618, 48.89394 ] } },
{ "type": "Feature", "properties": { "building.architecture": "Lotissements/maisons pavillonnaires", "building.architecture.niveau": " 2", "addr.housenumber": "220", "addr.street": "Rue Edouard Vaillant" }, "geometry": { "type": "Point", "coordinates": [ 2.496341, 48.893917 ] } },
{ "type": "Feature", "properties": { "building.architecture": "Lotissements/maisons pavillonnaires", "building.architecture.niveau": " 2", "addr.housenumber": "230", "addr.street": "Rue Edouard Vaillant" }, "geometry": { "type": "Point", "coordinates": [ 2.497681, 48.893735 ] } },
{ "type": "Feature", "properties": { "building.architecture": "Lotissements/maisons pavillonnaires", "building.architecture.niveau": " 2", "addr.housenumber": "239", "addr.street": "Rue Edouard Vaillant" }, "geometry": { "type": "Point", "coordinates": [ 2.496052, 48.894057 ] } },
{ "type": "Feature", "properties": { "building.architecture": "Lotissements/maisons pavillonnaires", "building.architecture.niveau": " 2", "addr.housenumber": "243", "addr.street": "Rue Edouard Vaillant" }, "geometry": { "type": "Point", "coordinates": [ 2.496504, 48.893993 ] } },
{ "type": "Feature", "properties": { "building.architecture": "Maisons de bourg", "building.architecture.niveau": " 2", "addr.housenumber": "245", "addr.street": "Rue Edouard Vaillant" }, "geometry": { "type": "Point", "coordinates": [ 2.496604, 48.893979 ] } },
{ "type": "Feature", "properties": { "building.architecture": "Lotissements\/maisons pavillonnaires", "building.architecture.niveau": " 2", "addr.housenumber": "4", "addr.street": "Allée des Arts" }, "geometry": { "type": "Point", "coordinates": [ 2.497281, 48.893518 ] } },
{ "type": "Feature", "properties": { "building.architecture": "Lotissements\/maisons pavillonnaires", "building.architecture.niveau": " 2", "addr.housenumber": "5", "addr.street": "Allée des Arts" }, "geometry": { "type": "Point", "coordinates": [ 2.497311, 48.893316 ] } },
{ "type": "Feature", "properties": { "building.architecture": "Lotissements\/maisons pavillonnaires", "building.architecture.niveau": " 2", "addr.housenumber": "6", "addr.street": "Allée des Arts" }, "geometry": { "type": "Point", "coordinates": [ 2.49723, 48.893407 ] } },
{ "type": "Feature", "properties": { "building.architecture": "Lotissements\/maisons pavillonnaires", "building.architecture.niveau": " 2", "addr.housenumber": "8", "addr.street": "Allée des Arts" }, "geometry": { "type": "Point", "coordinates": [ 2.497169, 48.893277 ] } },
{ "type": "Feature", "properties": { "building.architecture": "Lotissements\/maisons pavillonnaires", "building.architecture.niveau": " 2", "addr.housenumber": "4", "addr.street": "Allée des Courts Sillons" }, "geometry": { "type": "Point", "coordinates": [ 2.498064, 48.895748 ] } },
{ "type": "Feature", "properties": { "building.architecture": "Lotissements\/maisons pavillonnaires", "building.architecture.niveau": " 2", "addr.housenumber": "52bis", "addr.street": "Avenue Anatole France" }, "geometry": { "type": "Point", "coordinates": [ 2.498613, 48.894119 ] } },
{ "type": "Feature", "properties": { "building.architecture": "Lotissements\/maisons pavillonnaires", "building.architecture.niveau": " 2", "addr.housenumber": "10", "addr.street": "Avenue de l'Espérance" }, "geometry": { "type": "Point", "coordinates": [ 2.496979, 48.895543 ] } },
{ "type": "Feature", "properties": { "building.architecture": "Lotissements\/maisons pavillonnaires", "building.architecture.niveau": " 2", "addr.housenumber": "21", "addr.street": "Avenue de l'Espérance" }, "geometry": { "type": "Point", "coordinates": [ 2.496866, 48.895188 ] } },
{ "type": "Feature", "properties": { "building.architecture": "Lotissements\/maisons pavillonnaires", "building.architecture.niveau": " 2", "addr.housenumber": "25", "addr.street": "Avenue de l'Espérance" }, "geometry": { "type": "Point", "coordinates": [ 2.496771, 48.895021 ] } },
{ "type": "Feature", "properties": { "building.architecture": "Lotissements\/maisons pavillonnaires", "building.architecture.niveau": " 2", "addr.housenumber": "38", "addr.street": "Avenue de l'Espérance" }, "geometry": { "type": "Point", "coordinates": [ 2.496249, 48.89426 ] } },
{ "type": "Feature", "properties": { "building.architecture": "Immeubles", "building.architecture.niveau": " 2", "addr.housenumber": "41", "addr.street": "Avenue de l'Espérance" }, "geometry": { "type": "Point", "coordinates": [ 2.496302, 48.894188 ] } },
{ "type": "Feature", "properties": { "building.architecture": "Immeubles", "building.architecture.niveau": " 2", "addr.housenumber": "14", "addr.street": "Avenue Dumesnil" }, "geometry": { "type": "Point", "coordinates": [ 2.497467, 48.894413 ] } },
{ "type": "Feature", "properties": { "building.architecture": "Lotissements\/maisons pavillonnaires", "building.architecture.niveau": " 2", "addr.housenumber": "21", "addr.street": "Avenue Dumesnil" }, "geometry": { "type": "Point", "coordinates": [ 2.498255, 48.894345 ] } },
{ "type": "Feature", "properties": { "building.architecture": "Lotissements\/maisons pavillonnaires", "building.architecture.niveau": " 2", "addr.housenumber": "23", "addr.street": "Avenue Dumesnil" }, "geometry": { "type": "Point", "coordinates": [ 2.498397, 48.894325 ] } },
{ "type": "Feature", "properties": { "building.architecture": "Lotissements\/maisons pavillonnaires", "building.architecture.niveau": " 2", "addr.housenumber": "24", "addr.street": "Avenue Dumesnil" }, "geometry": { "type": "Point", "coordinates": [ 2.498142, 48.894318 ] } },
{ "type": "Feature", "properties": { "building.architecture": "Lotissements\/maisons pavillonnaires", "building.architecture.niveau": " 2", "addr.housenumber": "23bis", "addr.street": "Avenue Dumesnil" }, "geometry": { "type": "Point", "coordinates": [ 2.498521, 48.894426 ] } },
{ "type": "Feature", "properties": { "building.architecture": "Lotissements\/maisons pavillonnaires", "building.architecture.niveau": " 2", "addr.housenumber": "218", "addr.street": "Rue Edouard Vaillant" }, "geometry": { "type": "Point", "coordinates": [ 2.49618, 48.89394 ] } },
{ "type": "Feature", "properties": { "building.architecture": "Lotissements\/maisons pavillonnaires", "building.architecture.niveau": " 2", "addr.housenumber": "220", "addr.street": "Rue Edouard Vaillant" }, "geometry": { "type": "Point", "coordinates": [ 2.496341, 48.893917 ] } },
{ "type": "Feature", "properties": { "building.architecture": "Lotissements\/maisons pavillonnaires", "building.architecture.niveau": " 2", "addr.housenumber": "230", "addr.street": "Rue Edouard Vaillant" }, "geometry": { "type": "Point", "coordinates": [ 2.497681, 48.893735 ] } },
{ "type": "Feature", "properties": { "building.architecture": "Lotissements\/maisons pavillonnaires", "building.architecture.niveau": " 2", "addr.housenumber": "239", "addr.street": "Rue Edouard Vaillant" }, "geometry": { "type": "Point", "coordinates": [ 2.496052, 48.894057 ] } },
{ "type": "Feature", "properties": { "building.architecture": "Lotissements\/maisons pavillonnaires", "building.architecture.niveau": " 2", "addr.housenumber": "243", "addr.street": "Rue Edouard Vaillant" }, "geometry": { "type": "Point", "coordinates": [ 2.496504, 48.893993 ] } },
{ "type": "Feature", "properties": { "building.architecture": "Maisons de bourg", "building.architecture.niveau": " 2", "addr.housenumber": "245", "addr.street": "Rue Edouard Vaillant" }, "geometry": { "type": "Point", "coordinates": [ 2.496604, 48.893979 ] } },
{ "type": "Feature", "properties": { "building.architecture": "Lotissements\/maisons pavillonnaires", "building.architecture.niveau": " 2", "addr.housenumber": "4", "addr.street": "Allée des Arts" }, "geometry": { "type": "Point", "coordinates": [ 2.497281, 48.893518 ] } },
{ "type": "Feature", "properties": { "building.architecture": "Lotissements\/maisons pavillonnaires", "building.architecture.niveau": " 2", "addr.housenumber": "5", "addr.street": "Allée des Arts" }, "geometry": { "type": "Point", "coordinates": [ 2.497311, 48.893316 ] } },
{ "type": "Feature", "properties": { "building.architecture": "Lotissements\/maisons pavillonnaires", "building.architecture.niveau": " 2", "addr.housenumber": "6", "addr.street": "Allée des Arts" }, "geometry": { "type": "Point", "coordinates": [ 2.49723, 48.893407 ] } },
{ "type": "Feature", "properties": { "building.architecture": "Lotissements\/maisons pavillonnaires", "building.architecture.niveau": " 2", "addr.housenumber": "8", "addr.street": "Allée des Arts" }, "geometry": { "type": "Point", "coordinates": [ 2.497169, 48.893277 ] } },
{ "type": "Feature", "properties": { "building.architecture": "Lotissements\/maisons pavillonnaires", "building.architecture.niveau": " 2", "addr.housenumber": "4", "addr.street": "Allée des Courts Sillons" }, "geometry": { "type": "Point", "coordinates": [ 2.498064, 48.895748 ] } },
{ "type": "Feature", "properties": { "building.architecture": "Lotissements\/maisons pavillonnaires", "building.architecture.niveau": " 2", "addr.housenumber": "52bis", "addr.street": "Avenue Anatole France" }, "geometry": { "type": "Point", "coordinates": [ 2.498613, 48.894119 ] } },
{ "type": "Feature", "properties": { "building.architecture": "Lotissements\/maisons pavillonnaires", "building.architecture.niveau": " 2", "addr.housenumber": "10", "addr.street": "Avenue de l'Espérance" }, "geometry": { "type": "Point", "coordinates": [ 2.496979, 48.895543 ] } },
{ "type": "Feature", "properties": { "building.architecture": "Lotissements\/maisons pavillonnaires", "building.architecture.niveau": " 2", "addr.housenumber": "21", "addr.street": "Avenue de l'Espérance" }, "geometry": { "type": "Point", "coordinates": [ 2.496866, 48.895188 ] } },
{ "type": "Feature", "properties": { "building.architecture": "Lotissements\/maisons pavillonnaires", "building.architecture.niveau": " 2", "addr.housenumber": "25", "addr.street": "Avenue de l'Espérance" }, "geometry": { "type": "Point", "coordinates": [ 2.496771, 48.895021 ] } },
{ "type": "Feature", "properties": { "building.architecture": "Lotissements\/maisons pavillonnaires", "building.architecture.niveau": " 2", "addr.housenumber": "38", "addr.street": "Avenue de l'Espérance" }, "geometry": { "type": "Point", "coordinates": [ 2.496249, 48.89426 ] } },
{ "type": "Feature", "properties": { "building.architecture": "Immeubles", "building.architecture.niveau": " 2", "addr.housenumber": "41", "addr.street": "Avenue de l'Espérance" }, "geometry": { "type": "Point", "coordinates": [ 2.496302, 48.894188 ] } },
{ "type": "Feature", "properties": { "building.architecture": "Immeubles", "building.architecture.niveau": " 2", "addr.housenumber": "14", "addr.street": "Avenue Dumesnil" }, "geometry": { "type": "Point", "coordinates": [ 2.497467, 48.894413 ] } },
{ "type": "Feature", "properties": { "building.architecture": "Lotissements\/maisons pavillonnaires", "building.architecture.niveau": " 2", "addr.housenumber": "21", "addr.street": "Avenue Dumesnil" }, "geometry": { "type": "Point", "coordinates": [ 2.498255, 48.894345 ] } },
{ "type": "Feature", "properties": { "building.architecture": "Lotissements\/maisons pavillonnaires", "building.architecture.niveau": " 2", "addr.housenumber": "23", "addr.street": "Avenue Dumesnil" }, "geometry": { "type": "Point", "coordinates": [ 2.498397, 48.894325 ] } },
{ "type": "Feature", "properties": { "building.architecture": "Lotissements\/maisons pavillonnaires", "building.architecture.niveau": " 2", "addr.housenumber": "24", "addr.street": "Avenue Dumesnil" }, "geometry": { "type": "Point", "coordinates": [ 2.498142, 48.894318 ] } },
{ "type": "Feature", "properties": { "building.architecture": "Lotissements\/maisons pavillonnaires", "building.architecture.niveau": " 2", "addr.housenumber": "23bis", "addr.street": "Avenue Dumesnil" }, "geometry": { "type": "Point", "coordinates": [ 2.498521, 48.894426 ] } },
{ "type": "Feature", "properties": { "building.architecture": "Lotissements\/maisons pavillonnaires", "building.architecture.niveau": " 2", "addr.housenumber": "218", "addr.street": "Rue Edouard Vaillant" }, "geometry": { "type": "Point", "coordinates": [ 2.49618, 48.89394 ] } },
{ "type": "Feature", "properties": { "building.architecture": "Lotissements\/maisons pavillonnaires", "building.architecture.niveau": " 2", "addr.housenumber": "220", "addr.street": "Rue Edouard Vaillant" }, "geometry": { "type": "Point", "coordinates": [ 2.496341, 48.893917 ] } },
{ "type": "Feature", "properties": { "building.architecture": "Lotissements\/maisons pavillonnaires", "building.architecture.niveau": " 2", "addr.housenumber": "230", "addr.street": "Rue Edouard Vaillant" }, "geometry": { "type": "Point", "coordinates": [ 2.497681, 48.893735 ] } },
{ "type": "Feature", "properties": { "building.architecture": "Lotissements\/maisons pavillonnaires", "building.architecture.niveau": " 2", "addr.housenumber": "239", "addr.street": "Rue Edouard Vaillant" }, "geometry": { "type": "Point", "coordinates": [ 2.496052, 48.894057 ] } },
{ "type": "Feature", "properties": { "building.architecture": "Lotissements\/maisons pavillonnaires", "building.architecture.niveau": " 2", "addr.housenumber": "243", "addr.street": "Rue Edouard Vaillant" }, "geometry": { "type": "Point", "coordinates": [ 2.496504, 48.893993 ] } },
{ "type": "Feature", "properties": { "building.architecture": "Maisons de bourg", "building.architecture.niveau": " 2", "addr.housenumber": "245", "addr.street": "Rue Edouard Vaillant" }, "geometry": { "type": "Point", "coordinates": [ 2.496604, 48.893979 ] } }
]
}
