{
"type": "FeatureCollection",
"name": "2_bat",
"crs": { "type": "name", "properties": { "name": "urn:ogc:def:crs:OGC:1.3:CRS84" } },
"features": [
{ "type": "Feature", "properties": { "start_date": 1952, "construction_date.nb": 1, "historic.building": "yes" }, "geometry": { "type": "Polygon", "coordinates": [ [ [ 2.495937084076728, 48.894145178365868 ], [ 2.4959748, 48.89421 ], [ 2.495929111999402, 48.894221561306331 ], [ 2.495902992733845, 48.894183193225857 ], [ 2.495937084076728, 48.894145178365868 ] ] ] } },
{ "type": "Feature", "properties": { "start_date": 1925, "construction_date.nb": 1, "historic.building": "yes" }, "geometry": { "type": "Polygon", "coordinates": [ [ [ 2.4961261, 48.894158099999977 ], [ 2.4960456, 48.8941786 ], [ 2.4960166, 48.8941295 ], [ 2.4960966, 48.894108399999951 ], [ 2.4961261, 48.894158099999977 ] ] ] } },
{ "type": "Feature", "properties": { "start_date": 1925, "construction_date.nb": 1, "historic.building": "yes" }, "geometry": { "type": "Polygon", "coordinates": [ [ [ 2.4961981, 48.894280499999972 ], [ 2.4961222, 48.8943019 ], [ 2.4960912, 48.8942489 ], [ 2.4961672, 48.894227799999989 ], [ 2.4961981, 48.894280499999972 ] ] ] } },
{ "type": "Feature", "properties": { "start_date": 1934, "construction_date.nb": 1, "historic.building": "yes" }, "geometry": { "type": "Polygon", "coordinates": [ [ [ 2.496834790038155, 48.895551923414651 ], [ 2.4968872, 48.895538899999956 ], [ 2.496917577487051, 48.895590920235165 ], [ 2.496852685457735, 48.895578209441616 ], [ 2.496834790038155, 48.895551923414651 ] ] ] } },
{ "type": "Feature", "properties": { "start_date": 1912, "construction_date.nb": 1, "historic.building": "yes" }, "geometry": { "type": "Polygon", "coordinates": [ [ [ 2.4970752, 48.8951805 ], [ 2.4969719, 48.89520509999997 ], [ 2.4969513, 48.8951698 ], [ 2.4969671, 48.895165599999977 ], [ 2.4969529, 48.895139099999966 ], [ 2.4970795, 48.895108 ], [ 2.497113, 48.895167300000011 ], [ 2.4970732, 48.8951767 ], [ 2.4970752, 48.8951805 ] ] ] } },
{ "type": "Feature", "properties": { "start_date": 1919, "construction_date.nb": 1, "historic.building": "yes" }, "geometry": { "type": "Polygon", "coordinates": [ [ [ 2.496949916159737, 48.894929130004357 ], [ 2.4969848, 48.894993899999974 ], [ 2.4968821, 48.8950197 ], [ 2.4968688, 48.894994300000022 ], [ 2.4968578, 48.894997 ], [ 2.4968349, 48.894957 ], [ 2.496867967511136, 48.894948977548687 ], [ 2.49694985084522, 48.89492914656028 ], [ 2.496949916159737, 48.894929130004357 ] ] ] } },
{ "type": "Feature", "properties": { "start_date": 1920, "construction_date.nb": 1, "historic.building": "yes" }, "geometry": { "type": "Polygon", "coordinates": [ [ [ 2.496867967511136, 48.894948977548687 ], [ 2.4969499, 48.8949291 ], [ 2.496949916159737, 48.894929130004357 ], [ 2.49694985084522, 48.89492914656028 ], [ 2.496867967511136, 48.894948977548687 ] ] ] } },
{ "type": "Feature", "properties": { "start_date": 1890, "construction_date.nb": 1, "historic.building": "yes" }, "geometry": { "type": "Polygon", "coordinates": [ [ [ 2.499157137949489, 48.895820037862791 ], [ 2.499140330329238, 48.895790871391668 ], [ 2.499160704990099, 48.895785470824798 ], [ 2.499228536117782, 48.895766779099574 ], [ 2.499248963062157, 48.895801841329884 ], [ 2.499203321828974, 48.895811011076802 ], [ 2.499157137949489, 48.895820037862791 ] ] ] } },
{ "type": "Feature", "properties": { "start_date": 1925, "construction_date.nb": 1, "historic.building": "yes" }, "geometry": { "type": "Polygon", "coordinates": [ [ [ 2.499672972794318, 48.89571665282174 ], [ 2.499669940293601, 48.895710509716473 ], [ 2.499672972795818, 48.895716652821434 ], [ 2.499672972794318, 48.89571665282174 ] ] ] } },
{ "type": "Feature", "properties": { "start_date": 1910, "construction_date.nb": 1, "historic.building": "yes" }, "geometry": { "type": "Polygon", "coordinates": [ [ [ 2.499703974560652, 48.895419415909828 ], [ 2.499707303476085, 48.895451644494749 ], [ 2.499676788340088, 48.89546225871328 ], [ 2.499632324903922, 48.895405416591359 ], [ 2.499680626187193, 48.895387993306272 ], [ 2.499703974560652, 48.895419415909828 ] ] ] } },
{ "type": "Feature", "properties": { "start_date": 1909, "construction_date.nb": 2, "historic.building": "yes" }, "geometry": { "type": "MultiPolygon", "coordinates": [ [ [ [ 2.499586057176046, 48.89526072041037 ], [ 2.499500864692319, 48.895289576047681 ], [ 2.499500864674855, 48.895289576025462 ], [ 2.499586057164112, 48.895260720394319 ], [ 2.499586057176046, 48.89526072041037 ] ] ], [ [ [ 2.499652625479127, 48.895350309460255 ], [ 2.499579010763865, 48.895375426736564 ], [ 2.499518508555137, 48.89529864285997 ], [ 2.499594284880172, 48.895271793450505 ], [ 2.499652625479127, 48.895350309460255 ] ] ] ] } },
{ "type": "Feature", "properties": { "start_date": 1917, "construction_date.nb": 1, "historic.building": "yes" }, "geometry": { "type": "Polygon", "coordinates": [ [ [ 2.499586057164112, 48.895260720394319 ], [ 2.499500864674855, 48.895289576025462 ], [ 2.499449796478167, 48.895224612463004 ], [ 2.499537200269315, 48.895194967508829 ], [ 2.499586057164112, 48.895260720394319 ] ] ] } },
{ "type": "Feature", "properties": { "start_date": 1913, "construction_date.nb": 1, "historic.building": "yes" }, "geometry": { "type": "Polygon", "coordinates": [ [ [ 2.499519555999592, 48.895171221342075 ], [ 2.499420271641075, 48.895202905659296 ], [ 2.499376350859052, 48.89514642542639 ], [ 2.499472827672754, 48.895113104663601 ], [ 2.499492367731847, 48.895137737423212 ], [ 2.499494329128393, 48.895137270247822 ], [ 2.499519555999592, 48.895171221342075 ] ] ] } },
{ "type": "Feature", "properties": { "start_date": 1928, "construction_date.nb": 2, "historic.building": "yes" }, "geometry": { "type": "Polygon", "coordinates": [ [ [ 2.49881766927327, 48.894680855168673 ], [ 2.498949870259673, 48.894634374564198 ], [ 2.499012127443376, 48.894712874830269 ], [ 2.498878836120074, 48.894759261022436 ], [ 2.49881766927327, 48.894680855168673 ] ] ] } },
{ "type": "Feature", "properties": { "start_date": 1913, "construction_date.nb": 1, "historic.building": "yes" }, "geometry": { "type": "Polygon", "coordinates": [ [ [ 2.499062601469966, 48.894556229969837 ], [ 2.498975024151229, 48.894585827242686 ], [ 2.498933522959098, 48.89453313401183 ], [ 2.498913991180772, 48.894507691801316 ], [ 2.498995264334958, 48.894480962685165 ], [ 2.499030549007602, 48.894527694459633 ], [ 2.499039045246517, 48.894524526412887 ], [ 2.499062601469966, 48.894556229969837 ] ] ] } },
{ "type": "Feature", "properties": { "start_date": 1912, "construction_date.nb": 1, "historic.building": "yes" }, "geometry": { "type": "Polygon", "coordinates": [ [ [ 2.49893172806075, 48.894380091124482 ], [ 2.498896282232869, 48.894392056616759 ], [ 2.49889628222571, 48.894392056608375 ], [ 2.498896282240076, 48.894392056603763 ], [ 2.498931728056012, 48.894380091118109 ], [ 2.49893172806075, 48.894380091124482 ] ] ] } },
{ "type": "Feature", "properties": { "start_date": 1910, "construction_date.nb": 2, "historic.building": "yes" }, "geometry": { "type": "MultiPolygon", "coordinates": [ [ [ [ 2.498354484379869, 48.894370201938244 ], [ 2.498357250811274, 48.894378669617609 ], [ 2.4983849, 48.8944638 ], [ 2.4983067, 48.8944761 ], [ 2.4982978, 48.894449600000023 ], [ 2.4982863, 48.894451200000034 ], [ 2.4982645, 48.894384199999976 ], [ 2.4983408, 48.894371899999946 ], [ 2.498354484379869, 48.894370201938244 ] ] ], [ [ [ 2.498374521582075, 48.894431533089602 ], [ 2.49837660161354, 48.894437899774424 ], [ 2.4983766, 48.894437900000014 ], [ 2.498374521582075, 48.894431533089602 ] ] ] ] } },
{ "type": "Feature", "properties": { "start_date": 1932, "construction_date.nb": 2, "historic.building": "yes" }, "geometry": { "type": "MultiPolygon", "coordinates": [ [ [ [ 2.498357250811274, 48.894378669617609 ], [ 2.498354484379869, 48.894370201938244 ], [ 2.4983545, 48.894370199999969 ], [ 2.498357250811274, 48.894378669617609 ] ] ], [ [ [ 2.49837660161354, 48.894437899774424 ], [ 2.498374521582075, 48.894431533089602 ], [ 2.4983545, 48.894370199999969 ], [ 2.4984065, 48.8943637 ], [ 2.4984118, 48.8943816 ], [ 2.4984264, 48.8943801 ], [ 2.4984424, 48.8944287 ], [ 2.49837660161354, 48.894437899774424 ] ] ] ] } },
{ "type": "Feature", "properties": { "start_date": 1932, "construction_date.nb": 1, "historic.building": "yes" }, "geometry": { "type": "Polygon", "coordinates": [ [ [ 2.49853517800222, 48.894415203166595 ], [ 2.4984699, 48.8944246 ], [ 2.4984539, 48.89437589999995 ], [ 2.4984678, 48.894373899999984 ], [ 2.4984635, 48.8943562 ], [ 2.498515497816446, 48.894348300331714 ], [ 2.498516401962027, 48.894351300647784 ], [ 2.4985308, 48.894399199999988 ], [ 2.498533363793813, 48.894408522887836 ], [ 2.498535170969953, 48.894415186053337 ], [ 2.49853517800222, 48.894415203166595 ] ] ] } },
{ "type": "Feature", "properties": { "start_date": 1920, "construction_date.nb": 1, "historic.building": "yes" }, "geometry": { "type": "MultiPolygon", "coordinates": [ [ [ [ 2.498516401962027, 48.894351300647784 ], [ 2.498515497816446, 48.894348300331714 ], [ 2.4985155, 48.8943483 ], [ 2.498516401962027, 48.894351300647784 ] ] ], [ [ [ 2.498535170969953, 48.894415186053337 ], [ 2.498533363793813, 48.894408522887836 ], [ 2.4985352, 48.8944152 ], [ 2.49853517800222, 48.894415203166595 ], [ 2.498535170969953, 48.894415186053337 ] ] ] ] } },
{ "type": "Feature", "properties": { "start_date": 1906, "construction_date.nb": 1, "historic.building": "yes" }, "geometry": { "type": "Polygon", "coordinates": [ [ [ 2.498931728056012, 48.894380091118109 ], [ 2.498896282240076, 48.894392056603763 ], [ 2.49889628222571, 48.894392056608375 ], [ 2.498893045381198, 48.894388265960004 ], [ 2.498858278777772, 48.89434441412412 ], [ 2.498841441914704, 48.894322400521261 ], [ 2.498879068803818, 48.894309218117776 ], [ 2.498931728056012, 48.894380091118109 ] ] ] } },
{ "type": "Feature", "properties": { "start_date": 1930, "construction_date.nb": 1, "historic.building": "yes" }, "geometry": { "type": "Polygon", "coordinates": [ [ [ 2.4981943, 48.89428189999996 ], [ 2.4981093, 48.8942928 ], [ 2.4980875, 48.8942224 ], [ 2.4981743, 48.894210399999977 ], [ 2.4981943, 48.89428189999996 ] ] ] } },
{ "type": "Feature", "properties": { "start_date": 1920, "construction_date.nb": 1, "historic.building": "yes" }, "geometry": { "type": "Polygon", "coordinates": [ [ [ 2.497488148362394, 48.894310307442744 ], [ 2.4974882, 48.894310299999972 ], [ 2.4975043, 48.894361099999962 ], [ 2.497504495427231, 48.894361728335944 ], [ 2.497504309374538, 48.894361133174172 ], [ 2.497488159977259, 48.89431034441818 ], [ 2.497488148362394, 48.894310307442744 ] ] ] } },
{ "type": "Feature", "properties": { "start_date": 1926, "construction_date.nb": 1, "historic.building": "yes" }, "geometry": { "type": "Polygon", "coordinates": [ [ [ 2.497504495427231, 48.894361728335944 ], [ 2.4975122, 48.8943865 ], [ 2.497377727616133, 48.894405596078329 ], [ 2.497377719530789, 48.894405567342787 ], [ 2.497368135810143, 48.894376145371922 ], [ 2.4973526, 48.8943283 ], [ 2.4973838, 48.894325 ], [ 2.4973809, 48.894314899999955 ], [ 2.4973962, 48.894313399999987 ], [ 2.4973987, 48.894323199999988 ], [ 2.497488148362394, 48.894310307442744 ], [ 2.497488159977259, 48.89431034441818 ], [ 2.497504309374538, 48.894361133174172 ], [ 2.497504495427231, 48.894361728335944 ] ] ] } },
{ "type": "Feature", "properties": { "start_date": 1925, "construction_date.nb": 1, "historic.building": "yes" }, "geometry": { "type": "Polygon", "coordinates": [ [ [ 2.497377727616133, 48.894405596078329 ], [ 2.4973777, 48.894405599999978 ], [ 2.497368135810143, 48.894376145371922 ], [ 2.497377719530789, 48.894405567342787 ], [ 2.497377727616133, 48.894405596078329 ] ] ] } },
{ "type": "Feature", "properties": { "start_date": 1920, "construction_date.nb": 1, "historic.building": "yes" }, "geometry": { "type": "Polygon", "coordinates": [ [ [ 2.496442895924519, 48.89408250063903 ], [ 2.4964091, 48.894087799999987 ], [ 2.4964043, 48.894092 ], [ 2.4964061, 48.8940963 ], [ 2.4964155, 48.894096399999988 ], [ 2.4964247, 48.89412549999998 ], [ 2.4964213, 48.894128 ], [ 2.4964503, 48.894175799999978 ], [ 2.4964369, 48.8941784 ], [ 2.4964627, 48.894224399999985 ], [ 2.4963729, 48.894239 ], [ 2.4962737, 48.894059300000016 ], [ 2.49629439053614, 48.894034011566916 ], [ 2.496294420219714, 48.894034007885793 ], [ 2.496423602687816, 48.894015309358579 ], [ 2.496439866507483, 48.894071937799652 ], [ 2.496442888565872, 48.894082475502309 ], [ 2.496442895924519, 48.89408250063903 ] ] ] } },
{ "type": "Feature", "properties": { "start_date": 1936, "construction_date.nb": 3, "historic.building": "yes" }, "geometry": { "type": "MultiPolygon", "coordinates": [ [ [ [ 2.496554201675463, 48.893997099766494 ], [ 2.496556011234411, 48.894003309954705 ], [ 2.4965542, 48.893997099999979 ], [ 2.496554201675463, 48.893997099766494 ] ] ], [ [ [ 2.496442895924519, 48.89408250063903 ], [ 2.496442888565872, 48.894082475502309 ], [ 2.496439866507483, 48.894071937799652 ], [ 2.4964429, 48.894082499999975 ], [ 2.496442895924519, 48.89408250063903 ] ] ], [ [ [ 2.4965734, 48.8941075 ], [ 2.4964916, 48.8941179 ], [ 2.4964712, 48.8940496 ], [ 2.4965526, 48.8940385 ], [ 2.4965734, 48.8941075 ] ] ] ] } },
{ "type": "Feature", "properties": { "start_date": 1918, "construction_date.nb": 2, "historic.building": "yes" }, "geometry": { "type": "Polygon", "coordinates": [ [ [ 2.498784795996063, 48.894182337730378 ], [ 2.49869939235088, 48.894201928190846 ], [ 2.498695648940296, 48.894194088512918 ], [ 2.498683211138066, 48.894196824314214 ], [ 2.498675696561556, 48.894184022693572 ], [ 2.498686777467532, 48.894180561749579 ], [ 2.498669438476474, 48.894154049509005 ], [ 2.498667252003418, 48.894154490002968 ], [ 2.498667252002216, 48.894154490001412 ], [ 2.498669438473222, 48.894154049501417 ], [ 2.49874938076908, 48.894134672710223 ], [ 2.498784795996063, 48.894182337730378 ] ] ] } },
{ "type": "Feature", "properties": { "start_date": 1913, "construction_date.nb": 1, "historic.building": "yes" }, "geometry": { "type": "Polygon", "coordinates": [ [ [ 2.49874938076908, 48.894134672710223 ], [ 2.498669438473222, 48.894154049501417 ], [ 2.498667252002216, 48.894154490001412 ], [ 2.498640173085223, 48.894119663326443 ], [ 2.498718697480498, 48.894093376279116 ], [ 2.49874938076908, 48.894134672710223 ] ] ] } },
{ "type": "Feature", "properties": { "start_date": 1910, "construction_date.nb": 1, "historic.building": "yes" }, "geometry": { "type": "Polygon", "coordinates": [ [ [ 2.498527196192355, 48.893883751302639 ], [ 2.498579637879578, 48.893947462095092 ], [ 2.498500536220106, 48.893975369144023 ], [ 2.498449875345136, 48.893910856431965 ], [ 2.498527196192355, 48.893883751302639 ] ] ] } },
{ "type": "Feature", "properties": { "start_date": 1925, "construction_date.nb": 1, "historic.building": "yes" }, "geometry": { "type": "Polygon", "coordinates": [ [ [ 2.498395143835592, 48.893773392667136 ], [ 2.49845876215125, 48.893851988907471 ], [ 2.498359555014895, 48.893885747129211 ], [ 2.498297315402207, 48.893805627771556 ], [ 2.498395143835592, 48.893773392667136 ] ] ] } },
{ "type": "Feature", "properties": { "start_date": 1920, "construction_date.nb": 1, "historic.building": "yes" }, "geometry": { "type": "Polygon", "coordinates": [ [ [ 2.499672972795818, 48.895716652821434 ], [ 2.499669940293601, 48.895710509716473 ], [ 2.499653178753999, 48.895676554906679 ], [ 2.499728780949334, 48.895659575651734 ], [ 2.499733062899657, 48.895701030548338 ], [ 2.49972630756085, 48.895702670521352 ], [ 2.499727817935924, 48.8957056336574 ], [ 2.499672972795818, 48.895716652821434 ] ] ] } },
{ "type": "Feature", "properties": { "start_date": 1920, "construction_date.nb": 1, "historic.building": "yes" }, "geometry": { "type": "Polygon", "coordinates": [ [ [ 2.497877844563366, 48.895779008533488 ], [ 2.497863, 48.8957529 ], [ 2.4979187, 48.895739099999986 ], [ 2.4979332, 48.895765799999978 ], [ 2.4979503, 48.8957611 ], [ 2.4979555, 48.895770400000011 ], [ 2.4979672, 48.8957674 ], [ 2.497979730822327, 48.89578942583254 ], [ 2.497914806223613, 48.895786248056503 ], [ 2.497877844563366, 48.895779008533488 ] ] ] } },
{ "type": "Feature", "properties": { "start_date": 1910, "construction_date.nb": 1, "historic.building": "yes" }, "geometry": { "type": "Polygon", "coordinates": [ [ [ 2.496554201675463, 48.893997099766494 ], [ 2.496627432028061, 48.893986894630544 ], [ 2.4966493, 48.894059299999981 ], [ 2.4965752, 48.89406910000001 ], [ 2.496556011234411, 48.894003309954705 ], [ 2.496554201675463, 48.893997099766494 ] ] ] } },
{ "type": "Feature", "properties": { "start_date": 1912, "construction_date.nb": 1, "historic.building": "yes" }, "geometry": { "type": "Polygon", "coordinates": [ [ [ 2.499211045039736, 48.894756014319157 ], [ 2.499128336793506, 48.894783327073078 ], [ 2.499082682589182, 48.894722792565574 ], [ 2.499165110163432, 48.894694192570725 ], [ 2.499211045039736, 48.894756014319157 ] ] ] } },
{ "type": "Feature", "properties": { "start_date": 1927, "construction_date.nb": 1, "historic.building": "yes" }, "geometry": { "type": "Polygon", "coordinates": [ [ [ 2.498964796572203, 48.895837635985366 ], [ 2.498962468467892, 48.895833833717006 ], [ 2.498956705015459, 48.895823287693943 ], [ 2.499096044764083, 48.895786459415838 ], [ 2.499119040453242, 48.895827484123139 ], [ 2.499046614806358, 48.895841639874163 ], [ 2.498964796572203, 48.895837635985366 ] ] ] } },
{ "type": "Feature", "properties": { "start_date": 1995, "construction_date.nb": 1, "historic.building": "yes" }, "geometry": { "type": "Polygon", "coordinates": [ [ [ 2.499157137946799, 48.895820037863309 ], [ 2.499140330327527, 48.895790871392116 ], [ 2.499140330329238, 48.895790871391668 ], [ 2.499157137949489, 48.895820037862791 ], [ 2.499157137946799, 48.895820037863309 ] ] ] } },
{ "type": "Feature", "properties": { "start_date": 1995, "construction_date.nb": 1, "historic.building": "yes" }, "geometry": { "type": "Polygon", "coordinates": [ [ [ 2.499119040453242, 48.895827484123139 ], [ 2.499096044764083, 48.895786459415838 ], [ 2.499096044768014, 48.895786459414794 ], [ 2.499119040461386, 48.895827484121547 ], [ 2.499119040453242, 48.895827484123139 ] ] ] } },
{ "type": "Feature", "properties": { "start_date": 1933, "construction_date.nb": 1, "historic.building": "yes" }, "geometry": { "type": "Polygon", "coordinates": [ [ [ 2.499263205723506, 48.895798979842795 ], [ 2.499244082647933, 48.895767023972788 ], [ 2.499267191933789, 48.895760915394163 ], [ 2.49932871974067, 48.895745254901556 ], [ 2.499349702194777, 48.895781601828475 ], [ 2.499263205723506, 48.895798979842795 ] ] ] } },
{ "type": "Feature", "properties": { "start_date": 1922, "construction_date.nb": 1, "historic.building": "yes" }, "geometry": { "type": "Polygon", "coordinates": [ [ [ 2.496214550382921, 48.893835776390659 ], [ 2.4962283, 48.89387719999997 ], [ 2.496170513559556, 48.893884882040958 ], [ 2.496214550382921, 48.893835776390659 ] ] ] } },
{ "type": "Feature", "properties": { "start_date": 1925, "construction_date.nb": 1, "historic.building": "yes" }, "geometry": { "type": "Polygon", "coordinates": [ [ [ 2.4963881, 48.893855100000025 ], [ 2.4962717, 48.893869799999983 ], [ 2.496248988931005, 48.89379896076467 ], [ 2.4963637, 48.893782100000017 ], [ 2.4963881, 48.893855100000025 ] ] ] } },
{ "type": "Feature", "properties": { "start_date": 1906, "construction_date.nb": 1, "historic.building": "yes" }, "geometry": { "type": "Polygon", "coordinates": [ [ [ 2.497082558190187, 48.893263195236628 ], [ 2.497110896967977, 48.893322758593008 ], [ 2.497107207701789, 48.893323462529601 ], [ 2.497124018366293, 48.893362203447033 ], [ 2.49704299615804, 48.893377151408764 ], [ 2.497021122056807, 48.893340187872532 ], [ 2.496994025579831, 48.893279100904444 ], [ 2.49699757756445, 48.893278486310486 ], [ 2.497066434738007, 48.893266275090802 ], [ 2.497082558190187, 48.893263195236628 ] ] ] } },
{ "type": "Feature", "properties": { "start_date": 1910, "construction_date.nb": 1, "historic.building": "yes" }, "geometry": { "type": "Polygon", "coordinates": [ [ [ 2.49713720140416, 48.89336702513387 ], [ 2.497176850509463, 48.893455863508372 ], [ 2.49711154168556, 48.893467819875546 ], [ 2.497101273030841, 48.893443675265985 ], [ 2.49707832433222, 48.893447355972114 ], [ 2.497048800649382, 48.893383381042774 ], [ 2.49713720140416, 48.89336702513387 ] ] ] } },
{ "type": "Feature", "properties": { "start_date": 1938, "construction_date.nb": 1, "historic.building": "yes" }, "geometry": { "type": "Polygon", "coordinates": [ [ [ 2.49721848287147, 48.893508827743325 ], [ 2.497250260237855, 48.893579556901315 ], [ 2.497100358428793, 48.893608964402006 ], [ 2.497088774589759, 48.893579778163087 ], [ 2.49711843038269, 48.893573607532389 ], [ 2.497105904897577, 48.893543068362561 ], [ 2.497123806631273, 48.893539456373361 ], [ 2.497120494350622, 48.89352937017815 ], [ 2.49721848287147, 48.893508827743325 ] ] ] } },
{ "type": "Feature", "properties": { "start_date": 1900, "construction_date.nb": 1, "historic.building": "yes" }, "geometry": { "type": "Polygon", "coordinates": [ [ [ 2.49746951570988, 48.89326041308216 ], [ 2.497485437050509, 48.893292405399002 ], [ 2.497455642446398, 48.893298845320601 ], [ 2.497475556238492, 48.893341106476932 ], [ 2.497443029667636, 48.89334798457849 ], [ 2.497390692914025, 48.893358376777712 ], [ 2.49737752275118, 48.893323967892776 ], [ 2.497397061774957, 48.893320272818649 ], [ 2.497379867019457, 48.893278922356089 ], [ 2.497439182578836, 48.893266131310355 ], [ 2.49746951570988, 48.89326041308216 ] ] ] } },
{ "type": "Feature", "properties": { "start_date": 1905, "construction_date.nb": 1, "historic.building": "yes" }, "geometry": { "type": "Polygon", "coordinates": [ [ [ 2.497259145885832, 48.892871208284234 ], [ 2.49725914588605, 48.89287120828466 ], [ 2.497182466948664, 48.892888422886365 ], [ 2.497137532952129, 48.892899114624846 ], [ 2.497182466920564, 48.892888422886919 ], [ 2.497259145849559, 48.892871208292043 ], [ 2.497259145885832, 48.892871208284234 ] ] ] } },
{ "type": "Feature", "properties": { "start_date": 1908, "construction_date.nb": 1, "historic.building": "yes" }, "geometry": { "type": "Polygon", "coordinates": [ [ [ 2.497902332441616, 48.893593624007188 ], [ 2.497931617473227, 48.893654180325122 ], [ 2.497852077047635, 48.893671023652722 ], [ 2.49782265660677, 48.893610376763661 ], [ 2.497856410737222, 48.893603503707538 ], [ 2.497902332441616, 48.893593624007188 ] ] ] } },
{ "type": "Feature", "properties": { "start_date": 1912, "construction_date.nb": 1, "historic.building": "yes" }, "geometry": { "type": "Polygon", "coordinates": [ [ [ 2.498031605281079, 48.893567726250076 ], [ 2.498058992369322, 48.893627105505082 ], [ 2.497979587571025, 48.893644039401778 ], [ 2.497952706167144, 48.893588799061959 ], [ 2.497955849082451, 48.893588182724791 ], [ 2.497954252341995, 48.893584039217806 ], [ 2.498031605281079, 48.893567726250076 ] ] ] } },
{ "type": "Feature", "properties": { "start_date": 1915, "construction_date.nb": 2, "historic.building": "yes" }, "geometry": { "type": "MultiPolygon", "coordinates": [ [ [ [ 2.498091690003929, 48.893390274640709 ], [ 2.498091690025122, 48.893390274633191 ], [ 2.49809169003818, 48.893390274649832 ], [ 2.498004658831725, 48.893420216554702 ], [ 2.498004658826566, 48.89342021654813 ], [ 2.498091690003929, 48.893390274640709 ] ] ], [ [ [ 2.498145421412036, 48.893532320875579 ], [ 2.498243135650769, 48.893497747222277 ], [ 2.498295673967038, 48.893565505432093 ], [ 2.49819714917389, 48.89359926635067 ], [ 2.498145421412036, 48.893532320875579 ] ] ] ] } },
{ "type": "Feature", "properties": { "start_date": 1910, "construction_date.nb": 1, "historic.building": "yes" }, "geometry": { "type": "Polygon", "coordinates": [ [ [ 2.498004658826566, 48.89342021654813 ], [ 2.497983775396828, 48.89339359938559 ], [ 2.497962225639604, 48.893365360693657 ], [ 2.49793273261412, 48.893326386893847 ], [ 2.498028668375599, 48.893292345517104 ], [ 2.498055092298133, 48.893324291829821 ], [ 2.498043590318019, 48.893329009945397 ], [ 2.498091690025122, 48.893390274633191 ], [ 2.498091690003929, 48.893390274640709 ], [ 2.498004658826566, 48.89342021654813 ] ] ] } },
{ "type": "Feature", "properties": { "start_date": 1901, "construction_date.nb": 1, "historic.building": "yes" }, "geometry": { "type": "Polygon", "coordinates": [ [ [ 2.497960891756411, 48.893135941304351 ], [ 2.498046034905599, 48.893245204580545 ], [ 2.497944773371823, 48.893279943073566 ], [ 2.497860449553027, 48.893170593248016 ], [ 2.497960891756411, 48.893135941304351 ] ] ] } },
{ "type": "Feature", "properties": { "start_date": 1988, "construction_date.nb": 1, "historic.building": "yes" }, "geometry": { "type": "Polygon", "coordinates": [ [ [ 2.497917238346056, 48.893080360832421 ], [ 2.497942689216992, 48.893114191638318 ], [ 2.497842657957956, 48.893148665424526 ], [ 2.49780320127614, 48.893096340028578 ], [ 2.497884621349529, 48.893068353192795 ], [ 2.497893103855567, 48.893065600922682 ], [ 2.49790698026558, 48.893083375475669 ], [ 2.497917238346056, 48.893080360832421 ] ] ] } },
{ "type": "Feature", "properties": { "start_date": 1925, "construction_date.nb": 1, "historic.building": "yes" }, "geometry": { "type": "Polygon", "coordinates": [ [ [ 2.497917238346056, 48.893080360832421 ], [ 2.497942689216992, 48.893114191638318 ], [ 2.497842657957956, 48.893148665424526 ], [ 2.49780320127614, 48.893096340028578 ], [ 2.497884621349529, 48.893068353192795 ], [ 2.497893103855567, 48.893065600922682 ], [ 2.49790698026558, 48.893083375475669 ], [ 2.497917238346056, 48.893080360832421 ] ] ] } },
{ "type": "Feature", "properties": { "start_date": 1920, "construction_date.nb": 2, "historic.building": "yes" }, "geometry": { "type": "Polygon", "coordinates": [ [ [ 2.497883349685699, 48.892969057976543 ], [ 2.49786050078176, 48.892974447157009 ], [ 2.4977829, 48.892992700000015 ], [ 2.497748713095408, 48.892999776589583 ], [ 2.497748623132328, 48.8929997950816 ], [ 2.497748618565482, 48.892999796157 ], [ 2.4977486, 48.8929998 ], [ 2.4977309, 48.8929608 ], [ 2.497762, 48.892953299999988 ], [ 2.4977703, 48.892969499999978 ], [ 2.4978358, 48.892955399999956 ], [ 2.4978304, 48.892945199999986 ], [ 2.497815, 48.8929481 ], [ 2.4978106, 48.892939399999975 ], [ 2.4978252, 48.892936099999957 ], [ 2.4978083, 48.892903699999955 ], [ 2.4977192, 48.892924500000021 ], [ 2.4977021, 48.8928911 ], [ 2.497702075867134, 48.892891052581049 ], [ 2.497733748080659, 48.892883660905895 ], [ 2.497790651004671, 48.892870380849949 ], [ 2.497807146525587, 48.892866491163524 ], [ 2.497883349685699, 48.892969057976543 ] ] ] } },
{ "type": "Feature", "properties": { "start_date": 1928, "construction_date.nb": 3, "historic.building": "yes" }, "geometry": { "type": "Polygon", "coordinates": [ [ [ 2.497807146525587, 48.892866491163524 ], [ 2.497790651004671, 48.892870380849949 ], [ 2.497733748080659, 48.892883660905895 ], [ 2.497702075867134, 48.892891052581049 ], [ 2.4976907, 48.8928687 ], [ 2.4977355, 48.8928589 ], [ 2.4977314, 48.8928505 ], [ 2.4977598, 48.892843 ], [ 2.4977276, 48.892775499999985 ], [ 2.4977108, 48.89278 ], [ 2.4977213, 48.892802200000013 ], [ 2.4975248, 48.8928454 ], [ 2.4975098, 48.892815 ], [ 2.497549134628006, 48.892805886831042 ], [ 2.497560259910663, 48.892803315158567 ], [ 2.497619033698592, 48.892790610328518 ], [ 2.4976774, 48.892778 ], [ 2.497678896461768, 48.892777590811328 ], [ 2.497690240635431, 48.892774542960055 ], [ 2.497731851759554, 48.892765146554808 ], [ 2.497807146525587, 48.892866491163524 ] ] ] } },
{ "type": "Feature", "properties": { "start_date": 1913, "construction_date.nb": 1, "historic.building": "yes" }, "geometry": { "type": "Polygon", "coordinates": [ [ [ 2.497170568572515, 48.892794885522285 ], [ 2.497180178694172, 48.892814669885098 ], [ 2.497167589151245, 48.892819023654276 ], [ 2.497180689561328, 48.89284650759852 ], [ 2.497239875213962, 48.892832996672887 ], [ 2.49724107151786, 48.892835368813003 ], [ 2.497259145849559, 48.892871208292043 ], [ 2.497182466920564, 48.892888422886919 ], [ 2.497137532952129, 48.892899114624846 ], [ 2.497120815016519, 48.892903092538326 ], [ 2.49712028808015, 48.892901953820079 ], [ 2.497097030932406, 48.892851694679337 ], [ 2.49714128683604, 48.89280234233707 ], [ 2.497170568572515, 48.892794885522285 ] ] ] } },
{ "type": "Feature", "properties": { "start_date": 1985, "construction_date.nb": 2, "historic.building": "yes" }, "geometry": { "type": "MultiPolygon", "coordinates": [ [ [ [ 2.497560257167087, 48.892803309923657 ], [ 2.497560259910663, 48.892803315158567 ], [ 2.497549134628006, 48.892805886831042 ], [ 2.497560257167087, 48.892803309923657 ] ] ], [ [ [ 2.497259145885832, 48.892871208284234 ], [ 2.497259145849559, 48.892871208292043 ], [ 2.49724107151786, 48.892835368813003 ], [ 2.497259145885832, 48.892871208284234 ] ] ] ] } },
{ "type": "Feature", "properties": { "start_date": 1913, "construction_date.nb": 2, "historic.building": "yes" }, "geometry": { "type": "MultiPolygon", "coordinates": [ [ [ [ 2.497731851759554, 48.892765146554808 ], [ 2.497690240635431, 48.892774542960055 ], [ 2.497678896461768, 48.892777590811328 ], [ 2.4976902, 48.892774500000051 ], [ 2.4976738, 48.892743300000035 ], [ 2.4976843, 48.8927412 ], [ 2.4976693, 48.892712 ], [ 2.4976563, 48.892715099999947 ], [ 2.4976522, 48.892704200000011 ], [ 2.4976633, 48.892701099999982 ], [ 2.497651, 48.892680899999959 ], [ 2.4975621, 48.892702300000018 ], [ 2.4975643, 48.892707899999984 ], [ 2.4975157, 48.892719399999976 ], [ 2.497510022403997, 48.892708440343277 ], [ 2.497661131413302, 48.892669958565882 ], [ 2.497731851759554, 48.892765146554808 ] ] ], [ [ [ 2.497619033698592, 48.892790610328518 ], [ 2.497560259910663, 48.892803315158567 ], [ 2.497560257167087, 48.892803309923657 ], [ 2.4975603, 48.8928033 ], [ 2.497619033698592, 48.892790610328518 ] ] ] ] } },
{ "type": "Feature", "properties": { "start_date": 1905, "construction_date.nb": 1, "historic.building": "yes" }, "geometry": { "type": "Polygon", "coordinates": [ [ [ 2.497484274433121, 48.893681351682019 ], [ 2.497535101726156, 48.893671942355596 ], [ 2.497511639892945, 48.893615727019032 ], [ 2.497587764703922, 48.893599499134481 ], [ 2.497611647024253, 48.893654547109477 ], [ 2.497632459406805, 48.893702657515981 ], [ 2.497609505425268, 48.893706877898857 ], [ 2.497622533401168, 48.893741915654481 ], [ 2.497622533390551, 48.893741915655923 ], [ 2.497542501001447, 48.89375318096608 ], [ 2.497509243383349, 48.89373685385997 ], [ 2.497484274433121, 48.893681351682019 ] ] ] } },
{ "type": "Feature", "properties": { "start_date": 1952, "construction_date.nb": 1, "historic.building": "yes" }, "geometry": { "type": "Polygon", "coordinates": [ [ [ 2.495937084076728, 48.894145178365868 ], [ 2.4959748, 48.89421 ], [ 2.495929111999402, 48.894221561306331 ], [ 2.495902992733845, 48.894183193225857 ], [ 2.495937084076728, 48.894145178365868 ] ] ] } },
{ "type": "Feature", "properties": { "start_date": 1925, "construction_date.nb": 1, "historic.building": "yes" }, "geometry": { "type": "Polygon", "coordinates": [ [ [ 2.4961261, 48.894158099999977 ], [ 2.4960456, 48.8941786 ], [ 2.4960166, 48.8941295 ], [ 2.4960966, 48.894108399999951 ], [ 2.4961261, 48.894158099999977 ] ] ] } },
{ "type": "Feature", "properties": { "start_date": 1925, "construction_date.nb": 1, "historic.building": "yes" }, "geometry": { "type": "Polygon", "coordinates": [ [ [ 2.4961981, 48.894280499999972 ], [ 2.4961222, 48.8943019 ], [ 2.4960912, 48.8942489 ], [ 2.4961672, 48.894227799999989 ], [ 2.4961981, 48.894280499999972 ] ] ] } },
{ "type": "Feature", "properties": { "start_date": 1934, "construction_date.nb": 1, "historic.building": "yes" }, "geometry": { "type": "Polygon", "coordinates": [ [ [ 2.496834790038155, 48.895551923414651 ], [ 2.4968872, 48.895538899999956 ], [ 2.496917577487051, 48.895590920235165 ], [ 2.496852685457735, 48.895578209441616 ], [ 2.496834790038155, 48.895551923414651 ] ] ] } },
{ "type": "Feature", "properties": { "start_date": 1912, "construction_date.nb": 1, "historic.building": "yes" }, "geometry": { "type": "Polygon", "coordinates": [ [ [ 2.4970752, 48.8951805 ], [ 2.4969719, 48.89520509999997 ], [ 2.4969513, 48.8951698 ], [ 2.4969671, 48.895165599999977 ], [ 2.4969529, 48.895139099999966 ], [ 2.4970795, 48.895108 ], [ 2.497113, 48.895167300000011 ], [ 2.4970732, 48.8951767 ], [ 2.4970752, 48.8951805 ] ] ] } },
{ "type": "Feature", "properties": { "start_date": 1919, "construction_date.nb": 1, "historic.building": "yes" }, "geometry": { "type": "Polygon", "coordinates": [ [ [ 2.496949916159737, 48.894929130004357 ], [ 2.4969848, 48.894993899999974 ], [ 2.4968821, 48.8950197 ], [ 2.4968688, 48.894994300000022 ], [ 2.4968578, 48.894997 ], [ 2.4968349, 48.894957 ], [ 2.496867967511136, 48.894948977548687 ], [ 2.49694985084522, 48.89492914656028 ], [ 2.496949916159737, 48.894929130004357 ] ] ] } },
{ "type": "Feature", "properties": { "start_date": 1920, "construction_date.nb": 1, "historic.building": "yes" }, "geometry": { "type": "Polygon", "coordinates": [ [ [ 2.496867967511136, 48.894948977548687 ], [ 2.4969499, 48.8949291 ], [ 2.496949916159737, 48.894929130004357 ], [ 2.49694985084522, 48.89492914656028 ], [ 2.496867967511136, 48.894948977548687 ] ] ] } },
{ "type": "Feature", "properties": { "start_date": 1890, "construction_date.nb": 1, "historic.building": "yes" }, "geometry": { "type": "Polygon", "coordinates": [ [ [ 2.499157137949489, 48.895820037862791 ], [ 2.499140330329238, 48.895790871391668 ], [ 2.499160704990099, 48.895785470824798 ], [ 2.499228536117782, 48.895766779099574 ], [ 2.499248963062157, 48.895801841329884 ], [ 2.499203321828974, 48.895811011076802 ], [ 2.499157137949489, 48.895820037862791 ] ] ] } },
{ "type": "Feature", "properties": { "start_date": 1925, "construction_date.nb": 1, "historic.building": "yes" }, "geometry": { "type": "Polygon", "coordinates": [ [ [ 2.499672972794318, 48.89571665282174 ], [ 2.499669940293601, 48.895710509716473 ], [ 2.499672972795818, 48.895716652821434 ], [ 2.499672972794318, 48.89571665282174 ] ] ] } },
{ "type": "Feature", "properties": { "start_date": 1910, "construction_date.nb": 1, "historic.building": "yes" }, "geometry": { "type": "Polygon", "coordinates": [ [ [ 2.499703974560652, 48.895419415909828 ], [ 2.499707303476085, 48.895451644494749 ], [ 2.499676788340088, 48.89546225871328 ], [ 2.499632324903922, 48.895405416591359 ], [ 2.499680626187193, 48.895387993306272 ], [ 2.499703974560652, 48.895419415909828 ] ] ] } },
{ "type": "Feature", "properties": { "start_date": 1909, "construction_date.nb": 2, "historic.building": "yes" }, "geometry": { "type": "MultiPolygon", "coordinates": [ [ [ [ 2.499586057176046, 48.89526072041037 ], [ 2.499500864692319, 48.895289576047681 ], [ 2.499500864674855, 48.895289576025462 ], [ 2.499586057164112, 48.895260720394319 ], [ 2.499586057176046, 48.89526072041037 ] ] ], [ [ [ 2.499652625479127, 48.895350309460255 ], [ 2.499579010763865, 48.895375426736564 ], [ 2.499518508555137, 48.89529864285997 ], [ 2.499594284880172, 48.895271793450505 ], [ 2.499652625479127, 48.895350309460255 ] ] ] ] } },
{ "type": "Feature", "properties": { "start_date": 1917, "construction_date.nb": 1, "historic.building": "yes" }, "geometry": { "type": "Polygon", "coordinates": [ [ [ 2.499586057164112, 48.895260720394319 ], [ 2.499500864674855, 48.895289576025462 ], [ 2.499449796478167, 48.895224612463004 ], [ 2.499537200269315, 48.895194967508829 ], [ 2.499586057164112, 48.895260720394319 ] ] ] } },
{ "type": "Feature", "properties": { "start_date": 1913, "construction_date.nb": 1, "historic.building": "yes" }, "geometry": { "type": "Polygon", "coordinates": [ [ [ 2.499519555999592, 48.895171221342075 ], [ 2.499420271641075, 48.895202905659296 ], [ 2.499376350859052, 48.89514642542639 ], [ 2.499472827672754, 48.895113104663601 ], [ 2.499492367731847, 48.895137737423212 ], [ 2.499494329128393, 48.895137270247822 ], [ 2.499519555999592, 48.895171221342075 ] ] ] } },
{ "type": "Feature", "properties": { "start_date": 1928, "construction_date.nb": 2, "historic.building": "yes" }, "geometry": { "type": "Polygon", "coordinates": [ [ [ 2.49881766927327, 48.894680855168673 ], [ 2.498949870259673, 48.894634374564198 ], [ 2.499012127443376, 48.894712874830269 ], [ 2.498878836120074, 48.894759261022436 ], [ 2.49881766927327, 48.894680855168673 ] ] ] } },
{ "type": "Feature", "properties": { "start_date": 1913, "construction_date.nb": 1, "historic.building": "yes" }, "geometry": { "type": "Polygon", "coordinates": [ [ [ 2.499062601469966, 48.894556229969837 ], [ 2.498975024151229, 48.894585827242686 ], [ 2.498933522959098, 48.89453313401183 ], [ 2.498913991180772, 48.894507691801316 ], [ 2.498995264334958, 48.894480962685165 ], [ 2.499030549007602, 48.894527694459633 ], [ 2.499039045246517, 48.894524526412887 ], [ 2.499062601469966, 48.894556229969837 ] ] ] } },
{ "type": "Feature", "properties": { "start_date": 1912, "construction_date.nb": 1, "historic.building": "yes" }, "geometry": { "type": "Polygon", "coordinates": [ [ [ 2.49893172806075, 48.894380091124482 ], [ 2.498896282232869, 48.894392056616759 ], [ 2.49889628222571, 48.894392056608375 ], [ 2.498896282240076, 48.894392056603763 ], [ 2.498931728056012, 48.894380091118109 ], [ 2.49893172806075, 48.894380091124482 ] ] ] } },
{ "type": "Feature", "properties": { "start_date": 1910, "construction_date.nb": 2, "historic.building": "yes" }, "geometry": { "type": "MultiPolygon", "coordinates": [ [ [ [ 2.498354484379869, 48.894370201938244 ], [ 2.498357250811274, 48.894378669617609 ], [ 2.4983849, 48.8944638 ], [ 2.4983067, 48.8944761 ], [ 2.4982978, 48.894449600000023 ], [ 2.4982863, 48.894451200000034 ], [ 2.4982645, 48.894384199999976 ], [ 2.4983408, 48.894371899999946 ], [ 2.498354484379869, 48.894370201938244 ] ] ], [ [ [ 2.498374521582075, 48.894431533089602 ], [ 2.49837660161354, 48.894437899774424 ], [ 2.4983766, 48.894437900000014 ], [ 2.498374521582075, 48.894431533089602 ] ] ] ] } },
{ "type": "Feature", "properties": { "start_date": 1932, "construction_date.nb": 2, "historic.building": "yes" }, "geometry": { "type": "MultiPolygon", "coordinates": [ [ [ [ 2.498357250811274, 48.894378669617609 ], [ 2.498354484379869, 48.894370201938244 ], [ 2.4983545, 48.894370199999969 ], [ 2.498357250811274, 48.894378669617609 ] ] ], [ [ [ 2.49837660161354, 48.894437899774424 ], [ 2.498374521582075, 48.894431533089602 ], [ 2.4983545, 48.894370199999969 ], [ 2.4984065, 48.8943637 ], [ 2.4984118, 48.8943816 ], [ 2.4984264, 48.8943801 ], [ 2.4984424, 48.8944287 ], [ 2.49837660161354, 48.894437899774424 ] ] ] ] } },
{ "type": "Feature", "properties": { "start_date": 1932, "construction_date.nb": 1, "historic.building": "yes" }, "geometry": { "type": "Polygon", "coordinates": [ [ [ 2.49853517800222, 48.894415203166595 ], [ 2.4984699, 48.8944246 ], [ 2.4984539, 48.89437589999995 ], [ 2.4984678, 48.894373899999984 ], [ 2.4984635, 48.8943562 ], [ 2.498515497816446, 48.894348300331714 ], [ 2.498516401962027, 48.894351300647784 ], [ 2.4985308, 48.894399199999988 ], [ 2.498533363793813, 48.894408522887836 ], [ 2.498535170969953, 48.894415186053337 ], [ 2.49853517800222, 48.894415203166595 ] ] ] } },
{ "type": "Feature", "properties": { "start_date": 1920, "construction_date.nb": 1, "historic.building": "yes" }, "geometry": { "type": "MultiPolygon", "coordinates": [ [ [ [ 2.498516401962027, 48.894351300647784 ], [ 2.498515497816446, 48.894348300331714 ], [ 2.4985155, 48.8943483 ], [ 2.498516401962027, 48.894351300647784 ] ] ], [ [ [ 2.498535170969953, 48.894415186053337 ], [ 2.498533363793813, 48.894408522887836 ], [ 2.4985352, 48.8944152 ], [ 2.49853517800222, 48.894415203166595 ], [ 2.498535170969953, 48.894415186053337 ] ] ] ] } },
{ "type": "Feature", "properties": { "start_date": 1906, "construction_date.nb": 1, "historic.building": "yes" }, "geometry": { "type": "Polygon", "coordinates": [ [ [ 2.498931728056012, 48.894380091118109 ], [ 2.498896282240076, 48.894392056603763 ], [ 2.49889628222571, 48.894392056608375 ], [ 2.498893045381198, 48.894388265960004 ], [ 2.498858278777772, 48.89434441412412 ], [ 2.498841441914704, 48.894322400521261 ], [ 2.498879068803818, 48.894309218117776 ], [ 2.498931728056012, 48.894380091118109 ] ] ] } },
{ "type": "Feature", "properties": { "start_date": 1930, "construction_date.nb": 1, "historic.building": "yes" }, "geometry": { "type": "Polygon", "coordinates": [ [ [ 2.4981943, 48.89428189999996 ], [ 2.4981093, 48.8942928 ], [ 2.4980875, 48.8942224 ], [ 2.4981743, 48.894210399999977 ], [ 2.4981943, 48.89428189999996 ] ] ] } },
{ "type": "Feature", "properties": { "start_date": 1920, "construction_date.nb": 1, "historic.building": "yes" }, "geometry": { "type": "Polygon", "coordinates": [ [ [ 2.497488148362394, 48.894310307442744 ], [ 2.4974882, 48.894310299999972 ], [ 2.4975043, 48.894361099999962 ], [ 2.497504495427231, 48.894361728335944 ], [ 2.497504309374538, 48.894361133174172 ], [ 2.497488159977259, 48.89431034441818 ], [ 2.497488148362394, 48.894310307442744 ] ] ] } },
{ "type": "Feature", "properties": { "start_date": 1926, "construction_date.nb": 1, "historic.building": "yes" }, "geometry": { "type": "Polygon", "coordinates": [ [ [ 2.497504495427231, 48.894361728335944 ], [ 2.4975122, 48.8943865 ], [ 2.497377727616133, 48.894405596078329 ], [ 2.497377719530789, 48.894405567342787 ], [ 2.497368135810143, 48.894376145371922 ], [ 2.4973526, 48.8943283 ], [ 2.4973838, 48.894325 ], [ 2.4973809, 48.894314899999955 ], [ 2.4973962, 48.894313399999987 ], [ 2.4973987, 48.894323199999988 ], [ 2.497488148362394, 48.894310307442744 ], [ 2.497488159977259, 48.89431034441818 ], [ 2.497504309374538, 48.894361133174172 ], [ 2.497504495427231, 48.894361728335944 ] ] ] } },
{ "type": "Feature", "properties": { "start_date": 1925, "construction_date.nb": 1, "historic.building": "yes" }, "geometry": { "type": "Polygon", "coordinates": [ [ [ 2.497377727616133, 48.894405596078329 ], [ 2.4973777, 48.894405599999978 ], [ 2.497368135810143, 48.894376145371922 ], [ 2.497377719530789, 48.894405567342787 ], [ 2.497377727616133, 48.894405596078329 ] ] ] } },
{ "type": "Feature", "properties": { "start_date": 1920, "construction_date.nb": 1, "historic.building": "yes" }, "geometry": { "type": "Polygon", "coordinates": [ [ [ 2.496442895924519, 48.89408250063903 ], [ 2.4964091, 48.894087799999987 ], [ 2.4964043, 48.894092 ], [ 2.4964061, 48.8940963 ], [ 2.4964155, 48.894096399999988 ], [ 2.4964247, 48.89412549999998 ], [ 2.4964213, 48.894128 ], [ 2.4964503, 48.894175799999978 ], [ 2.4964369, 48.8941784 ], [ 2.4964627, 48.894224399999985 ], [ 2.4963729, 48.894239 ], [ 2.4962737, 48.894059300000016 ], [ 2.49629439053614, 48.894034011566916 ], [ 2.496294420219714, 48.894034007885793 ], [ 2.496423602687816, 48.894015309358579 ], [ 2.496439866507483, 48.894071937799652 ], [ 2.496442888565872, 48.894082475502309 ], [ 2.496442895924519, 48.89408250063903 ] ] ] } },
{ "type": "Feature", "properties": { "start_date": 1936, "construction_date.nb": 3, "historic.building": "yes" }, "geometry": { "type": "MultiPolygon", "coordinates": [ [ [ [ 2.496554201675463, 48.893997099766494 ], [ 2.496556011234411, 48.894003309954705 ], [ 2.4965542, 48.893997099999979 ], [ 2.496554201675463, 48.893997099766494 ] ] ], [ [ [ 2.496442895924519, 48.89408250063903 ], [ 2.496442888565872, 48.894082475502309 ], [ 2.496439866507483, 48.894071937799652 ], [ 2.4964429, 48.894082499999975 ], [ 2.496442895924519, 48.89408250063903 ] ] ], [ [ [ 2.4965734, 48.8941075 ], [ 2.4964916, 48.8941179 ], [ 2.4964712, 48.8940496 ], [ 2.4965526, 48.8940385 ], [ 2.4965734, 48.8941075 ] ] ] ] } },
{ "type": "Feature", "properties": { "start_date": 1918, "construction_date.nb": 2, "historic.building": "yes" }, "geometry": { "type": "Polygon", "coordinates": [ [ [ 2.498784795996063, 48.894182337730378 ], [ 2.49869939235088, 48.894201928190846 ], [ 2.498695648940296, 48.894194088512918 ], [ 2.498683211138066, 48.894196824314214 ], [ 2.498675696561556, 48.894184022693572 ], [ 2.498686777467532, 48.894180561749579 ], [ 2.498669438476474, 48.894154049509005 ], [ 2.498667252003418, 48.894154490002968 ], [ 2.498667252002216, 48.894154490001412 ], [ 2.498669438473222, 48.894154049501417 ], [ 2.49874938076908, 48.894134672710223 ], [ 2.498784795996063, 48.894182337730378 ] ] ] } },
{ "type": "Feature", "properties": { "start_date": 1913, "construction_date.nb": 1, "historic.building": "yes" }, "geometry": { "type": "Polygon", "coordinates": [ [ [ 2.49874938076908, 48.894134672710223 ], [ 2.498669438473222, 48.894154049501417 ], [ 2.498667252002216, 48.894154490001412 ], [ 2.498640173085223, 48.894119663326443 ], [ 2.498718697480498, 48.894093376279116 ], [ 2.49874938076908, 48.894134672710223 ] ] ] } },
{ "type": "Feature", "properties": { "start_date": 1910, "construction_date.nb": 1, "historic.building": "yes" }, "geometry": { "type": "Polygon", "coordinates": [ [ [ 2.498527196192355, 48.893883751302639 ], [ 2.498579637879578, 48.893947462095092 ], [ 2.498500536220106, 48.893975369144023 ], [ 2.498449875345136, 48.893910856431965 ], [ 2.498527196192355, 48.893883751302639 ] ] ] } },
{ "type": "Feature", "properties": { "start_date": 1925, "construction_date.nb": 1, "historic.building": "yes" }, "geometry": { "type": "Polygon", "coordinates": [ [ [ 2.498395143835592, 48.893773392667136 ], [ 2.49845876215125, 48.893851988907471 ], [ 2.498359555014895, 48.893885747129211 ], [ 2.498297315402207, 48.893805627771556 ], [ 2.498395143835592, 48.893773392667136 ] ] ] } },
{ "type": "Feature", "properties": { "start_date": 1920, "construction_date.nb": 1, "historic.building": "yes" }, "geometry": { "type": "Polygon", "coordinates": [ [ [ 2.499672972795818, 48.895716652821434 ], [ 2.499669940293601, 48.895710509716473 ], [ 2.499653178753999, 48.895676554906679 ], [ 2.499728780949334, 48.895659575651734 ], [ 2.499733062899657, 48.895701030548338 ], [ 2.49972630756085, 48.895702670521352 ], [ 2.499727817935924, 48.8957056336574 ], [ 2.499672972795818, 48.895716652821434 ] ] ] } },
{ "type": "Feature", "properties": { "start_date": 1920, "construction_date.nb": 1, "historic.building": "yes" }, "geometry": { "type": "Polygon", "coordinates": [ [ [ 2.497877844563366, 48.895779008533488 ], [ 2.497863, 48.8957529 ], [ 2.4979187, 48.895739099999986 ], [ 2.4979332, 48.895765799999978 ], [ 2.4979503, 48.8957611 ], [ 2.4979555, 48.895770400000011 ], [ 2.4979672, 48.8957674 ], [ 2.497979730822327, 48.89578942583254 ], [ 2.497914806223613, 48.895786248056503 ], [ 2.497877844563366, 48.895779008533488 ] ] ] } },
{ "type": "Feature", "properties": { "start_date": 1910, "construction_date.nb": 1, "historic.building": "yes" }, "geometry": { "type": "Polygon", "coordinates": [ [ [ 2.496554201675463, 48.893997099766494 ], [ 2.496627432028061, 48.893986894630544 ], [ 2.4966493, 48.894059299999981 ], [ 2.4965752, 48.89406910000001 ], [ 2.496556011234411, 48.894003309954705 ], [ 2.496554201675463, 48.893997099766494 ] ] ] } },
{ "type": "Feature", "properties": { "start_date": 1912, "construction_date.nb": 1, "historic.building": "yes" }, "geometry": { "type": "Polygon", "coordinates": [ [ [ 2.499211045039736, 48.894756014319157 ], [ 2.499128336793506, 48.894783327073078 ], [ 2.499082682589182, 48.894722792565574 ], [ 2.499165110163432, 48.894694192570725 ], [ 2.499211045039736, 48.894756014319157 ] ] ] } },
{ "type": "Feature", "properties": { "start_date": 1927, "construction_date.nb": 1, "historic.building": "yes" }, "geometry": { "type": "Polygon", "coordinates": [ [ [ 2.498964796572203, 48.895837635985366 ], [ 2.498962468467892, 48.895833833717006 ], [ 2.498956705015459, 48.895823287693943 ], [ 2.499096044764083, 48.895786459415838 ], [ 2.499119040453242, 48.895827484123139 ], [ 2.499046614806358, 48.895841639874163 ], [ 2.498964796572203, 48.895837635985366 ] ] ] } },
{ "type": "Feature", "properties": { "start_date": 1995, "construction_date.nb": 1, "historic.building": "yes" }, "geometry": { "type": "Polygon", "coordinates": [ [ [ 2.499157137946799, 48.895820037863309 ], [ 2.499140330327527, 48.895790871392116 ], [ 2.499140330329238, 48.895790871391668 ], [ 2.499157137949489, 48.895820037862791 ], [ 2.499157137946799, 48.895820037863309 ] ] ] } },
{ "type": "Feature", "properties": { "start_date": 1995, "construction_date.nb": 1, "historic.building": "yes" }, "geometry": { "type": "Polygon", "coordinates": [ [ [ 2.499119040453242, 48.895827484123139 ], [ 2.499096044764083, 48.895786459415838 ], [ 2.499096044768014, 48.895786459414794 ], [ 2.499119040461386, 48.895827484121547 ], [ 2.499119040453242, 48.895827484123139 ] ] ] } },
{ "type": "Feature", "properties": { "start_date": 1933, "construction_date.nb": 1, "historic.building": "yes" }, "geometry": { "type": "Polygon", "coordinates": [ [ [ 2.499263205723506, 48.895798979842795 ], [ 2.499244082647933, 48.895767023972788 ], [ 2.499267191933789, 48.895760915394163 ], [ 2.49932871974067, 48.895745254901556 ], [ 2.499349702194777, 48.895781601828475 ], [ 2.499263205723506, 48.895798979842795 ] ] ] } },
{ "type": "Feature", "properties": { "start_date": 1922, "construction_date.nb": 1, "historic.building": "yes" }, "geometry": { "type": "Polygon", "coordinates": [ [ [ 2.496214550382921, 48.893835776390659 ], [ 2.4962283, 48.89387719999997 ], [ 2.496170513559556, 48.893884882040958 ], [ 2.496214550382921, 48.893835776390659 ] ] ] } },
{ "type": "Feature", "properties": { "start_date": 1925, "construction_date.nb": 1, "historic.building": "yes" }, "geometry": { "type": "Polygon", "coordinates": [ [ [ 2.4963881, 48.893855100000025 ], [ 2.4962717, 48.893869799999983 ], [ 2.496248988931005, 48.89379896076467 ], [ 2.4963637, 48.893782100000017 ], [ 2.4963881, 48.893855100000025 ] ] ] } },
{ "type": "Feature", "properties": { "start_date": 1906, "construction_date.nb": 1, "historic.building": "yes" }, "geometry": { "type": "Polygon", "coordinates": [ [ [ 2.497082558190187, 48.893263195236628 ], [ 2.497110896967977, 48.893322758593008 ], [ 2.497107207701789, 48.893323462529601 ], [ 2.497124018366293, 48.893362203447033 ], [ 2.49704299615804, 48.893377151408764 ], [ 2.497021122056807, 48.893340187872532 ], [ 2.496994025579831, 48.893279100904444 ], [ 2.49699757756445, 48.893278486310486 ], [ 2.497066434738007, 48.893266275090802 ], [ 2.497082558190187, 48.893263195236628 ] ] ] } },
{ "type": "Feature", "properties": { "start_date": 1910, "construction_date.nb": 1, "historic.building": "yes" }, "geometry": { "type": "Polygon", "coordinates": [ [ [ 2.49713720140416, 48.89336702513387 ], [ 2.497176850509463, 48.893455863508372 ], [ 2.49711154168556, 48.893467819875546 ], [ 2.497101273030841, 48.893443675265985 ], [ 2.49707832433222, 48.893447355972114 ], [ 2.497048800649382, 48.893383381042774 ], [ 2.49713720140416, 48.89336702513387 ] ] ] } },
{ "type": "Feature", "properties": { "start_date": 1938, "construction_date.nb": 1, "historic.building": "yes" }, "geometry": { "type": "Polygon", "coordinates": [ [ [ 2.49721848287147, 48.893508827743325 ], [ 2.497250260237855, 48.893579556901315 ], [ 2.497100358428793, 48.893608964402006 ], [ 2.497088774589759, 48.893579778163087 ], [ 2.49711843038269, 48.893573607532389 ], [ 2.497105904897577, 48.893543068362561 ], [ 2.497123806631273, 48.893539456373361 ], [ 2.497120494350622, 48.89352937017815 ], [ 2.49721848287147, 48.893508827743325 ] ] ] } },
{ "type": "Feature", "properties": { "start_date": 1900, "construction_date.nb": 1, "historic.building": "yes" }, "geometry": { "type": "Polygon", "coordinates": [ [ [ 2.49746951570988, 48.89326041308216 ], [ 2.497485437050509, 48.893292405399002 ], [ 2.497455642446398, 48.893298845320601 ], [ 2.497475556238492, 48.893341106476932 ], [ 2.497443029667636, 48.89334798457849 ], [ 2.497390692914025, 48.893358376777712 ], [ 2.49737752275118, 48.893323967892776 ], [ 2.497397061774957, 48.893320272818649 ], [ 2.497379867019457, 48.893278922356089 ], [ 2.497439182578836, 48.893266131310355 ], [ 2.49746951570988, 48.89326041308216 ] ] ] } },
{ "type": "Feature", "properties": { "start_date": 1905, "construction_date.nb": 1, "historic.building": "yes" }, "geometry": { "type": "Polygon", "coordinates": [ [ [ 2.497259145885832, 48.892871208284234 ], [ 2.49725914588605, 48.89287120828466 ], [ 2.497182466948664, 48.892888422886365 ], [ 2.497137532952129, 48.892899114624846 ], [ 2.497182466920564, 48.892888422886919 ], [ 2.497259145849559, 48.892871208292043 ], [ 2.497259145885832, 48.892871208284234 ] ] ] } },
{ "type": "Feature", "properties": { "start_date": 1908, "construction_date.nb": 1, "historic.building": "yes" }, "geometry": { "type": "Polygon", "coordinates": [ [ [ 2.497902332441616, 48.893593624007188 ], [ 2.497931617473227, 48.893654180325122 ], [ 2.497852077047635, 48.893671023652722 ], [ 2.49782265660677, 48.893610376763661 ], [ 2.497856410737222, 48.893603503707538 ], [ 2.497902332441616, 48.893593624007188 ] ] ] } },
{ "type": "Feature", "properties": { "start_date": 1912, "construction_date.nb": 1, "historic.building": "yes" }, "geometry": { "type": "Polygon", "coordinates": [ [ [ 2.498031605281079, 48.893567726250076 ], [ 2.498058992369322, 48.893627105505082 ], [ 2.497979587571025, 48.893644039401778 ], [ 2.497952706167144, 48.893588799061959 ], [ 2.497955849082451, 48.893588182724791 ], [ 2.497954252341995, 48.893584039217806 ], [ 2.498031605281079, 48.893567726250076 ] ] ] } },
{ "type": "Feature", "properties": { "start_date": 1915, "construction_date.nb": 2, "historic.building": "yes" }, "geometry": { "type": "MultiPolygon", "coordinates": [ [ [ [ 2.498091690003929, 48.893390274640709 ], [ 2.498091690025122, 48.893390274633191 ], [ 2.49809169003818, 48.893390274649832 ], [ 2.498004658831725, 48.893420216554702 ], [ 2.498004658826566, 48.89342021654813 ], [ 2.498091690003929, 48.893390274640709 ] ] ], [ [ [ 2.498145421412036, 48.893532320875579 ], [ 2.498243135650769, 48.893497747222277 ], [ 2.498295673967038, 48.893565505432093 ], [ 2.49819714917389, 48.89359926635067 ], [ 2.498145421412036, 48.893532320875579 ] ] ] ] } },
{ "type": "Feature", "properties": { "start_date": 1910, "construction_date.nb": 1, "historic.building": "yes" }, "geometry": { "type": "Polygon", "coordinates": [ [ [ 2.498004658826566, 48.89342021654813 ], [ 2.497983775396828, 48.89339359938559 ], [ 2.497962225639604, 48.893365360693657 ], [ 2.49793273261412, 48.893326386893847 ], [ 2.498028668375599, 48.893292345517104 ], [ 2.498055092298133, 48.893324291829821 ], [ 2.498043590318019, 48.893329009945397 ], [ 2.498091690025122, 48.893390274633191 ], [ 2.498091690003929, 48.893390274640709 ], [ 2.498004658826566, 48.89342021654813 ] ] ] } },
{ "type": "Feature", "properties": { "start_date": 1901, "construction_date.nb": 1, "historic.building": "yes" }, "geometry": { "type": "Polygon", "coordinates": [ [ [ 2.497960891756411, 48.893135941304351 ], [ 2.498046034905599, 48.893245204580545 ], [ 2.497944773371823, 48.893279943073566 ], [ 2.497860449553027, 48.893170593248016 ], [ 2.497960891756411, 48.893135941304351 ] ] ] } },
{ "type": "Feature", "properties": { "start_date": 1988, "construction_date.nb": 1, "historic.building": "yes" }, "geometry": { "type": "Polygon", "coordinates": [ [ [ 2.497917238346056, 48.893080360832421 ], [ 2.497942689216992, 48.893114191638318 ], [ 2.497842657957956, 48.893148665424526 ], [ 2.49780320127614, 48.893096340028578 ], [ 2.497884621349529, 48.893068353192795 ], [ 2.497893103855567, 48.893065600922682 ], [ 2.49790698026558, 48.893083375475669 ], [ 2.497917238346056, 48.893080360832421 ] ] ] } },
{ "type": "Feature", "properties": { "start_date": 1925, "construction_date.nb": 1, "historic.building": "yes" }, "geometry": { "type": "Polygon", "coordinates": [ [ [ 2.497917238346056, 48.893080360832421 ], [ 2.497942689216992, 48.893114191638318 ], [ 2.497842657957956, 48.893148665424526 ], [ 2.49780320127614, 48.893096340028578 ], [ 2.497884621349529, 48.893068353192795 ], [ 2.497893103855567, 48.893065600922682 ], [ 2.49790698026558, 48.893083375475669 ], [ 2.497917238346056, 48.893080360832421 ] ] ] } },
{ "type": "Feature", "properties": { "start_date": 1920, "construction_date.nb": 2, "historic.building": "yes" }, "geometry": { "type": "Polygon", "coordinates": [ [ [ 2.497883349685699, 48.892969057976543 ], [ 2.49786050078176, 48.892974447157009 ], [ 2.4977829, 48.892992700000015 ], [ 2.497748713095408, 48.892999776589583 ], [ 2.497748623132328, 48.8929997950816 ], [ 2.497748618565482, 48.892999796157 ], [ 2.4977486, 48.8929998 ], [ 2.4977309, 48.8929608 ], [ 2.497762, 48.892953299999988 ], [ 2.4977703, 48.892969499999978 ], [ 2.4978358, 48.892955399999956 ], [ 2.4978304, 48.892945199999986 ], [ 2.497815, 48.8929481 ], [ 2.4978106, 48.892939399999975 ], [ 2.4978252, 48.892936099999957 ], [ 2.4978083, 48.892903699999955 ], [ 2.4977192, 48.892924500000021 ], [ 2.4977021, 48.8928911 ], [ 2.497702075867134, 48.892891052581049 ], [ 2.497733748080659, 48.892883660905895 ], [ 2.497790651004671, 48.892870380849949 ], [ 2.497807146525587, 48.892866491163524 ], [ 2.497883349685699, 48.892969057976543 ] ] ] } },
{ "type": "Feature", "properties": { "start_date": 1928, "construction_date.nb": 3, "historic.building": "yes" }, "geometry": { "type": "Polygon", "coordinates": [ [ [ 2.497807146525587, 48.892866491163524 ], [ 2.497790651004671, 48.892870380849949 ], [ 2.497733748080659, 48.892883660905895 ], [ 2.497702075867134, 48.892891052581049 ], [ 2.4976907, 48.8928687 ], [ 2.4977355, 48.8928589 ], [ 2.4977314, 48.8928505 ], [ 2.4977598, 48.892843 ], [ 2.4977276, 48.892775499999985 ], [ 2.4977108, 48.89278 ], [ 2.4977213, 48.892802200000013 ], [ 2.4975248, 48.8928454 ], [ 2.4975098, 48.892815 ], [ 2.497549134628006, 48.892805886831042 ], [ 2.497560259910663, 48.892803315158567 ], [ 2.497619033698592, 48.892790610328518 ], [ 2.4976774, 48.892778 ], [ 2.497678896461768, 48.892777590811328 ], [ 2.497690240635431, 48.892774542960055 ], [ 2.497731851759554, 48.892765146554808 ], [ 2.497807146525587, 48.892866491163524 ] ] ] } },
{ "type": "Feature", "properties": { "start_date": 1913, "construction_date.nb": 1, "historic.building": "yes" }, "geometry": { "type": "Polygon", "coordinates": [ [ [ 2.497170568572515, 48.892794885522285 ], [ 2.497180178694172, 48.892814669885098 ], [ 2.497167589151245, 48.892819023654276 ], [ 2.497180689561328, 48.89284650759852 ], [ 2.497239875213962, 48.892832996672887 ], [ 2.49724107151786, 48.892835368813003 ], [ 2.497259145849559, 48.892871208292043 ], [ 2.497182466920564, 48.892888422886919 ], [ 2.497137532952129, 48.892899114624846 ], [ 2.497120815016519, 48.892903092538326 ], [ 2.49712028808015, 48.892901953820079 ], [ 2.497097030932406, 48.892851694679337 ], [ 2.49714128683604, 48.89280234233707 ], [ 2.497170568572515, 48.892794885522285 ] ] ] } },
{ "type": "Feature", "properties": { "start_date": 1985, "construction_date.nb": 2, "historic.building": "yes" }, "geometry": { "type": "MultiPolygon", "coordinates": [ [ [ [ 2.497560257167087, 48.892803309923657 ], [ 2.497560259910663, 48.892803315158567 ], [ 2.497549134628006, 48.892805886831042 ], [ 2.497560257167087, 48.892803309923657 ] ] ], [ [ [ 2.497259145885832, 48.892871208284234 ], [ 2.497259145849559, 48.892871208292043 ], [ 2.49724107151786, 48.892835368813003 ], [ 2.497259145885832, 48.892871208284234 ] ] ] ] } },
{ "type": "Feature", "properties": { "start_date": 1913, "construction_date.nb": 2, "historic.building": "yes" }, "geometry": { "type": "MultiPolygon", "coordinates": [ [ [ [ 2.497731851759554, 48.892765146554808 ], [ 2.497690240635431, 48.892774542960055 ], [ 2.497678896461768, 48.892777590811328 ], [ 2.4976902, 48.892774500000051 ], [ 2.4976738, 48.892743300000035 ], [ 2.4976843, 48.8927412 ], [ 2.4976693, 48.892712 ], [ 2.4976563, 48.892715099999947 ], [ 2.4976522, 48.892704200000011 ], [ 2.4976633, 48.892701099999982 ], [ 2.497651, 48.892680899999959 ], [ 2.4975621, 48.892702300000018 ], [ 2.4975643, 48.892707899999984 ], [ 2.4975157, 48.892719399999976 ], [ 2.497510022403997, 48.892708440343277 ], [ 2.497661131413302, 48.892669958565882 ], [ 2.497731851759554, 48.892765146554808 ] ] ], [ [ [ 2.497619033698592, 48.892790610328518 ], [ 2.497560259910663, 48.892803315158567 ], [ 2.497560257167087, 48.892803309923657 ], [ 2.4975603, 48.8928033 ], [ 2.497619033698592, 48.892790610328518 ] ] ] ] } },
{ "type": "Feature", "properties": { "start_date": 1905, "construction_date.nb": 1, "historic.building": "yes" }, "geometry": { "type": "Polygon", "coordinates": [ [ [ 2.497484274433121, 48.893681351682019 ], [ 2.497535101726156, 48.893671942355596 ], [ 2.497511639892945, 48.893615727019032 ], [ 2.497587764703922, 48.893599499134481 ], [ 2.497611647024253, 48.893654547109477 ], [ 2.497632459406805, 48.893702657515981 ], [ 2.497609505425268, 48.893706877898857 ], [ 2.497622533401168, 48.893741915654481 ], [ 2.497622533390551, 48.893741915655923 ], [ 2.497542501001447, 48.89375318096608 ], [ 2.497509243383349, 48.89373685385997 ], [ 2.497484274433121, 48.893681351682019 ] ] ] } },
{ "type": "Feature", "properties": { "start_date": 1952, "construction_date.nb": 1, "historic.building": "yes" }, "geometry": { "type": "Polygon", "coordinates": [ [ [ 2.495937084076728, 48.894145178365868 ], [ 2.4959748, 48.89421 ], [ 2.495929111999402, 48.894221561306331 ], [ 2.495902992733845, 48.894183193225857 ], [ 2.495937084076728, 48.894145178365868 ] ] ] } },
{ "type": "Feature", "properties": { "start_date": 1925, "construction_date.nb": 1, "historic.building": "yes" }, "geometry": { "type": "Polygon", "coordinates": [ [ [ 2.4961261, 48.894158099999977 ], [ 2.4960456, 48.8941786 ], [ 2.4960166, 48.8941295 ], [ 2.4960966, 48.894108399999951 ], [ 2.4961261, 48.894158099999977 ] ] ] } },
{ "type": "Feature", "properties": { "start_date": 1925, "construction_date.nb": 1, "historic.building": "yes" }, "geometry": { "type": "Polygon", "coordinates": [ [ [ 2.4961981, 48.894280499999972 ], [ 2.4961222, 48.8943019 ], [ 2.4960912, 48.8942489 ], [ 2.4961672, 48.894227799999989 ], [ 2.4961981, 48.894280499999972 ] ] ] } },
{ "type": "Feature", "properties": { "start_date": 1934, "construction_date.nb": 1, "historic.building": "yes" }, "geometry": { "type": "Polygon", "coordinates": [ [ [ 2.496834790038155, 48.895551923414651 ], [ 2.4968872, 48.895538899999956 ], [ 2.496917577487051, 48.895590920235165 ], [ 2.496852685457735, 48.895578209441616 ], [ 2.496834790038155, 48.895551923414651 ] ] ] } },
{ "type": "Feature", "properties": { "start_date": 1912, "construction_date.nb": 1, "historic.building": "yes" }, "geometry": { "type": "Polygon", "coordinates": [ [ [ 2.4970752, 48.8951805 ], [ 2.4969719, 48.89520509999997 ], [ 2.4969513, 48.8951698 ], [ 2.4969671, 48.895165599999977 ], [ 2.4969529, 48.895139099999966 ], [ 2.4970795, 48.895108 ], [ 2.497113, 48.895167300000011 ], [ 2.4970732, 48.8951767 ], [ 2.4970752, 48.8951805 ] ] ] } },
{ "type": "Feature", "properties": { "start_date": 1919, "construction_date.nb": 1, "historic.building": "yes" }, "geometry": { "type": "Polygon", "coordinates": [ [ [ 2.496949916159737, 48.894929130004357 ], [ 2.4969848, 48.894993899999974 ], [ 2.4968821, 48.8950197 ], [ 2.4968688, 48.894994300000022 ], [ 2.4968578, 48.894997 ], [ 2.4968349, 48.894957 ], [ 2.496867967511136, 48.894948977548687 ], [ 2.49694985084522, 48.89492914656028 ], [ 2.496949916159737, 48.894929130004357 ] ] ] } },
{ "type": "Feature", "properties": { "start_date": 1920, "construction_date.nb": 1, "historic.building": "yes" }, "geometry": { "type": "Polygon", "coordinates": [ [ [ 2.496867967511136, 48.894948977548687 ], [ 2.4969499, 48.8949291 ], [ 2.496949916159737, 48.894929130004357 ], [ 2.49694985084522, 48.89492914656028 ], [ 2.496867967511136, 48.894948977548687 ] ] ] } },
{ "type": "Feature", "properties": { "start_date": 1890, "construction_date.nb": 1, "historic.building": "yes" }, "geometry": { "type": "Polygon", "coordinates": [ [ [ 2.499157137949489, 48.895820037862791 ], [ 2.499140330329238, 48.895790871391668 ], [ 2.499160704990099, 48.895785470824798 ], [ 2.499228536117782, 48.895766779099574 ], [ 2.499248963062157, 48.895801841329884 ], [ 2.499203321828974, 48.895811011076802 ], [ 2.499157137949489, 48.895820037862791 ] ] ] } },
{ "type": "Feature", "properties": { "start_date": 1925, "construction_date.nb": 1, "historic.building": "yes" }, "geometry": { "type": "Polygon", "coordinates": [ [ [ 2.499672972794318, 48.89571665282174 ], [ 2.499669940293601, 48.895710509716473 ], [ 2.499672972795818, 48.895716652821434 ], [ 2.499672972794318, 48.89571665282174 ] ] ] } },
{ "type": "Feature", "properties": { "start_date": 1910, "construction_date.nb": 1, "historic.building": "yes" }, "geometry": { "type": "Polygon", "coordinates": [ [ [ 2.499703974560652, 48.895419415909828 ], [ 2.499707303476085, 48.895451644494749 ], [ 2.499676788340088, 48.89546225871328 ], [ 2.499632324903922, 48.895405416591359 ], [ 2.499680626187193, 48.895387993306272 ], [ 2.499703974560652, 48.895419415909828 ] ] ] } },
{ "type": "Feature", "properties": { "start_date": 1909, "construction_date.nb": 2, "historic.building": "yes" }, "geometry": { "type": "MultiPolygon", "coordinates": [ [ [ [ 2.499586057176046, 48.89526072041037 ], [ 2.499500864692319, 48.895289576047681 ], [ 2.499500864674855, 48.895289576025462 ], [ 2.499586057164112, 48.895260720394319 ], [ 2.499586057176046, 48.89526072041037 ] ] ], [ [ [ 2.499652625479127, 48.895350309460255 ], [ 2.499579010763865, 48.895375426736564 ], [ 2.499518508555137, 48.89529864285997 ], [ 2.499594284880172, 48.895271793450505 ], [ 2.499652625479127, 48.895350309460255 ] ] ] ] } },
{ "type": "Feature", "properties": { "start_date": 1917, "construction_date.nb": 1, "historic.building": "yes" }, "geometry": { "type": "Polygon", "coordinates": [ [ [ 2.499586057164112, 48.895260720394319 ], [ 2.499500864674855, 48.895289576025462 ], [ 2.499449796478167, 48.895224612463004 ], [ 2.499537200269315, 48.895194967508829 ], [ 2.499586057164112, 48.895260720394319 ] ] ] } },
{ "type": "Feature", "properties": { "start_date": 1913, "construction_date.nb": 1, "historic.building": "yes" }, "geometry": { "type": "Polygon", "coordinates": [ [ [ 2.499519555999592, 48.895171221342075 ], [ 2.499420271641075, 48.895202905659296 ], [ 2.499376350859052, 48.89514642542639 ], [ 2.499472827672754, 48.895113104663601 ], [ 2.499492367731847, 48.895137737423212 ], [ 2.499494329128393, 48.895137270247822 ], [ 2.499519555999592, 48.895171221342075 ] ] ] } },
{ "type": "Feature", "properties": { "start_date": 1928, "construction_date.nb": 2, "historic.building": "yes" }, "geometry": { "type": "Polygon", "coordinates": [ [ [ 2.49881766927327, 48.894680855168673 ], [ 2.498949870259673, 48.894634374564198 ], [ 2.499012127443376, 48.894712874830269 ], [ 2.498878836120074, 48.894759261022436 ], [ 2.49881766927327, 48.894680855168673 ] ] ] } },
{ "type": "Feature", "properties": { "start_date": 1913, "construction_date.nb": 1, "historic.building": "yes" }, "geometry": { "type": "Polygon", "coordinates": [ [ [ 2.499062601469966, 48.894556229969837 ], [ 2.498975024151229, 48.894585827242686 ], [ 2.498933522959098, 48.89453313401183 ], [ 2.498913991180772, 48.894507691801316 ], [ 2.498995264334958, 48.894480962685165 ], [ 2.499030549007602, 48.894527694459633 ], [ 2.499039045246517, 48.894524526412887 ], [ 2.499062601469966, 48.894556229969837 ] ] ] } },
{ "type": "Feature", "properties": { "start_date": 1912, "construction_date.nb": 1, "historic.building": "yes" }, "geometry": { "type": "Polygon", "coordinates": [ [ [ 2.49893172806075, 48.894380091124482 ], [ 2.498896282232869, 48.894392056616759 ], [ 2.49889628222571, 48.894392056608375 ], [ 2.498896282240076, 48.894392056603763 ], [ 2.498931728056012, 48.894380091118109 ], [ 2.49893172806075, 48.894380091124482 ] ] ] } },
{ "type": "Feature", "properties": { "start_date": 1910, "construction_date.nb": 2, "historic.building": "yes" }, "geometry": { "type": "MultiPolygon", "coordinates": [ [ [ [ 2.498354484379869, 48.894370201938244 ], [ 2.498357250811274, 48.894378669617609 ], [ 2.4983849, 48.8944638 ], [ 2.4983067, 48.8944761 ], [ 2.4982978, 48.894449600000023 ], [ 2.4982863, 48.894451200000034 ], [ 2.4982645, 48.894384199999976 ], [ 2.4983408, 48.894371899999946 ], [ 2.498354484379869, 48.894370201938244 ] ] ], [ [ [ 2.498374521582075, 48.894431533089602 ], [ 2.49837660161354, 48.894437899774424 ], [ 2.4983766, 48.894437900000014 ], [ 2.498374521582075, 48.894431533089602 ] ] ] ] } },
{ "type": "Feature", "properties": { "start_date": 1932, "construction_date.nb": 2, "historic.building": "yes" }, "geometry": { "type": "MultiPolygon", "coordinates": [ [ [ [ 2.498357250811274, 48.894378669617609 ], [ 2.498354484379869, 48.894370201938244 ], [ 2.4983545, 48.894370199999969 ], [ 2.498357250811274, 48.894378669617609 ] ] ], [ [ [ 2.49837660161354, 48.894437899774424 ], [ 2.498374521582075, 48.894431533089602 ], [ 2.4983545, 48.894370199999969 ], [ 2.4984065, 48.8943637 ], [ 2.4984118, 48.8943816 ], [ 2.4984264, 48.8943801 ], [ 2.4984424, 48.8944287 ], [ 2.49837660161354, 48.894437899774424 ] ] ] ] } },
{ "type": "Feature", "properties": { "start_date": 1932, "construction_date.nb": 1, "historic.building": "yes" }, "geometry": { "type": "Polygon", "coordinates": [ [ [ 2.49853517800222, 48.894415203166595 ], [ 2.4984699, 48.8944246 ], [ 2.4984539, 48.89437589999995 ], [ 2.4984678, 48.894373899999984 ], [ 2.4984635, 48.8943562 ], [ 2.498515497816446, 48.894348300331714 ], [ 2.498516401962027, 48.894351300647784 ], [ 2.4985308, 48.894399199999988 ], [ 2.498533363793813, 48.894408522887836 ], [ 2.498535170969953, 48.894415186053337 ], [ 2.49853517800222, 48.894415203166595 ] ] ] } },
{ "type": "Feature", "properties": { "start_date": 1920, "construction_date.nb": 1, "historic.building": "yes" }, "geometry": { "type": "MultiPolygon", "coordinates": [ [ [ [ 2.498516401962027, 48.894351300647784 ], [ 2.498515497816446, 48.894348300331714 ], [ 2.4985155, 48.8943483 ], [ 2.498516401962027, 48.894351300647784 ] ] ], [ [ [ 2.498535170969953, 48.894415186053337 ], [ 2.498533363793813, 48.894408522887836 ], [ 2.4985352, 48.8944152 ], [ 2.49853517800222, 48.894415203166595 ], [ 2.498535170969953, 48.894415186053337 ] ] ] ] } },
{ "type": "Feature", "properties": { "start_date": 1906, "construction_date.nb": 1, "historic.building": "yes" }, "geometry": { "type": "Polygon", "coordinates": [ [ [ 2.498931728056012, 48.894380091118109 ], [ 2.498896282240076, 48.894392056603763 ], [ 2.49889628222571, 48.894392056608375 ], [ 2.498893045381198, 48.894388265960004 ], [ 2.498858278777772, 48.89434441412412 ], [ 2.498841441914704, 48.894322400521261 ], [ 2.498879068803818, 48.894309218117776 ], [ 2.498931728056012, 48.894380091118109 ] ] ] } },
{ "type": "Feature", "properties": { "start_date": 1930, "construction_date.nb": 1, "historic.building": "yes" }, "geometry": { "type": "Polygon", "coordinates": [ [ [ 2.4981943, 48.89428189999996 ], [ 2.4981093, 48.8942928 ], [ 2.4980875, 48.8942224 ], [ 2.4981743, 48.894210399999977 ], [ 2.4981943, 48.89428189999996 ] ] ] } },
{ "type": "Feature", "properties": { "start_date": 1920, "construction_date.nb": 1, "historic.building": "yes" }, "geometry": { "type": "Polygon", "coordinates": [ [ [ 2.497488148362394, 48.894310307442744 ], [ 2.4974882, 48.894310299999972 ], [ 2.4975043, 48.894361099999962 ], [ 2.497504495427231, 48.894361728335944 ], [ 2.497504309374538, 48.894361133174172 ], [ 2.497488159977259, 48.89431034441818 ], [ 2.497488148362394, 48.894310307442744 ] ] ] } },
{ "type": "Feature", "properties": { "start_date": 1926, "construction_date.nb": 1, "historic.building": "yes" }, "geometry": { "type": "Polygon", "coordinates": [ [ [ 2.497504495427231, 48.894361728335944 ], [ 2.4975122, 48.8943865 ], [ 2.497377727616133, 48.894405596078329 ], [ 2.497377719530789, 48.894405567342787 ], [ 2.497368135810143, 48.894376145371922 ], [ 2.4973526, 48.8943283 ], [ 2.4973838, 48.894325 ], [ 2.4973809, 48.894314899999955 ], [ 2.4973962, 48.894313399999987 ], [ 2.4973987, 48.894323199999988 ], [ 2.497488148362394, 48.894310307442744 ], [ 2.497488159977259, 48.89431034441818 ], [ 2.497504309374538, 48.894361133174172 ], [ 2.497504495427231, 48.894361728335944 ] ] ] } },
{ "type": "Feature", "properties": { "start_date": 1925, "construction_date.nb": 1, "historic.building": "yes" }, "geometry": { "type": "Polygon", "coordinates": [ [ [ 2.497377727616133, 48.894405596078329 ], [ 2.4973777, 48.894405599999978 ], [ 2.497368135810143, 48.894376145371922 ], [ 2.497377719530789, 48.894405567342787 ], [ 2.497377727616133, 48.894405596078329 ] ] ] } },
{ "type": "Feature", "properties": { "start_date": 1920, "construction_date.nb": 1, "historic.building": "yes" }, "geometry": { "type": "Polygon", "coordinates": [ [ [ 2.496442895924519, 48.89408250063903 ], [ 2.4964091, 48.894087799999987 ], [ 2.4964043, 48.894092 ], [ 2.4964061, 48.8940963 ], [ 2.4964155, 48.894096399999988 ], [ 2.4964247, 48.89412549999998 ], [ 2.4964213, 48.894128 ], [ 2.4964503, 48.894175799999978 ], [ 2.4964369, 48.8941784 ], [ 2.4964627, 48.894224399999985 ], [ 2.4963729, 48.894239 ], [ 2.4962737, 48.894059300000016 ], [ 2.49629439053614, 48.894034011566916 ], [ 2.496294420219714, 48.894034007885793 ], [ 2.496423602687816, 48.894015309358579 ], [ 2.496439866507483, 48.894071937799652 ], [ 2.496442888565872, 48.894082475502309 ], [ 2.496442895924519, 48.89408250063903 ] ] ] } },
{ "type": "Feature", "properties": { "start_date": 1936, "construction_date.nb": 3, "historic.building": "yes" }, "geometry": { "type": "MultiPolygon", "coordinates": [ [ [ [ 2.496554201675463, 48.893997099766494 ], [ 2.496556011234411, 48.894003309954705 ], [ 2.4965542, 48.893997099999979 ], [ 2.496554201675463, 48.893997099766494 ] ] ], [ [ [ 2.496442895924519, 48.89408250063903 ], [ 2.496442888565872, 48.894082475502309 ], [ 2.496439866507483, 48.894071937799652 ], [ 2.4964429, 48.894082499999975 ], [ 2.496442895924519, 48.89408250063903 ] ] ], [ [ [ 2.4965734, 48.8941075 ], [ 2.4964916, 48.8941179 ], [ 2.4964712, 48.8940496 ], [ 2.4965526, 48.8940385 ], [ 2.4965734, 48.8941075 ] ] ] ] } },
{ "type": "Feature", "properties": { "start_date": 1918, "construction_date.nb": 2, "historic.building": "yes" }, "geometry": { "type": "Polygon", "coordinates": [ [ [ 2.498784795996063, 48.894182337730378 ], [ 2.49869939235088, 48.894201928190846 ], [ 2.498695648940296, 48.894194088512918 ], [ 2.498683211138066, 48.894196824314214 ], [ 2.498675696561556, 48.894184022693572 ], [ 2.498686777467532, 48.894180561749579 ], [ 2.498669438476474, 48.894154049509005 ], [ 2.498667252003418, 48.894154490002968 ], [ 2.498667252002216, 48.894154490001412 ], [ 2.498669438473222, 48.894154049501417 ], [ 2.49874938076908, 48.894134672710223 ], [ 2.498784795996063, 48.894182337730378 ] ] ] } },
{ "type": "Feature", "properties": { "start_date": 1913, "construction_date.nb": 1, "historic.building": "yes" }, "geometry": { "type": "Polygon", "coordinates": [ [ [ 2.49874938076908, 48.894134672710223 ], [ 2.498669438473222, 48.894154049501417 ], [ 2.498667252002216, 48.894154490001412 ], [ 2.498640173085223, 48.894119663326443 ], [ 2.498718697480498, 48.894093376279116 ], [ 2.49874938076908, 48.894134672710223 ] ] ] } },
{ "type": "Feature", "properties": { "start_date": 1910, "construction_date.nb": 1, "historic.building": "yes" }, "geometry": { "type": "Polygon", "coordinates": [ [ [ 2.498527196192355, 48.893883751302639 ], [ 2.498579637879578, 48.893947462095092 ], [ 2.498500536220106, 48.893975369144023 ], [ 2.498449875345136, 48.893910856431965 ], [ 2.498527196192355, 48.893883751302639 ] ] ] } },
{ "type": "Feature", "properties": { "start_date": 1925, "construction_date.nb": 1, "historic.building": "yes" }, "geometry": { "type": "Polygon", "coordinates": [ [ [ 2.498395143835592, 48.893773392667136 ], [ 2.49845876215125, 48.893851988907471 ], [ 2.498359555014895, 48.893885747129211 ], [ 2.498297315402207, 48.893805627771556 ], [ 2.498395143835592, 48.893773392667136 ] ] ] } },
{ "type": "Feature", "properties": { "start_date": 1920, "construction_date.nb": 1, "historic.building": "yes" }, "geometry": { "type": "Polygon", "coordinates": [ [ [ 2.499672972795818, 48.895716652821434 ], [ 2.499669940293601, 48.895710509716473 ], [ 2.499653178753999, 48.895676554906679 ], [ 2.499728780949334, 48.895659575651734 ], [ 2.499733062899657, 48.895701030548338 ], [ 2.49972630756085, 48.895702670521352 ], [ 2.499727817935924, 48.8957056336574 ], [ 2.499672972795818, 48.895716652821434 ] ] ] } },
{ "type": "Feature", "properties": { "start_date": 1920, "construction_date.nb": 1, "historic.building": "yes" }, "geometry": { "type": "Polygon", "coordinates": [ [ [ 2.497877844563366, 48.895779008533488 ], [ 2.497863, 48.8957529 ], [ 2.4979187, 48.895739099999986 ], [ 2.4979332, 48.895765799999978 ], [ 2.4979503, 48.8957611 ], [ 2.4979555, 48.895770400000011 ], [ 2.4979672, 48.8957674 ], [ 2.497979730822327, 48.89578942583254 ], [ 2.497914806223613, 48.895786248056503 ], [ 2.497877844563366, 48.895779008533488 ] ] ] } },
{ "type": "Feature", "properties": { "start_date": 1910, "construction_date.nb": 1, "historic.building": "yes" }, "geometry": { "type": "Polygon", "coordinates": [ [ [ 2.496554201675463, 48.893997099766494 ], [ 2.496627432028061, 48.893986894630544 ], [ 2.4966493, 48.894059299999981 ], [ 2.4965752, 48.89406910000001 ], [ 2.496556011234411, 48.894003309954705 ], [ 2.496554201675463, 48.893997099766494 ] ] ] } },
{ "type": "Feature", "properties": { "start_date": 1912, "construction_date.nb": 1, "historic.building": "yes" }, "geometry": { "type": "Polygon", "coordinates": [ [ [ 2.499211045039736, 48.894756014319157 ], [ 2.499128336793506, 48.894783327073078 ], [ 2.499082682589182, 48.894722792565574 ], [ 2.499165110163432, 48.894694192570725 ], [ 2.499211045039736, 48.894756014319157 ] ] ] } },
{ "type": "Feature", "properties": { "start_date": 1927, "construction_date.nb": 1, "historic.building": "yes" }, "geometry": { "type": "Polygon", "coordinates": [ [ [ 2.498964796572203, 48.895837635985366 ], [ 2.498962468467892, 48.895833833717006 ], [ 2.498956705015459, 48.895823287693943 ], [ 2.499096044764083, 48.895786459415838 ], [ 2.499119040453242, 48.895827484123139 ], [ 2.499046614806358, 48.895841639874163 ], [ 2.498964796572203, 48.895837635985366 ] ] ] } },
{ "type": "Feature", "properties": { "start_date": 1995, "construction_date.nb": 1, "historic.building": "yes" }, "geometry": { "type": "Polygon", "coordinates": [ [ [ 2.499157137946799, 48.895820037863309 ], [ 2.499140330327527, 48.895790871392116 ], [ 2.499140330329238, 48.895790871391668 ], [ 2.499157137949489, 48.895820037862791 ], [ 2.499157137946799, 48.895820037863309 ] ] ] } },
{ "type": "Feature", "properties": { "start_date": 1995, "construction_date.nb": 1, "historic.building": "yes" }, "geometry": { "type": "Polygon", "coordinates": [ [ [ 2.499119040453242, 48.895827484123139 ], [ 2.499096044764083, 48.895786459415838 ], [ 2.499096044768014, 48.895786459414794 ], [ 2.499119040461386, 48.895827484121547 ], [ 2.499119040453242, 48.895827484123139 ] ] ] } },
{ "type": "Feature", "properties": { "start_date": 1933, "construction_date.nb": 1, "historic.building": "yes" }, "geometry": { "type": "Polygon", "coordinates": [ [ [ 2.499263205723506, 48.895798979842795 ], [ 2.499244082647933, 48.895767023972788 ], [ 2.499267191933789, 48.895760915394163 ], [ 2.49932871974067, 48.895745254901556 ], [ 2.499349702194777, 48.895781601828475 ], [ 2.499263205723506, 48.895798979842795 ] ] ] } },
{ "type": "Feature", "properties": { "start_date": 1922, "construction_date.nb": 1, "historic.building": "yes" }, "geometry": { "type": "Polygon", "coordinates": [ [ [ 2.496214550382921, 48.893835776390659 ], [ 2.4962283, 48.89387719999997 ], [ 2.496170513559556, 48.893884882040958 ], [ 2.496214550382921, 48.893835776390659 ] ] ] } },
{ "type": "Feature", "properties": { "start_date": 1925, "construction_date.nb": 1, "historic.building": "yes" }, "geometry": { "type": "Polygon", "coordinates": [ [ [ 2.4963881, 48.893855100000025 ], [ 2.4962717, 48.893869799999983 ], [ 2.496248988931005, 48.89379896076467 ], [ 2.4963637, 48.893782100000017 ], [ 2.4963881, 48.893855100000025 ] ] ] } },
{ "type": "Feature", "properties": { "start_date": 1906, "construction_date.nb": 1, "historic.building": "yes" }, "geometry": { "type": "Polygon", "coordinates": [ [ [ 2.497082558190187, 48.893263195236628 ], [ 2.497110896967977, 48.893322758593008 ], [ 2.497107207701789, 48.893323462529601 ], [ 2.497124018366293, 48.893362203447033 ], [ 2.49704299615804, 48.893377151408764 ], [ 2.497021122056807, 48.893340187872532 ], [ 2.496994025579831, 48.893279100904444 ], [ 2.49699757756445, 48.893278486310486 ], [ 2.497066434738007, 48.893266275090802 ], [ 2.497082558190187, 48.893263195236628 ] ] ] } },
{ "type": "Feature", "properties": { "start_date": 1910, "construction_date.nb": 1, "historic.building": "yes" }, "geometry": { "type": "Polygon", "coordinates": [ [ [ 2.49713720140416, 48.89336702513387 ], [ 2.497176850509463, 48.893455863508372 ], [ 2.49711154168556, 48.893467819875546 ], [ 2.497101273030841, 48.893443675265985 ], [ 2.49707832433222, 48.893447355972114 ], [ 2.497048800649382, 48.893383381042774 ], [ 2.49713720140416, 48.89336702513387 ] ] ] } },
{ "type": "Feature", "properties": { "start_date": 1938, "construction_date.nb": 1, "historic.building": "yes" }, "geometry": { "type": "Polygon", "coordinates": [ [ [ 2.49721848287147, 48.893508827743325 ], [ 2.497250260237855, 48.893579556901315 ], [ 2.497100358428793, 48.893608964402006 ], [ 2.497088774589759, 48.893579778163087 ], [ 2.49711843038269, 48.893573607532389 ], [ 2.497105904897577, 48.893543068362561 ], [ 2.497123806631273, 48.893539456373361 ], [ 2.497120494350622, 48.89352937017815 ], [ 2.49721848287147, 48.893508827743325 ] ] ] } },
{ "type": "Feature", "properties": { "start_date": 1900, "construction_date.nb": 1, "historic.building": "yes" }, "geometry": { "type": "Polygon", "coordinates": [ [ [ 2.49746951570988, 48.89326041308216 ], [ 2.497485437050509, 48.893292405399002 ], [ 2.497455642446398, 48.893298845320601 ], [ 2.497475556238492, 48.893341106476932 ], [ 2.497443029667636, 48.89334798457849 ], [ 2.497390692914025, 48.893358376777712 ], [ 2.49737752275118, 48.893323967892776 ], [ 2.497397061774957, 48.893320272818649 ], [ 2.497379867019457, 48.893278922356089 ], [ 2.497439182578836, 48.893266131310355 ], [ 2.49746951570988, 48.89326041308216 ] ] ] } },
{ "type": "Feature", "properties": { "start_date": 1905, "construction_date.nb": 1, "historic.building": "yes" }, "geometry": { "type": "Polygon", "coordinates": [ [ [ 2.497259145885832, 48.892871208284234 ], [ 2.49725914588605, 48.89287120828466 ], [ 2.497182466948664, 48.892888422886365 ], [ 2.497137532952129, 48.892899114624846 ], [ 2.497182466920564, 48.892888422886919 ], [ 2.497259145849559, 48.892871208292043 ], [ 2.497259145885832, 48.892871208284234 ] ] ] } },
{ "type": "Feature", "properties": { "start_date": 1908, "construction_date.nb": 1, "historic.building": "yes" }, "geometry": { "type": "Polygon", "coordinates": [ [ [ 2.497902332441616, 48.893593624007188 ], [ 2.497931617473227, 48.893654180325122 ], [ 2.497852077047635, 48.893671023652722 ], [ 2.49782265660677, 48.893610376763661 ], [ 2.497856410737222, 48.893603503707538 ], [ 2.497902332441616, 48.893593624007188 ] ] ] } },
{ "type": "Feature", "properties": { "start_date": 1912, "construction_date.nb": 1, "historic.building": "yes" }, "geometry": { "type": "Polygon", "coordinates": [ [ [ 2.498031605281079, 48.893567726250076 ], [ 2.498058992369322, 48.893627105505082 ], [ 2.497979587571025, 48.893644039401778 ], [ 2.497952706167144, 48.893588799061959 ], [ 2.497955849082451, 48.893588182724791 ], [ 2.497954252341995, 48.893584039217806 ], [ 2.498031605281079, 48.893567726250076 ] ] ] } },
{ "type": "Feature", "properties": { "start_date": 1915, "construction_date.nb": 2, "historic.building": "yes" }, "geometry": { "type": "MultiPolygon", "coordinates": [ [ [ [ 2.498091690003929, 48.893390274640709 ], [ 2.498091690025122, 48.893390274633191 ], [ 2.49809169003818, 48.893390274649832 ], [ 2.498004658831725, 48.893420216554702 ], [ 2.498004658826566, 48.89342021654813 ], [ 2.498091690003929, 48.893390274640709 ] ] ], [ [ [ 2.498145421412036, 48.893532320875579 ], [ 2.498243135650769, 48.893497747222277 ], [ 2.498295673967038, 48.893565505432093 ], [ 2.49819714917389, 48.89359926635067 ], [ 2.498145421412036, 48.893532320875579 ] ] ] ] } },
{ "type": "Feature", "properties": { "start_date": 1910, "construction_date.nb": 1, "historic.building": "yes" }, "geometry": { "type": "Polygon", "coordinates": [ [ [ 2.498004658826566, 48.89342021654813 ], [ 2.497983775396828, 48.89339359938559 ], [ 2.497962225639604, 48.893365360693657 ], [ 2.49793273261412, 48.893326386893847 ], [ 2.498028668375599, 48.893292345517104 ], [ 2.498055092298133, 48.893324291829821 ], [ 2.498043590318019, 48.893329009945397 ], [ 2.498091690025122, 48.893390274633191 ], [ 2.498091690003929, 48.893390274640709 ], [ 2.498004658826566, 48.89342021654813 ] ] ] } },
{ "type": "Feature", "properties": { "start_date": 1901, "construction_date.nb": 1, "historic.building": "yes" }, "geometry": { "type": "Polygon", "coordinates": [ [ [ 2.497960891756411, 48.893135941304351 ], [ 2.498046034905599, 48.893245204580545 ], [ 2.497944773371823, 48.893279943073566 ], [ 2.497860449553027, 48.893170593248016 ], [ 2.497960891756411, 48.893135941304351 ] ] ] } },
{ "type": "Feature", "properties": { "start_date": 1988, "construction_date.nb": 1, "historic.building": "yes" }, "geometry": { "type": "Polygon", "coordinates": [ [ [ 2.497917238346056, 48.893080360832421 ], [ 2.497942689216992, 48.893114191638318 ], [ 2.497842657957956, 48.893148665424526 ], [ 2.49780320127614, 48.893096340028578 ], [ 2.497884621349529, 48.893068353192795 ], [ 2.497893103855567, 48.893065600922682 ], [ 2.49790698026558, 48.893083375475669 ], [ 2.497917238346056, 48.893080360832421 ] ] ] } },
{ "type": "Feature", "properties": { "start_date": 1925, "construction_date.nb": 1, "historic.building": "yes" }, "geometry": { "type": "Polygon", "coordinates": [ [ [ 2.497917238346056, 48.893080360832421 ], [ 2.497942689216992, 48.893114191638318 ], [ 2.497842657957956, 48.893148665424526 ], [ 2.49780320127614, 48.893096340028578 ], [ 2.497884621349529, 48.893068353192795 ], [ 2.497893103855567, 48.893065600922682 ], [ 2.49790698026558, 48.893083375475669 ], [ 2.497917238346056, 48.893080360832421 ] ] ] } },
{ "type": "Feature", "properties": { "start_date": 1920, "construction_date.nb": 2, "historic.building": "yes" }, "geometry": { "type": "Polygon", "coordinates": [ [ [ 2.497883349685699, 48.892969057976543 ], [ 2.49786050078176, 48.892974447157009 ], [ 2.4977829, 48.892992700000015 ], [ 2.497748713095408, 48.892999776589583 ], [ 2.497748623132328, 48.8929997950816 ], [ 2.497748618565482, 48.892999796157 ], [ 2.4977486, 48.8929998 ], [ 2.4977309, 48.8929608 ], [ 2.497762, 48.892953299999988 ], [ 2.4977703, 48.892969499999978 ], [ 2.4978358, 48.892955399999956 ], [ 2.4978304, 48.892945199999986 ], [ 2.497815, 48.8929481 ], [ 2.4978106, 48.892939399999975 ], [ 2.4978252, 48.892936099999957 ], [ 2.4978083, 48.892903699999955 ], [ 2.4977192, 48.892924500000021 ], [ 2.4977021, 48.8928911 ], [ 2.497702075867134, 48.892891052581049 ], [ 2.497733748080659, 48.892883660905895 ], [ 2.497790651004671, 48.892870380849949 ], [ 2.497807146525587, 48.892866491163524 ], [ 2.497883349685699, 48.892969057976543 ] ] ] } },
{ "type": "Feature", "properties": { "start_date": 1928, "construction_date.nb": 3, "historic.building": "yes" }, "geometry": { "type": "Polygon", "coordinates": [ [ [ 2.497807146525587, 48.892866491163524 ], [ 2.497790651004671, 48.892870380849949 ], [ 2.497733748080659, 48.892883660905895 ], [ 2.497702075867134, 48.892891052581049 ], [ 2.4976907, 48.8928687 ], [ 2.4977355, 48.8928589 ], [ 2.4977314, 48.8928505 ], [ 2.4977598, 48.892843 ], [ 2.4977276, 48.892775499999985 ], [ 2.4977108, 48.89278 ], [ 2.4977213, 48.892802200000013 ], [ 2.4975248, 48.8928454 ], [ 2.4975098, 48.892815 ], [ 2.497549134628006, 48.892805886831042 ], [ 2.497560259910663, 48.892803315158567 ], [ 2.497619033698592, 48.892790610328518 ], [ 2.4976774, 48.892778 ], [ 2.497678896461768, 48.892777590811328 ], [ 2.497690240635431, 48.892774542960055 ], [ 2.497731851759554, 48.892765146554808 ], [ 2.497807146525587, 48.892866491163524 ] ] ] } },
{ "type": "Feature", "properties": { "start_date": 1913, "construction_date.nb": 1, "historic.building": "yes" }, "geometry": { "type": "Polygon", "coordinates": [ [ [ 2.497170568572515, 48.892794885522285 ], [ 2.497180178694172, 48.892814669885098 ], [ 2.497167589151245, 48.892819023654276 ], [ 2.497180689561328, 48.89284650759852 ], [ 2.497239875213962, 48.892832996672887 ], [ 2.49724107151786, 48.892835368813003 ], [ 2.497259145849559, 48.892871208292043 ], [ 2.497182466920564, 48.892888422886919 ], [ 2.497137532952129, 48.892899114624846 ], [ 2.497120815016519, 48.892903092538326 ], [ 2.49712028808015, 48.892901953820079 ], [ 2.497097030932406, 48.892851694679337 ], [ 2.49714128683604, 48.89280234233707 ], [ 2.497170568572515, 48.892794885522285 ] ] ] } },
{ "type": "Feature", "properties": { "start_date": 1985, "construction_date.nb": 2, "historic.building": "yes" }, "geometry": { "type": "MultiPolygon", "coordinates": [ [ [ [ 2.497560257167087, 48.892803309923657 ], [ 2.497560259910663, 48.892803315158567 ], [ 2.497549134628006, 48.892805886831042 ], [ 2.497560257167087, 48.892803309923657 ] ] ], [ [ [ 2.497259145885832, 48.892871208284234 ], [ 2.497259145849559, 48.892871208292043 ], [ 2.49724107151786, 48.892835368813003 ], [ 2.497259145885832, 48.892871208284234 ] ] ] ] } },
{ "type": "Feature", "properties": { "start_date": 1913, "construction_date.nb": 2, "historic.building": "yes" }, "geometry": { "type": "MultiPolygon", "coordinates": [ [ [ [ 2.497731851759554, 48.892765146554808 ], [ 2.497690240635431, 48.892774542960055 ], [ 2.497678896461768, 48.892777590811328 ], [ 2.4976902, 48.892774500000051 ], [ 2.4976738, 48.892743300000035 ], [ 2.4976843, 48.8927412 ], [ 2.4976693, 48.892712 ], [ 2.4976563, 48.892715099999947 ], [ 2.4976522, 48.892704200000011 ], [ 2.4976633, 48.892701099999982 ], [ 2.497651, 48.892680899999959 ], [ 2.4975621, 48.892702300000018 ], [ 2.4975643, 48.892707899999984 ], [ 2.4975157, 48.892719399999976 ], [ 2.497510022403997, 48.892708440343277 ], [ 2.497661131413302, 48.892669958565882 ], [ 2.497731851759554, 48.892765146554808 ] ] ], [ [ [ 2.497619033698592, 48.892790610328518 ], [ 2.497560259910663, 48.892803315158567 ], [ 2.497560257167087, 48.892803309923657 ], [ 2.4975603, 48.8928033 ], [ 2.497619033698592, 48.892790610328518 ] ] ] ] } },
{ "type": "Feature", "properties": { "start_date": 1905, "construction_date.nb": 1, "historic.building": "yes" }, "geometry": { "type": "Polygon", "coordinates": [ [ [ 2.497484274433121, 48.893681351682019 ], [ 2.497535101726156, 48.893671942355596 ], [ 2.497511639892945, 48.893615727019032 ], [ 2.497587764703922, 48.893599499134481 ], [ 2.497611647024253, 48.893654547109477 ], [ 2.497632459406805, 48.893702657515981 ], [ 2.497609505425268, 48.893706877898857 ], [ 2.497622533401168, 48.893741915654481 ], [ 2.497622533390551, 48.893741915655923 ], [ 2.497542501001447, 48.89375318096608 ], [ 2.497509243383349, 48.89373685385997 ], [ 2.497484274433121, 48.893681351682019 ] ] ] } }
]
}
