{
"type": "FeatureCollection",
"name": "2_zone",
"crs": { "type": "name", "properties": { "name": "urn:ogc:def:crs:OGC:1.3:CRS84" } },
"features": [
{ "type": "Feature", "properties": { "name": 2, "boundary": "patrimoine" }, "geometry": { "type": "Polygon", "coordinates": [ [ [ 2.497661131413303, 48.892669958565882 ], [ 2.49714128683604, 48.89280234233707 ], [ 2.495902992733845, 48.894183193225857 ], [ 2.496852685457735, 48.895578209441609 ], [ 2.497914806223612, 48.895786248056503 ], [ 2.499046614806358, 48.895841639874163 ], [ 2.499203321828974, 48.895811011076802 ], [ 2.499733422061962, 48.895704507707499 ], [ 2.499703974560652, 48.895419415909828 ], [ 2.497661131413303, 48.892669958565882 ] ] ] } },
{ "type": "Feature", "properties": { "name": 2, "boundary": "patrimoine" }, "geometry": { "type": "Polygon", "coordinates": [ [ [ 2.497661131413303, 48.892669958565882 ], [ 2.49714128683604, 48.89280234233707 ], [ 2.495902992733845, 48.894183193225857 ], [ 2.496852685457735, 48.895578209441609 ], [ 2.497914806223612, 48.895786248056503 ], [ 2.499046614806358, 48.895841639874163 ], [ 2.499203321828974, 48.895811011076802 ], [ 2.499733422061962, 48.895704507707499 ], [ 2.499703974560652, 48.895419415909828 ], [ 2.497661131413303, 48.892669958565882 ] ] ] } },
{ "type": "Feature", "properties": { "name": 2, "boundary": "patrimoine" }, "geometry": { "type": "Polygon", "coordinates": [ [ [ 2.497661131413303, 48.892669958565882 ], [ 2.49714128683604, 48.89280234233707 ], [ 2.495902992733845, 48.894183193225857 ], [ 2.496852685457735, 48.895578209441609 ], [ 2.497914806223612, 48.895786248056503 ], [ 2.499046614806358, 48.895841639874163 ], [ 2.499203321828974, 48.895811011076802 ], [ 2.499733422061962, 48.895704507707499 ], [ 2.499703974560652, 48.895419415909828 ], [ 2.497661131413303, 48.892669958565882 ] ] ] } }
]
}
