{
"type": "FeatureCollection",
"name": "3_adresse",
"crs": { "type": "name", "properties": { "name": "urn:ogc:def:crs:OGC:1.3:CRS84" } },
"features": [
{ "type": "Feature", "properties": { "building.architecture": "Lotissements/maisons pavillonnaires", "building.architecture.niveau": " 2", "addr.housenumber": "4", "addr.street": "Allee Rulhiere" }, "geometry": { "type": "Point", "coordinates": [ 2.472797, 48.901548 ] } },
{ "type": "Feature", "properties": { "building.architecture": "Lotissements/maisons pavillonnaires", "building.architecture.niveau": " 2", "addr.housenumber": "4bis", "addr.street": "Allee Rulhiere" }, "geometry": { "type": "Point", "coordinates": [ 2.47299, 48.901365 ] } },
{ "type": "Feature", "properties": { "building.architecture": "Lotissements/maisons pavillonnaires", "building.architecture.niveau": " 2", "addr.housenumber": "167", "addr.street": "Avenue de Rosny" }, "geometry": { "type": "Point", "coordinates": [ 2.470844, 48.899264 ] } },
{ "type": "Feature", "properties": { "building.architecture": "Lotissements/maisons pavillonnaires", "building.architecture.niveau": " 2", "addr.housenumber": "179", "addr.street": "Avenue de Rosny" }, "geometry": { "type": "Point", "coordinates": [ 2.470824, 48.899766 ] } },
{ "type": "Feature", "properties": { "building.architecture": "Lotissements/maisons pavillonnaires", "building.architecture.niveau": " 2", "addr.housenumber": "209", "addr.street": "Avenue de Rosny" }, "geometry": { "type": "Point", "coordinates": [ 2.470726, 48.901328 ] } },
{ "type": "Feature", "properties": { "building.architecture": "Lotissements/maisons pavillonnaires", "building.architecture.niveau": " 2", "addr.housenumber": "218", "addr.street": "Avenue de Rosny" }, "geometry": { "type": "Point", "coordinates": [ 2.470978, 48.901142 ] } },
{ "type": "Feature", "properties": { "building.architecture": "Immeubles", "building.architecture.niveau": " 2", "addr.housenumber": "220", "addr.street": "Avenue de Rosny" }, "geometry": { "type": "Point", "coordinates": [ 2.470969, 48.901258 ] } },
{ "type": "Feature", "properties": { "building.architecture": "Immeubles", "building.architecture.niveau": " 2", "addr.housenumber": "222", "addr.street": "Avenue de Rosny" }, "geometry": { "type": "Point", "coordinates": [ 2.470953, 48.901354 ] } },
{ "type": "Feature", "properties": { "building.architecture": "Edifices du culte", "building.architecture.niveau": " 2", "addr.housenumber": "224", "addr.street": "Avenue de Rosny" }, "geometry": { "type": "Point", "coordinates": [ 2.470948, 48.901499 ] } },
{ "type": "Feature", "properties": { "building.architecture": "Lotissements/maisons pavillonnaires", "building.architecture.niveau": " 2", "addr.housenumber": "18", "addr.street": "Rue de Cronstadt" }, "geometry": { "type": "Point", "coordinates": [ 2.472815, 48.900548 ] } },
{ "type": "Feature", "properties": { "building.architecture": "Lotissements/maisons pavillonnaires", "building.architecture.niveau": " 2", "addr.housenumber": "5", "addr.street": "Rue de Cronstadt" }, "geometry": { "type": "Point", "coordinates": [ 2.47313, 48.900995 ] } },
{ "type": "Feature", "properties": { "building.architecture": "Lotissements/maisons pavillonnaires", "building.architecture.niveau": " 2", "addr.housenumber": "6", "addr.street": "Rue de Cronstadt" }, "geometry": { "type": "Point", "coordinates": [ 2.473088, 48.901101 ] } },
{ "type": "Feature", "properties": { "building.architecture": "Lotissements/maisons pavillonnaires", "building.architecture.niveau": " 2", "addr.housenumber": "8", "addr.street": "Rue de Cronstadt" }, "geometry": { "type": "Point", "coordinates": [ 2.473043, 48.901007 ] } },
{ "type": "Feature", "properties": { "building.architecture": "Lotissements/maisons pavillonnaires", "building.architecture.niveau": " 2", "addr.housenumber": "9", "addr.street": "Rue de Cronstadt" }, "geometry": { "type": "Point", "coordinates": [ 2.473054, 48.900837 ] } },
{ "type": "Feature", "properties": { "building.architecture": "Lotissements/maisons pavillonnaires", "building.architecture.niveau": " 2", "addr.housenumber": "10", "addr.street": "Rue de Cronstadt" }, "geometry": { "type": "Point", "coordinates": [ 2.473007, 48.900927 ] } },
{ "type": "Feature", "properties": { "building.architecture": "Lotissements/maisons pavillonnaires", "building.architecture.niveau": " 2", "addr.housenumber": "11", "addr.street": "Rue de Cronstadt" }, "geometry": { "type": "Point", "coordinates": [ 2.473015, 48.900756 ] } },
{ "type": "Feature", "properties": { "building.architecture": "Lotissements/maisons pavillonnaires", "building.architecture.niveau": " 2", "addr.housenumber": "12", "addr.street": "Rue de Cronstadt" }, "geometry": { "type": "Point", "coordinates": [ 2.472961, 48.900841 ] } },
{ "type": "Feature", "properties": { "building.architecture": "Lotissements/maisons pavillonnaires", "building.architecture.niveau": " 2", "addr.housenumber": "14", "addr.street": "Rue de Cronstadt" }, "geometry": { "type": "Point", "coordinates": [ 2.472917, 48.900749 ] } },
{ "type": "Feature", "properties": { "building.architecture": "Lotissements/maisons pavillonnaires", "building.architecture.niveau": " 2", "addr.housenumber": "16", "addr.street": "Rue de Cronstadt" }, "geometry": { "type": "Point", "coordinates": [ 2.472869, 48.900655 ] } },
{ "type": "Feature", "properties": { "building.architecture": "Lotissements/maisons pavillonnaires", "building.architecture.niveau": " 2", "addr.housenumber": "17", "addr.street": "Rue de Cronstadt" }, "geometry": { "type": "Point", "coordinates": [ 2.472892, 48.900507 ] } },
{ "type": "Feature", "properties": { "building.architecture": "Lotissements/maisons pavillonnaires", "building.architecture.niveau": " 2", "addr.housenumber": "19", "addr.street": "Rue de Cronstadt" }, "geometry": { "type": "Point", "coordinates": [ 2.472836, 48.900393 ] } },
{ "type": "Feature", "properties": { "building.architecture": "Lotissements/maisons pavillonnaires", "building.architecture.niveau": " 2", "addr.housenumber": "20", "addr.street": "Rue de Cronstadt" }, "geometry": { "type": "Point", "coordinates": [ 2.472777, 48.900464 ] } },
{ "type": "Feature", "properties": { "building.architecture": "Lotissements/maisons pavillonnaires", "building.architecture.niveau": " 2", "addr.housenumber": "22", "addr.street": "Rue de Cronstadt" }, "geometry": { "type": "Point", "coordinates": [ 2.472735, 48.900383 ] } },
{ "type": "Feature", "properties": { "building.architecture": "Lotissements/maisons pavillonnaires", "building.architecture.niveau": " 2", "addr.housenumber": "7", "addr.street": "Rue du Potager" }, "geometry": { "type": "Point", "coordinates": [ 2.472513, 48.902473 ] } },
{ "type": "Feature", "properties": { "building.architecture": "Maisons de bourg", "building.architecture.niveau": " 2", "addr.housenumber": "3", "addr.street": "Rue Michelet" }, "geometry": { "type": "Point", "coordinates": [ 2.471366, 48.900395 ] } },
{ "type": "Feature", "properties": { "building.architecture": "Lotissements/maisons pavillonnaires", "building.architecture.niveau": " 2", "addr.housenumber": "19", "addr.street": "Rue Michelet" }, "geometry": { "type": "Point", "coordinates": [ 2.472368, 48.900303 ] } },
{ "type": "Feature", "properties": { "building.architecture": "Maisons de bourg", "building.architecture.niveau": " 2", "addr.housenumber": "28", "addr.street": "Rue Michelet" }, "geometry": { "type": "Point", "coordinates": [ 2.472734, 48.900134 ] } },
{ "type": "Feature", "properties": { "building.architecture": "Maisons de bourg", "building.architecture.niveau": " 2", "addr.housenumber": "30", "addr.street": "Rue Michelet" }, "geometry": { "type": "Point", "coordinates": [ 2.472811, 48.900116 ] } },
{ "type": "Feature", "properties": { "building.architecture": "Lotissements/maisons pavillonnaires", "building.architecture.niveau": " 2", "addr.housenumber": "19bis", "addr.street": "Rue Michelet" }, "geometry": { "type": "Point", "coordinates": [ 2.472467, 48.900325 ] } },
{ "type": "Feature", "properties": { "building.architecture": "Lotissements/maisons pavillonnaires", "building.architecture.niveau": " 2", "addr.housenumber": "19ter", "addr.street": "Rue Michelet" }, "geometry": { "type": "Point", "coordinates": [ 2.47259, 48.90031 ] } },
{ "type": "Feature", "properties": { "building.architecture": "Maisons de bourg", "building.architecture.niveau": " 2", "addr.housenumber": "3bis", "addr.street": "Rue Michelet" }, "geometry": { "type": "Point", "coordinates": [ 2.471427, 48.900392 ] } },
{ "type": "Feature", "properties": { "building.architecture": "Maisons de bourg", "building.architecture.niveau": " 2", "addr.housenumber": "6", "addr.street": "Rue Philéas Collardeau" }, "geometry": { "type": "Point", "coordinates": [ 2.471685, 48.901562 ] } },
{ "type": "Feature", "properties": { "building.architecture": "Maisons de bourg", "building.architecture.niveau": " 2", "addr.housenumber": "8", "addr.street": "Rue Philéas Collardeau" }, "geometry": { "type": "Point", "coordinates": [ 2.471794, 48.901566 ] } },
{ "type": "Feature", "properties": { "building.architecture": "Lotissements/maisons pavillonnaires", "building.architecture.niveau": " 2", "addr.housenumber": "10", "addr.street": "Rue Philéas Collardeau" }, "geometry": { "type": "Point", "coordinates": [ 2.471864, 48.901567 ] } },
{ "type": "Feature", "properties": { "building.architecture": "Lotissements/maisons pavillonnaires", "building.architecture.niveau": " 2", "addr.housenumber": "23", "addr.street": "Rue Philéas Collardeau" }, "geometry": { "type": "Point", "coordinates": [ 2.472994, 48.901909 ] } },
{ "type": "Feature", "properties": { "building.architecture": "Lotissements/maisons pavillonnaires", "building.architecture.niveau": " 2", "addr.housenumber": "24", "addr.street": "Rue Philéas Collardeau" }, "geometry": { "type": "Point", "coordinates": [ 2.473, 48.901811 ] } },
{ "type": "Feature", "properties": { "building.architecture": "Lotissements/maisons pavillonnaires", "building.architecture.niveau": " 2", "addr.housenumber": "3", "addr.street": "Villa Gabriel Seailles" }, "geometry": { "type": "Point", "coordinates": [ 2.471156, 48.902114 ] } },
{ "type": "Feature", "properties": { "building.architecture": "Lotissements/maisons pavillonnaires", "building.architecture.niveau": " 2", "addr.housenumber": "7", "addr.street": "Villa Gabriel Seailles" }, "geometry": { "type": "Point", "coordinates": [ 2.47143, 48.902116 ] } },
{ "type": "Feature", "properties": { "building.architecture": "Lotissements/maisons pavillonnaires", "building.architecture.niveau": " 2", "addr.housenumber": "8", "addr.street": "Villa Gabriel Seailles" }, "geometry": { "type": "Point", "coordinates": [ 2.471392, 48.902057 ] } },
{ "type": "Feature", "properties": { "building.architecture": "Lotissements/maisons pavillonnaires", "building.architecture.niveau": " 2", "addr.housenumber": "14", "addr.street": "Villa Gabriel Seailles" }, "geometry": { "type": "Point", "coordinates": [ 2.471765, 48.902061 ] } },
{ "type": "Feature", "properties": { "building.architecture": "Lotissements/maisons pavillonnaires", "building.architecture.niveau": " 2", "addr.housenumber": "15", "addr.street": "Villa Gabriel Seailles" }, "geometry": { "type": "Point", "coordinates": [ 2.471922, 48.902126 ] } },
{ "type": "Feature", "properties": { "building.architecture": "Lotissements/maisons pavillonnaires", "building.architecture.niveau": " 2", "addr.housenumber": "16", "addr.street": "Villa Gabriel Seailles" }, "geometry": { "type": "Point", "coordinates": [ 2.471908, 48.902065 ] } },
{ "type": "Feature", "properties": { "building.architecture": "Lotissements\/maisons pavillonnaires", "building.architecture.niveau": " 2", "addr.housenumber": "4", "addr.street": "Allee Rulhiere" }, "geometry": { "type": "Point", "coordinates": [ 2.472797, 48.901548 ] } },
{ "type": "Feature", "properties": { "building.architecture": "Lotissements\/maisons pavillonnaires", "building.architecture.niveau": " 2", "addr.housenumber": "4bis", "addr.street": "Allee Rulhiere" }, "geometry": { "type": "Point", "coordinates": [ 2.47299, 48.901365 ] } },
{ "type": "Feature", "properties": { "building.architecture": "Lotissements\/maisons pavillonnaires", "building.architecture.niveau": " 2", "addr.housenumber": "167", "addr.street": "Avenue de Rosny" }, "geometry": { "type": "Point", "coordinates": [ 2.470844, 48.899264 ] } },
{ "type": "Feature", "properties": { "building.architecture": "Lotissements\/maisons pavillonnaires", "building.architecture.niveau": " 2", "addr.housenumber": "179", "addr.street": "Avenue de Rosny" }, "geometry": { "type": "Point", "coordinates": [ 2.470824, 48.899766 ] } },
{ "type": "Feature", "properties": { "building.architecture": "Lotissements\/maisons pavillonnaires", "building.architecture.niveau": " 2", "addr.housenumber": "209", "addr.street": "Avenue de Rosny" }, "geometry": { "type": "Point", "coordinates": [ 2.470726, 48.901328 ] } },
{ "type": "Feature", "properties": { "building.architecture": "Lotissements\/maisons pavillonnaires", "building.architecture.niveau": " 2", "addr.housenumber": "218", "addr.street": "Avenue de Rosny" }, "geometry": { "type": "Point", "coordinates": [ 2.470978, 48.901142 ] } },
{ "type": "Feature", "properties": { "building.architecture": "Immeubles", "building.architecture.niveau": " 2", "addr.housenumber": "220", "addr.street": "Avenue de Rosny" }, "geometry": { "type": "Point", "coordinates": [ 2.470969, 48.901258 ] } },
{ "type": "Feature", "properties": { "building.architecture": "Immeubles", "building.architecture.niveau": " 2", "addr.housenumber": "222", "addr.street": "Avenue de Rosny" }, "geometry": { "type": "Point", "coordinates": [ 2.470953, 48.901354 ] } },
{ "type": "Feature", "properties": { "building.architecture": "Edifices du culte", "building.architecture.niveau": " 2", "addr.housenumber": "224", "addr.street": "Avenue de Rosny" }, "geometry": { "type": "Point", "coordinates": [ 2.470948, 48.901499 ] } },
{ "type": "Feature", "properties": { "building.architecture": "Lotissements\/maisons pavillonnaires", "building.architecture.niveau": " 2", "addr.housenumber": "18", "addr.street": "Rue de Cronstadt" }, "geometry": { "type": "Point", "coordinates": [ 2.472815, 48.900548 ] } },
{ "type": "Feature", "properties": { "building.architecture": "Lotissements\/maisons pavillonnaires", "building.architecture.niveau": " 2", "addr.housenumber": "5", "addr.street": "Rue de Cronstadt" }, "geometry": { "type": "Point", "coordinates": [ 2.47313, 48.900995 ] } },
{ "type": "Feature", "properties": { "building.architecture": "Lotissements\/maisons pavillonnaires", "building.architecture.niveau": " 2", "addr.housenumber": "6", "addr.street": "Rue de Cronstadt" }, "geometry": { "type": "Point", "coordinates": [ 2.473088, 48.901101 ] } },
{ "type": "Feature", "properties": { "building.architecture": "Lotissements\/maisons pavillonnaires", "building.architecture.niveau": " 2", "addr.housenumber": "8", "addr.street": "Rue de Cronstadt" }, "geometry": { "type": "Point", "coordinates": [ 2.473043, 48.901007 ] } },
{ "type": "Feature", "properties": { "building.architecture": "Lotissements\/maisons pavillonnaires", "building.architecture.niveau": " 2", "addr.housenumber": "9", "addr.street": "Rue de Cronstadt" }, "geometry": { "type": "Point", "coordinates": [ 2.473054, 48.900837 ] } },
{ "type": "Feature", "properties": { "building.architecture": "Lotissements\/maisons pavillonnaires", "building.architecture.niveau": " 2", "addr.housenumber": "10", "addr.street": "Rue de Cronstadt" }, "geometry": { "type": "Point", "coordinates": [ 2.473007, 48.900927 ] } },
{ "type": "Feature", "properties": { "building.architecture": "Lotissements\/maisons pavillonnaires", "building.architecture.niveau": " 2", "addr.housenumber": "11", "addr.street": "Rue de Cronstadt" }, "geometry": { "type": "Point", "coordinates": [ 2.473015, 48.900756 ] } },
{ "type": "Feature", "properties": { "building.architecture": "Lotissements\/maisons pavillonnaires", "building.architecture.niveau": " 2", "addr.housenumber": "12", "addr.street": "Rue de Cronstadt" }, "geometry": { "type": "Point", "coordinates": [ 2.472961, 48.900841 ] } },
{ "type": "Feature", "properties": { "building.architecture": "Lotissements\/maisons pavillonnaires", "building.architecture.niveau": " 2", "addr.housenumber": "14", "addr.street": "Rue de Cronstadt" }, "geometry": { "type": "Point", "coordinates": [ 2.472917, 48.900749 ] } },
{ "type": "Feature", "properties": { "building.architecture": "Lotissements\/maisons pavillonnaires", "building.architecture.niveau": " 2", "addr.housenumber": "16", "addr.street": "Rue de Cronstadt" }, "geometry": { "type": "Point", "coordinates": [ 2.472869, 48.900655 ] } },
{ "type": "Feature", "properties": { "building.architecture": "Lotissements\/maisons pavillonnaires", "building.architecture.niveau": " 2", "addr.housenumber": "17", "addr.street": "Rue de Cronstadt" }, "geometry": { "type": "Point", "coordinates": [ 2.472892, 48.900507 ] } },
{ "type": "Feature", "properties": { "building.architecture": "Lotissements\/maisons pavillonnaires", "building.architecture.niveau": " 2", "addr.housenumber": "19", "addr.street": "Rue de Cronstadt" }, "geometry": { "type": "Point", "coordinates": [ 2.472836, 48.900393 ] } },
{ "type": "Feature", "properties": { "building.architecture": "Lotissements\/maisons pavillonnaires", "building.architecture.niveau": " 2", "addr.housenumber": "20", "addr.street": "Rue de Cronstadt" }, "geometry": { "type": "Point", "coordinates": [ 2.472777, 48.900464 ] } },
{ "type": "Feature", "properties": { "building.architecture": "Lotissements\/maisons pavillonnaires", "building.architecture.niveau": " 2", "addr.housenumber": "22", "addr.street": "Rue de Cronstadt" }, "geometry": { "type": "Point", "coordinates": [ 2.472735, 48.900383 ] } },
{ "type": "Feature", "properties": { "building.architecture": "Lotissements\/maisons pavillonnaires", "building.architecture.niveau": " 2", "addr.housenumber": "7", "addr.street": "Rue du Potager" }, "geometry": { "type": "Point", "coordinates": [ 2.472513, 48.902473 ] } },
{ "type": "Feature", "properties": { "building.architecture": "Maisons de bourg", "building.architecture.niveau": " 2", "addr.housenumber": "3", "addr.street": "Rue Michelet" }, "geometry": { "type": "Point", "coordinates": [ 2.471366, 48.900395 ] } },
{ "type": "Feature", "properties": { "building.architecture": "Lotissements\/maisons pavillonnaires", "building.architecture.niveau": " 2", "addr.housenumber": "19", "addr.street": "Rue Michelet" }, "geometry": { "type": "Point", "coordinates": [ 2.472368, 48.900303 ] } },
{ "type": "Feature", "properties": { "building.architecture": "Maisons de bourg", "building.architecture.niveau": " 2", "addr.housenumber": "28", "addr.street": "Rue Michelet" }, "geometry": { "type": "Point", "coordinates": [ 2.472734, 48.900134 ] } },
{ "type": "Feature", "properties": { "building.architecture": "Maisons de bourg", "building.architecture.niveau": " 2", "addr.housenumber": "30", "addr.street": "Rue Michelet" }, "geometry": { "type": "Point", "coordinates": [ 2.472811, 48.900116 ] } },
{ "type": "Feature", "properties": { "building.architecture": "Lotissements\/maisons pavillonnaires", "building.architecture.niveau": " 2", "addr.housenumber": "19bis", "addr.street": "Rue Michelet" }, "geometry": { "type": "Point", "coordinates": [ 2.472467, 48.900325 ] } },
{ "type": "Feature", "properties": { "building.architecture": "Lotissements\/maisons pavillonnaires", "building.architecture.niveau": " 2", "addr.housenumber": "19ter", "addr.street": "Rue Michelet" }, "geometry": { "type": "Point", "coordinates": [ 2.47259, 48.90031 ] } },
{ "type": "Feature", "properties": { "building.architecture": "Maisons de bourg", "building.architecture.niveau": " 2", "addr.housenumber": "3bis", "addr.street": "Rue Michelet" }, "geometry": { "type": "Point", "coordinates": [ 2.471427, 48.900392 ] } },
{ "type": "Feature", "properties": { "building.architecture": "Maisons de bourg", "building.architecture.niveau": " 2", "addr.housenumber": "6", "addr.street": "Rue Philéas Collardeau" }, "geometry": { "type": "Point", "coordinates": [ 2.471685, 48.901562 ] } },
{ "type": "Feature", "properties": { "building.architecture": "Maisons de bourg", "building.architecture.niveau": " 2", "addr.housenumber": "8", "addr.street": "Rue Philéas Collardeau" }, "geometry": { "type": "Point", "coordinates": [ 2.471794, 48.901566 ] } },
{ "type": "Feature", "properties": { "building.architecture": "Lotissements\/maisons pavillonnaires", "building.architecture.niveau": " 2", "addr.housenumber": "10", "addr.street": "Rue Philéas Collardeau" }, "geometry": { "type": "Point", "coordinates": [ 2.471864, 48.901567 ] } },
{ "type": "Feature", "properties": { "building.architecture": "Lotissements\/maisons pavillonnaires", "building.architecture.niveau": " 2", "addr.housenumber": "23", "addr.street": "Rue Philéas Collardeau" }, "geometry": { "type": "Point", "coordinates": [ 2.472994, 48.901909 ] } },
{ "type": "Feature", "properties": { "building.architecture": "Lotissements\/maisons pavillonnaires", "building.architecture.niveau": " 2", "addr.housenumber": "24", "addr.street": "Rue Philéas Collardeau" }, "geometry": { "type": "Point", "coordinates": [ 2.473, 48.901811 ] } },
{ "type": "Feature", "properties": { "building.architecture": "Lotissements\/maisons pavillonnaires", "building.architecture.niveau": " 2", "addr.housenumber": "3", "addr.street": "Villa Gabriel Seailles" }, "geometry": { "type": "Point", "coordinates": [ 2.471156, 48.902114 ] } },
{ "type": "Feature", "properties": { "building.architecture": "Lotissements\/maisons pavillonnaires", "building.architecture.niveau": " 2", "addr.housenumber": "7", "addr.street": "Villa Gabriel Seailles" }, "geometry": { "type": "Point", "coordinates": [ 2.47143, 48.902116 ] } },
{ "type": "Feature", "properties": { "building.architecture": "Lotissements\/maisons pavillonnaires", "building.architecture.niveau": " 2", "addr.housenumber": "8", "addr.street": "Villa Gabriel Seailles" }, "geometry": { "type": "Point", "coordinates": [ 2.471392, 48.902057 ] } },
{ "type": "Feature", "properties": { "building.architecture": "Lotissements\/maisons pavillonnaires", "building.architecture.niveau": " 2", "addr.housenumber": "14", "addr.street": "Villa Gabriel Seailles" }, "geometry": { "type": "Point", "coordinates": [ 2.471765, 48.902061 ] } },
{ "type": "Feature", "properties": { "building.architecture": "Lotissements\/maisons pavillonnaires", "building.architecture.niveau": " 2", "addr.housenumber": "15", "addr.street": "Villa Gabriel Seailles" }, "geometry": { "type": "Point", "coordinates": [ 2.471922, 48.902126 ] } },
{ "type": "Feature", "properties": { "building.architecture": "Lotissements\/maisons pavillonnaires", "building.architecture.niveau": " 2", "addr.housenumber": "16", "addr.street": "Villa Gabriel Seailles" }, "geometry": { "type": "Point", "coordinates": [ 2.471908, 48.902065 ] } },
{ "type": "Feature", "properties": { "building.architecture": "Lotissements\/maisons pavillonnaires", "building.architecture.niveau": " 2", "addr.housenumber": "4", "addr.street": "Allee Rulhiere" }, "geometry": { "type": "Point", "coordinates": [ 2.472797, 48.901548 ] } },
{ "type": "Feature", "properties": { "building.architecture": "Lotissements\/maisons pavillonnaires", "building.architecture.niveau": " 2", "addr.housenumber": "4bis", "addr.street": "Allee Rulhiere" }, "geometry": { "type": "Point", "coordinates": [ 2.47299, 48.901365 ] } },
{ "type": "Feature", "properties": { "building.architecture": "Lotissements\/maisons pavillonnaires", "building.architecture.niveau": " 2", "addr.housenumber": "167", "addr.street": "Avenue de Rosny" }, "geometry": { "type": "Point", "coordinates": [ 2.470844, 48.899264 ] } },
{ "type": "Feature", "properties": { "building.architecture": "Lotissements\/maisons pavillonnaires", "building.architecture.niveau": " 2", "addr.housenumber": "179", "addr.street": "Avenue de Rosny" }, "geometry": { "type": "Point", "coordinates": [ 2.470824, 48.899766 ] } },
{ "type": "Feature", "properties": { "building.architecture": "Lotissements\/maisons pavillonnaires", "building.architecture.niveau": " 2", "addr.housenumber": "209", "addr.street": "Avenue de Rosny" }, "geometry": { "type": "Point", "coordinates": [ 2.470726, 48.901328 ] } },
{ "type": "Feature", "properties": { "building.architecture": "Lotissements\/maisons pavillonnaires", "building.architecture.niveau": " 2", "addr.housenumber": "218", "addr.street": "Avenue de Rosny" }, "geometry": { "type": "Point", "coordinates": [ 2.470978, 48.901142 ] } },
{ "type": "Feature", "properties": { "building.architecture": "Immeubles", "building.architecture.niveau": " 2", "addr.housenumber": "220", "addr.street": "Avenue de Rosny" }, "geometry": { "type": "Point", "coordinates": [ 2.470969, 48.901258 ] } },
{ "type": "Feature", "properties": { "building.architecture": "Immeubles", "building.architecture.niveau": " 2", "addr.housenumber": "222", "addr.street": "Avenue de Rosny" }, "geometry": { "type": "Point", "coordinates": [ 2.470953, 48.901354 ] } },
{ "type": "Feature", "properties": { "building.architecture": "Edifices du culte", "building.architecture.niveau": " 2", "addr.housenumber": "224", "addr.street": "Avenue de Rosny" }, "geometry": { "type": "Point", "coordinates": [ 2.470948, 48.901499 ] } },
{ "type": "Feature", "properties": { "building.architecture": "Lotissements\/maisons pavillonnaires", "building.architecture.niveau": " 2", "addr.housenumber": "18", "addr.street": "Rue de Cronstadt" }, "geometry": { "type": "Point", "coordinates": [ 2.472815, 48.900548 ] } },
{ "type": "Feature", "properties": { "building.architecture": "Lotissements\/maisons pavillonnaires", "building.architecture.niveau": " 2", "addr.housenumber": "5", "addr.street": "Rue de Cronstadt" }, "geometry": { "type": "Point", "coordinates": [ 2.47313, 48.900995 ] } },
{ "type": "Feature", "properties": { "building.architecture": "Lotissements\/maisons pavillonnaires", "building.architecture.niveau": " 2", "addr.housenumber": "6", "addr.street": "Rue de Cronstadt" }, "geometry": { "type": "Point", "coordinates": [ 2.473088, 48.901101 ] } },
{ "type": "Feature", "properties": { "building.architecture": "Lotissements\/maisons pavillonnaires", "building.architecture.niveau": " 2", "addr.housenumber": "8", "addr.street": "Rue de Cronstadt" }, "geometry": { "type": "Point", "coordinates": [ 2.473043, 48.901007 ] } },
{ "type": "Feature", "properties": { "building.architecture": "Lotissements\/maisons pavillonnaires", "building.architecture.niveau": " 2", "addr.housenumber": "9", "addr.street": "Rue de Cronstadt" }, "geometry": { "type": "Point", "coordinates": [ 2.473054, 48.900837 ] } },
{ "type": "Feature", "properties": { "building.architecture": "Lotissements\/maisons pavillonnaires", "building.architecture.niveau": " 2", "addr.housenumber": "10", "addr.street": "Rue de Cronstadt" }, "geometry": { "type": "Point", "coordinates": [ 2.473007, 48.900927 ] } },
{ "type": "Feature", "properties": { "building.architecture": "Lotissements\/maisons pavillonnaires", "building.architecture.niveau": " 2", "addr.housenumber": "11", "addr.street": "Rue de Cronstadt" }, "geometry": { "type": "Point", "coordinates": [ 2.473015, 48.900756 ] } },
{ "type": "Feature", "properties": { "building.architecture": "Lotissements\/maisons pavillonnaires", "building.architecture.niveau": " 2", "addr.housenumber": "12", "addr.street": "Rue de Cronstadt" }, "geometry": { "type": "Point", "coordinates": [ 2.472961, 48.900841 ] } },
{ "type": "Feature", "properties": { "building.architecture": "Lotissements\/maisons pavillonnaires", "building.architecture.niveau": " 2", "addr.housenumber": "14", "addr.street": "Rue de Cronstadt" }, "geometry": { "type": "Point", "coordinates": [ 2.472917, 48.900749 ] } },
{ "type": "Feature", "properties": { "building.architecture": "Lotissements\/maisons pavillonnaires", "building.architecture.niveau": " 2", "addr.housenumber": "16", "addr.street": "Rue de Cronstadt" }, "geometry": { "type": "Point", "coordinates": [ 2.472869, 48.900655 ] } },
{ "type": "Feature", "properties": { "building.architecture": "Lotissements\/maisons pavillonnaires", "building.architecture.niveau": " 2", "addr.housenumber": "17", "addr.street": "Rue de Cronstadt" }, "geometry": { "type": "Point", "coordinates": [ 2.472892, 48.900507 ] } },
{ "type": "Feature", "properties": { "building.architecture": "Lotissements\/maisons pavillonnaires", "building.architecture.niveau": " 2", "addr.housenumber": "19", "addr.street": "Rue de Cronstadt" }, "geometry": { "type": "Point", "coordinates": [ 2.472836, 48.900393 ] } },
{ "type": "Feature", "properties": { "building.architecture": "Lotissements\/maisons pavillonnaires", "building.architecture.niveau": " 2", "addr.housenumber": "20", "addr.street": "Rue de Cronstadt" }, "geometry": { "type": "Point", "coordinates": [ 2.472777, 48.900464 ] } },
{ "type": "Feature", "properties": { "building.architecture": "Lotissements\/maisons pavillonnaires", "building.architecture.niveau": " 2", "addr.housenumber": "22", "addr.street": "Rue de Cronstadt" }, "geometry": { "type": "Point", "coordinates": [ 2.472735, 48.900383 ] } },
{ "type": "Feature", "properties": { "building.architecture": "Lotissements\/maisons pavillonnaires", "building.architecture.niveau": " 2", "addr.housenumber": "7", "addr.street": "Rue du Potager" }, "geometry": { "type": "Point", "coordinates": [ 2.472513, 48.902473 ] } },
{ "type": "Feature", "properties": { "building.architecture": "Maisons de bourg", "building.architecture.niveau": " 2", "addr.housenumber": "3", "addr.street": "Rue Michelet" }, "geometry": { "type": "Point", "coordinates": [ 2.471366, 48.900395 ] } },
{ "type": "Feature", "properties": { "building.architecture": "Lotissements\/maisons pavillonnaires", "building.architecture.niveau": " 2", "addr.housenumber": "19", "addr.street": "Rue Michelet" }, "geometry": { "type": "Point", "coordinates": [ 2.472368, 48.900303 ] } },
{ "type": "Feature", "properties": { "building.architecture": "Maisons de bourg", "building.architecture.niveau": " 2", "addr.housenumber": "28", "addr.street": "Rue Michelet" }, "geometry": { "type": "Point", "coordinates": [ 2.472734, 48.900134 ] } },
{ "type": "Feature", "properties": { "building.architecture": "Maisons de bourg", "building.architecture.niveau": " 2", "addr.housenumber": "30", "addr.street": "Rue Michelet" }, "geometry": { "type": "Point", "coordinates": [ 2.472811, 48.900116 ] } },
{ "type": "Feature", "properties": { "building.architecture": "Lotissements\/maisons pavillonnaires", "building.architecture.niveau": " 2", "addr.housenumber": "19bis", "addr.street": "Rue Michelet" }, "geometry": { "type": "Point", "coordinates": [ 2.472467, 48.900325 ] } },
{ "type": "Feature", "properties": { "building.architecture": "Lotissements\/maisons pavillonnaires", "building.architecture.niveau": " 2", "addr.housenumber": "19ter", "addr.street": "Rue Michelet" }, "geometry": { "type": "Point", "coordinates": [ 2.47259, 48.90031 ] } },
{ "type": "Feature", "properties": { "building.architecture": "Maisons de bourg", "building.architecture.niveau": " 2", "addr.housenumber": "3bis", "addr.street": "Rue Michelet" }, "geometry": { "type": "Point", "coordinates": [ 2.471427, 48.900392 ] } },
{ "type": "Feature", "properties": { "building.architecture": "Maisons de bourg", "building.architecture.niveau": " 2", "addr.housenumber": "6", "addr.street": "Rue Philéas Collardeau" }, "geometry": { "type": "Point", "coordinates": [ 2.471685, 48.901562 ] } },
{ "type": "Feature", "properties": { "building.architecture": "Maisons de bourg", "building.architecture.niveau": " 2", "addr.housenumber": "8", "addr.street": "Rue Philéas Collardeau" }, "geometry": { "type": "Point", "coordinates": [ 2.471794, 48.901566 ] } },
{ "type": "Feature", "properties": { "building.architecture": "Lotissements\/maisons pavillonnaires", "building.architecture.niveau": " 2", "addr.housenumber": "10", "addr.street": "Rue Philéas Collardeau" }, "geometry": { "type": "Point", "coordinates": [ 2.471864, 48.901567 ] } },
{ "type": "Feature", "properties": { "building.architecture": "Lotissements\/maisons pavillonnaires", "building.architecture.niveau": " 2", "addr.housenumber": "23", "addr.street": "Rue Philéas Collardeau" }, "geometry": { "type": "Point", "coordinates": [ 2.472994, 48.901909 ] } },
{ "type": "Feature", "properties": { "building.architecture": "Lotissements\/maisons pavillonnaires", "building.architecture.niveau": " 2", "addr.housenumber": "24", "addr.street": "Rue Philéas Collardeau" }, "geometry": { "type": "Point", "coordinates": [ 2.473, 48.901811 ] } },
{ "type": "Feature", "properties": { "building.architecture": "Lotissements\/maisons pavillonnaires", "building.architecture.niveau": " 2", "addr.housenumber": "3", "addr.street": "Villa Gabriel Seailles" }, "geometry": { "type": "Point", "coordinates": [ 2.471156, 48.902114 ] } },
{ "type": "Feature", "properties": { "building.architecture": "Lotissements\/maisons pavillonnaires", "building.architecture.niveau": " 2", "addr.housenumber": "7", "addr.street": "Villa Gabriel Seailles" }, "geometry": { "type": "Point", "coordinates": [ 2.47143, 48.902116 ] } },
{ "type": "Feature", "properties": { "building.architecture": "Lotissements\/maisons pavillonnaires", "building.architecture.niveau": " 2", "addr.housenumber": "8", "addr.street": "Villa Gabriel Seailles" }, "geometry": { "type": "Point", "coordinates": [ 2.471392, 48.902057 ] } },
{ "type": "Feature", "properties": { "building.architecture": "Lotissements\/maisons pavillonnaires", "building.architecture.niveau": " 2", "addr.housenumber": "14", "addr.street": "Villa Gabriel Seailles" }, "geometry": { "type": "Point", "coordinates": [ 2.471765, 48.902061 ] } },
{ "type": "Feature", "properties": { "building.architecture": "Lotissements\/maisons pavillonnaires", "building.architecture.niveau": " 2", "addr.housenumber": "15", "addr.street": "Villa Gabriel Seailles" }, "geometry": { "type": "Point", "coordinates": [ 2.471922, 48.902126 ] } },
{ "type": "Feature", "properties": { "building.architecture": "Lotissements\/maisons pavillonnaires", "building.architecture.niveau": " 2", "addr.housenumber": "16", "addr.street": "Villa Gabriel Seailles" }, "geometry": { "type": "Point", "coordinates": [ 2.471908, 48.902065 ] } }
]
}
