{
"type": "FeatureCollection",
"name": "3_zone",
"crs": { "type": "name", "properties": { "name": "urn:ogc:def:crs:OGC:1.3:CRS84" } },
"features": [
{ "type": "Feature", "properties": { "name": 3, "boundary": "patrimoine" }, "geometry": { "type": "Polygon", "coordinates": [ [ [ 2.471843685024048, 48.898992517215703 ], [ 2.471444116349372, 48.899071651569187 ], [ 2.471358288601882, 48.899090220572788 ], [ 2.470767981253901, 48.899279734328111 ], [ 2.470607438233555, 48.901325029913068 ], [ 2.471127376020132, 48.902191620100673 ], [ 2.47253187807791, 48.902568352688625 ], [ 2.472972338090376, 48.902054525494037 ], [ 2.473186151329409, 48.901696228113821 ], [ 2.473121453764844, 48.900655271992498 ], [ 2.472988923726253, 48.900385578057609 ], [ 2.472890145864142, 48.900225897395707 ], [ 2.47279630361136, 48.900079216440247 ], [ 2.471843685024048, 48.898992517215703 ] ] ] } },
{ "type": "Feature", "properties": { "name": 3, "boundary": "patrimoine" }, "geometry": { "type": "Polygon", "coordinates": [ [ [ 2.471843685024048, 48.898992517215703 ], [ 2.471444116349372, 48.899071651569187 ], [ 2.471358288601882, 48.899090220572788 ], [ 2.470767981253901, 48.899279734328111 ], [ 2.470607438233555, 48.901325029913068 ], [ 2.471127376020132, 48.902191620100673 ], [ 2.47253187807791, 48.902568352688625 ], [ 2.472972338090376, 48.902054525494037 ], [ 2.473186151329409, 48.901696228113821 ], [ 2.473121453764844, 48.900655271992498 ], [ 2.472988923726253, 48.900385578057609 ], [ 2.472890145864142, 48.900225897395707 ], [ 2.47279630361136, 48.900079216440247 ], [ 2.471843685024048, 48.898992517215703 ] ] ] } },
{ "type": "Feature", "properties": { "name": 3, "boundary": "patrimoine" }, "geometry": { "type": "Polygon", "coordinates": [ [ [ 2.471843685024048, 48.898992517215703 ], [ 2.471444116349372, 48.899071651569187 ], [ 2.471358288601882, 48.899090220572788 ], [ 2.470767981253901, 48.899279734328111 ], [ 2.470607438233555, 48.901325029913068 ], [ 2.471127376020132, 48.902191620100673 ], [ 2.47253187807791, 48.902568352688625 ], [ 2.472972338090376, 48.902054525494037 ], [ 2.473186151329409, 48.901696228113821 ], [ 2.473121453764844, 48.900655271992498 ], [ 2.472988923726253, 48.900385578057609 ], [ 2.472890145864142, 48.900225897395707 ], [ 2.47279630361136, 48.900079216440247 ], [ 2.471843685024048, 48.898992517215703 ] ] ] } }
]
}
