{
"type": "FeatureCollection",
"name": "4_adresse",
"crs": { "type": "name", "properties": { "name": "urn:ogc:def:crs:OGC:1.3:CRS84" } },
"features": [
{ "type": "Feature", "properties": { "building.architecture": "Lotissements/maisons pavillonnaires", "building.architecture.niveau": " 2", "addr.housenumber": "14bis", "addr.street": "Allee Rulhiere" }, "geometry": { "type": "Point", "coordinates": [ 2.474076, 48.900966 ] } },
{ "type": "Feature", "properties": { "building.architecture": "Lotissements/maisons pavillonnaires", "building.architecture.niveau": " 2", "addr.housenumber": "12", "addr.street": "Allee Rulhiere" }, "geometry": { "type": "Point", "coordinates": [ 2.473864, 48.901258 ] } },
{ "type": "Feature", "properties": { "building.architecture": "Lotissements/maisons pavillonnaires", "building.architecture.niveau": " 2", "addr.housenumber": "13", "addr.street": "Allee Rulhiere" }, "geometry": { "type": "Point", "coordinates": [ 2.474402, 48.9012 ] } },
{ "type": "Feature", "properties": { "building.architecture": "Lotissements/maisons pavillonnaires", "building.architecture.niveau": " 2", "addr.housenumber": "15", "addr.street": "Allee Rulhiere" }, "geometry": { "type": "Point", "coordinates": [ 2.474547, 48.901159 ] } },
{ "type": "Feature", "properties": { "building.architecture": "Lotissements/maisons pavillonnaires", "building.architecture.niveau": " 2", "addr.housenumber": "5bis", "addr.street": "Allee Rulhiere" }, "geometry": { "type": "Point", "coordinates": [ 2.473677, 48.90139 ] } },
{ "type": "Feature", "properties": { "building.architecture": "Lotissements/maisons pavillonnaires", "building.architecture.niveau": " 2", "addr.housenumber": "1bis", "addr.street": "Rue de Cronstadt" }, "geometry": { "type": "Point", "coordinates": [ 2.473396, 48.901113 ] } },
{ "type": "Feature", "properties": { "building.architecture": "Lotissements/maisons pavillonnaires", "building.architecture.niveau": " 2", "addr.housenumber": "6", "addr.street": "Rue des Droits de l'Homme" }, "geometry": { "type": "Point", "coordinates": [ 2.47499, 48.900679 ] } },
{ "type": "Feature", "properties": { "building.architecture": "Lotissements/maisons pavillonnaires", "building.architecture.niveau": " 2", "addr.housenumber": "8", "addr.street": "Rue des Droits de l'Homme" }, "geometry": { "type": "Point", "coordinates": [ 2.475125, 48.900656 ] } },
{ "type": "Feature", "properties": { "building.architecture": "Lotissements/maisons pavillonnaires", "building.architecture.niveau": " 2", "addr.housenumber": "9", "addr.street": "Rue des Droits de l'Homme" }, "geometry": { "type": "Point", "coordinates": [ 2.475478, 48.900679 ] } },
{ "type": "Feature", "properties": { "building.architecture": "Lotissements/maisons pavillonnaires", "building.architecture.niveau": " 2", "addr.housenumber": "10", "addr.street": "Rue des Droits de l'Homme" }, "geometry": { "type": "Point", "coordinates": [ 2.475273, 48.900631 ] } },
{ "type": "Feature", "properties": { "building.architecture": "Lotissements/maisons pavillonnaires", "building.architecture.niveau": " 2", "addr.housenumber": "12", "addr.street": "Rue des Droits de l'Homme" }, "geometry": { "type": "Point", "coordinates": [ 2.475469, 48.9004 ] } },
{ "type": "Feature", "properties": { "building.architecture": "Lotissements/maisons pavillonnaires", "building.architecture.niveau": " 2", "addr.housenumber": "4", "addr.street": "Rue des Droits de l'Homme" }, "geometry": { "type": "Point", "coordinates": [ 2.474861, 48.900703 ] } },
{ "type": "Feature", "properties": { "building.architecture": "Lotissements/maisons pavillonnaires", "building.architecture.niveau": " 2", "addr.housenumber": "45", "addr.street": "Rue du Breuil" }, "geometry": { "type": "Point", "coordinates": [ 2.474977, 48.901219 ] } },
{ "type": "Feature", "properties": { "building.architecture": "Lotissements/maisons pavillonnaires", "building.architecture.niveau": " 2", "addr.housenumber": "48", "addr.street": "Rue du Breuil" }, "geometry": { "type": "Point", "coordinates": [ 2.47462, 48.900775 ] } },
{ "type": "Feature", "properties": { "building.architecture": "Lotissements/maisons pavillonnaires", "building.architecture.niveau": " 2", "addr.housenumber": "53", "addr.street": "Rue du Breuil" }, "geometry": { "type": "Point", "coordinates": [ 2.474826, 48.900916 ] } },
{ "type": "Feature", "properties": { "building.architecture": "Lotissements/maisons pavillonnaires", "building.architecture.niveau": " 2", "addr.housenumber": "54", "addr.street": "Rue du Breuil" }, "geometry": { "type": "Point", "coordinates": [ 2.47448, 48.900513 ] } },
{ "type": "Feature", "properties": { "building.architecture": "Lotissements/maisons pavillonnaires", "building.architecture.niveau": " 2", "addr.housenumber": "56", "addr.street": "Rue du Breuil" }, "geometry": { "type": "Point", "coordinates": [ 2.474346, 48.90026 ] } },
{ "type": "Feature", "properties": { "building.architecture": "Lotissements/maisons pavillonnaires", "building.architecture.niveau": " 2", "addr.housenumber": "57", "addr.street": "Rue du Breuil" }, "geometry": { "type": "Point", "coordinates": [ 2.474667, 48.900626 ] } },
{ "type": "Feature", "properties": { "building.architecture": "Maisons de bourg", "building.architecture.niveau": " 2", "addr.housenumber": "59", "addr.street": "Rue du Breuil" }, "geometry": { "type": "Point", "coordinates": [ 2.474595, 48.90049 ] } },
{ "type": "Feature", "properties": { "building.architecture": "Maisons de bourg", "building.architecture.niveau": " 2", "addr.housenumber": "67", "addr.street": "Rue du Breuil" }, "geometry": { "type": "Point", "coordinates": [ 2.474453, 48.900223 ] } },
{ "type": "Feature", "properties": { "building.architecture": "Lotissements/maisons pavillonnaires", "building.architecture.niveau": " 2", "addr.housenumber": "69", "addr.street": "Rue du Breuil" }, "geometry": { "type": "Point", "coordinates": [ 2.474642, 48.899868 ] } },
{ "type": "Feature", "properties": { "building.architecture": "Maisons de bourg", "building.architecture.niveau": " 2", "addr.housenumber": "29", "addr.street": "Rue Michelet" }, "geometry": { "type": "Point", "coordinates": [ 2.473496, 48.900037 ] } },
{ "type": "Feature", "properties": { "building.architecture": "Lotissements/maisons pavillonnaires", "building.architecture.niveau": " 2", "addr.housenumber": "31", "addr.street": "Rue Michelet" }, "geometry": { "type": "Point", "coordinates": [ 2.47362, 48.900006 ] } },
{ "type": "Feature", "properties": { "building.architecture": "Lotissements/maisons pavillonnaires", "building.architecture.niveau": " 2", "addr.housenumber": "33", "addr.street": "Rue Michelet" }, "geometry": { "type": "Point", "coordinates": [ 2.47362, 48.900005 ] } },
{ "type": "Feature", "properties": { "building.architecture": "Maisons de bourg", "building.architecture.niveau": " 2", "addr.housenumber": "35", "addr.street": "Rue Michelet" }, "geometry": { "type": "Point", "coordinates": [ 2.474004, 48.899912 ] } },
{ "type": "Feature", "properties": { "building.architecture": "Maisons de bourg", "building.architecture.niveau": " 2", "addr.housenumber": "39", "addr.street": "Rue Michelet" }, "geometry": { "type": "Point", "coordinates": [ 2.474531, 48.899783 ] } },
{ "type": "Feature", "properties": { "building.architecture": "Maisons de bourg", "building.architecture.niveau": " 2", "addr.housenumber": "43", "addr.street": "Rue Michelet" }, "geometry": { "type": "Point", "coordinates": [ 2.474833, 48.899712 ] } },
{ "type": "Feature", "properties": { "building.architecture": "Maisons de bourg", "building.architecture.niveau": " 2", "addr.housenumber": "45", "addr.street": "Rue Michelet" }, "geometry": { "type": "Point", "coordinates": [ 2.474992, 48.899674 ] } },
{ "type": "Feature", "properties": { "building.architecture": "Lotissements/maisons pavillonnaires", "building.architecture.niveau": " 2", "addr.housenumber": "48", "addr.street": "Rue Michelet" }, "geometry": { "type": "Point", "coordinates": [ 2.474047, 48.899802 ] } },
{ "type": "Feature", "properties": { "building.architecture": "Lotissements/maisons pavillonnaires", "building.architecture.niveau": " 2", "addr.housenumber": null, "addr.street": "Rue Michelet" }, "geometry": { "type": "Point", "coordinates": [ 2.47315, 48.90001 ] } },
{ "type": "Feature", "properties": { "building.architecture": "Lotissements/maisons pavillonnaires", "building.architecture.niveau": " 2", "addr.housenumber": "25bis", "addr.street": "Rue Michelet" }, "geometry": { "type": "Point", "coordinates": [ 2.473317, 48.900195 ] } },
{ "type": "Feature", "properties": { "building.architecture": "Maisons de bourg", "building.architecture.niveau": " 2", "addr.housenumber": "4", "addr.street": "Villa du Breuil" }, "geometry": { "type": "Point", "coordinates": [ 2.474103, 48.900432 ] } },
{ "type": "Feature", "properties": { "building.architecture": "Lotissements/maisons pavillonnaires", "building.architecture.niveau": " 2", "addr.housenumber": "5", "addr.street": "Villa du Breuil" }, "geometry": { "type": "Point", "coordinates": [ 2.473774, 48.900468 ] } },
{ "type": "Feature", "properties": { "building.architecture": "Lotissements/maisons pavillonnaires", "building.architecture.niveau": " 2", "addr.housenumber": "6", "addr.street": "Villa du Breuil" }, "geometry": { "type": "Point", "coordinates": [ 2.473939, 48.900473 ] } },
{ "type": "Feature", "properties": { "building.architecture": "Lotissements\/maisons pavillonnaires", "building.architecture.niveau": " 2", "addr.housenumber": "14bis", "addr.street": "Allee Rulhiere" }, "geometry": { "type": "Point", "coordinates": [ 2.474076, 48.900966 ] } },
{ "type": "Feature", "properties": { "building.architecture": "Lotissements\/maisons pavillonnaires", "building.architecture.niveau": " 2", "addr.housenumber": "12", "addr.street": "Allee Rulhiere" }, "geometry": { "type": "Point", "coordinates": [ 2.473864, 48.901258 ] } },
{ "type": "Feature", "properties": { "building.architecture": "Lotissements\/maisons pavillonnaires", "building.architecture.niveau": " 2", "addr.housenumber": "13", "addr.street": "Allee Rulhiere" }, "geometry": { "type": "Point", "coordinates": [ 2.474402, 48.9012 ] } },
{ "type": "Feature", "properties": { "building.architecture": "Lotissements\/maisons pavillonnaires", "building.architecture.niveau": " 2", "addr.housenumber": "15", "addr.street": "Allee Rulhiere" }, "geometry": { "type": "Point", "coordinates": [ 2.474547, 48.901159 ] } },
{ "type": "Feature", "properties": { "building.architecture": "Lotissements\/maisons pavillonnaires", "building.architecture.niveau": " 2", "addr.housenumber": "5bis", "addr.street": "Allee Rulhiere" }, "geometry": { "type": "Point", "coordinates": [ 2.473677, 48.90139 ] } },
{ "type": "Feature", "properties": { "building.architecture": "Lotissements\/maisons pavillonnaires", "building.architecture.niveau": " 2", "addr.housenumber": "1bis", "addr.street": "Rue de Cronstadt" }, "geometry": { "type": "Point", "coordinates": [ 2.473396, 48.901113 ] } },
{ "type": "Feature", "properties": { "building.architecture": "Lotissements\/maisons pavillonnaires", "building.architecture.niveau": " 2", "addr.housenumber": "6", "addr.street": "Rue des Droits de l'Homme" }, "geometry": { "type": "Point", "coordinates": [ 2.47499, 48.900679 ] } },
{ "type": "Feature", "properties": { "building.architecture": "Lotissements\/maisons pavillonnaires", "building.architecture.niveau": " 2", "addr.housenumber": "8", "addr.street": "Rue des Droits de l'Homme" }, "geometry": { "type": "Point", "coordinates": [ 2.475125, 48.900656 ] } },
{ "type": "Feature", "properties": { "building.architecture": "Lotissements\/maisons pavillonnaires", "building.architecture.niveau": " 2", "addr.housenumber": "9", "addr.street": "Rue des Droits de l'Homme" }, "geometry": { "type": "Point", "coordinates": [ 2.475478, 48.900679 ] } },
{ "type": "Feature", "properties": { "building.architecture": "Lotissements\/maisons pavillonnaires", "building.architecture.niveau": " 2", "addr.housenumber": "10", "addr.street": "Rue des Droits de l'Homme" }, "geometry": { "type": "Point", "coordinates": [ 2.475273, 48.900631 ] } },
{ "type": "Feature", "properties": { "building.architecture": "Lotissements\/maisons pavillonnaires", "building.architecture.niveau": " 2", "addr.housenumber": "12", "addr.street": "Rue des Droits de l'Homme" }, "geometry": { "type": "Point", "coordinates": [ 2.475469, 48.9004 ] } },
{ "type": "Feature", "properties": { "building.architecture": "Lotissements\/maisons pavillonnaires", "building.architecture.niveau": " 2", "addr.housenumber": "4", "addr.street": "Rue des Droits de l'Homme" }, "geometry": { "type": "Point", "coordinates": [ 2.474861, 48.900703 ] } },
{ "type": "Feature", "properties": { "building.architecture": "Lotissements\/maisons pavillonnaires", "building.architecture.niveau": " 2", "addr.housenumber": "45", "addr.street": "Rue du Breuil" }, "geometry": { "type": "Point", "coordinates": [ 2.474977, 48.901219 ] } },
{ "type": "Feature", "properties": { "building.architecture": "Lotissements\/maisons pavillonnaires", "building.architecture.niveau": " 2", "addr.housenumber": "48", "addr.street": "Rue du Breuil" }, "geometry": { "type": "Point", "coordinates": [ 2.47462, 48.900775 ] } },
{ "type": "Feature", "properties": { "building.architecture": "Lotissements\/maisons pavillonnaires", "building.architecture.niveau": " 2", "addr.housenumber": "53", "addr.street": "Rue du Breuil" }, "geometry": { "type": "Point", "coordinates": [ 2.474826, 48.900916 ] } },
{ "type": "Feature", "properties": { "building.architecture": "Lotissements\/maisons pavillonnaires", "building.architecture.niveau": " 2", "addr.housenumber": "54", "addr.street": "Rue du Breuil" }, "geometry": { "type": "Point", "coordinates": [ 2.47448, 48.900513 ] } },
{ "type": "Feature", "properties": { "building.architecture": "Lotissements\/maisons pavillonnaires", "building.architecture.niveau": " 2", "addr.housenumber": "56", "addr.street": "Rue du Breuil" }, "geometry": { "type": "Point", "coordinates": [ 2.474346, 48.90026 ] } },
{ "type": "Feature", "properties": { "building.architecture": "Lotissements\/maisons pavillonnaires", "building.architecture.niveau": " 2", "addr.housenumber": "57", "addr.street": "Rue du Breuil" }, "geometry": { "type": "Point", "coordinates": [ 2.474667, 48.900626 ] } },
{ "type": "Feature", "properties": { "building.architecture": "Maisons de bourg", "building.architecture.niveau": " 2", "addr.housenumber": "59", "addr.street": "Rue du Breuil" }, "geometry": { "type": "Point", "coordinates": [ 2.474595, 48.90049 ] } },
{ "type": "Feature", "properties": { "building.architecture": "Maisons de bourg", "building.architecture.niveau": " 2", "addr.housenumber": "67", "addr.street": "Rue du Breuil" }, "geometry": { "type": "Point", "coordinates": [ 2.474453, 48.900223 ] } },
{ "type": "Feature", "properties": { "building.architecture": "Lotissements\/maisons pavillonnaires", "building.architecture.niveau": " 2", "addr.housenumber": "69", "addr.street": "Rue du Breuil" }, "geometry": { "type": "Point", "coordinates": [ 2.474642, 48.899868 ] } },
{ "type": "Feature", "properties": { "building.architecture": "Maisons de bourg", "building.architecture.niveau": " 2", "addr.housenumber": "29", "addr.street": "Rue Michelet" }, "geometry": { "type": "Point", "coordinates": [ 2.473496, 48.900037 ] } },
{ "type": "Feature", "properties": { "building.architecture": "Lotissements\/maisons pavillonnaires", "building.architecture.niveau": " 2", "addr.housenumber": "31", "addr.street": "Rue Michelet" }, "geometry": { "type": "Point", "coordinates": [ 2.47362, 48.900006 ] } },
{ "type": "Feature", "properties": { "building.architecture": "Lotissements\/maisons pavillonnaires", "building.architecture.niveau": " 2", "addr.housenumber": "33", "addr.street": "Rue Michelet" }, "geometry": { "type": "Point", "coordinates": [ 2.47362, 48.900005 ] } },
{ "type": "Feature", "properties": { "building.architecture": "Maisons de bourg", "building.architecture.niveau": " 2", "addr.housenumber": "35", "addr.street": "Rue Michelet" }, "geometry": { "type": "Point", "coordinates": [ 2.474004, 48.899912 ] } },
{ "type": "Feature", "properties": { "building.architecture": "Maisons de bourg", "building.architecture.niveau": " 2", "addr.housenumber": "39", "addr.street": "Rue Michelet" }, "geometry": { "type": "Point", "coordinates": [ 2.474531, 48.899783 ] } },
{ "type": "Feature", "properties": { "building.architecture": "Maisons de bourg", "building.architecture.niveau": " 2", "addr.housenumber": "43", "addr.street": "Rue Michelet" }, "geometry": { "type": "Point", "coordinates": [ 2.474833, 48.899712 ] } },
{ "type": "Feature", "properties": { "building.architecture": "Maisons de bourg", "building.architecture.niveau": " 2", "addr.housenumber": "45", "addr.street": "Rue Michelet" }, "geometry": { "type": "Point", "coordinates": [ 2.474992, 48.899674 ] } },
{ "type": "Feature", "properties": { "building.architecture": "Lotissements\/maisons pavillonnaires", "building.architecture.niveau": " 2", "addr.housenumber": "48", "addr.street": "Rue Michelet" }, "geometry": { "type": "Point", "coordinates": [ 2.474047, 48.899802 ] } },
{ "type": "Feature", "properties": { "building.architecture": "Lotissements\/maisons pavillonnaires", "building.architecture.niveau": " 2", "addr.housenumber": null, "addr.street": "Rue Michelet" }, "geometry": { "type": "Point", "coordinates": [ 2.47315, 48.90001 ] } },
{ "type": "Feature", "properties": { "building.architecture": "Lotissements\/maisons pavillonnaires", "building.architecture.niveau": " 2", "addr.housenumber": "25bis", "addr.street": "Rue Michelet" }, "geometry": { "type": "Point", "coordinates": [ 2.473317, 48.900195 ] } },
{ "type": "Feature", "properties": { "building.architecture": "Maisons de bourg", "building.architecture.niveau": " 2", "addr.housenumber": "4", "addr.street": "Villa du Breuil" }, "geometry": { "type": "Point", "coordinates": [ 2.474103, 48.900432 ] } },
{ "type": "Feature", "properties": { "building.architecture": "Lotissements\/maisons pavillonnaires", "building.architecture.niveau": " 2", "addr.housenumber": "5", "addr.street": "Villa du Breuil" }, "geometry": { "type": "Point", "coordinates": [ 2.473774, 48.900468 ] } },
{ "type": "Feature", "properties": { "building.architecture": "Lotissements\/maisons pavillonnaires", "building.architecture.niveau": " 2", "addr.housenumber": "6", "addr.street": "Villa du Breuil" }, "geometry": { "type": "Point", "coordinates": [ 2.473939, 48.900473 ] } },
{ "type": "Feature", "properties": { "building.architecture": "Lotissements\/maisons pavillonnaires", "building.architecture.niveau": " 2", "addr.housenumber": "14bis", "addr.street": "Allee Rulhiere" }, "geometry": { "type": "Point", "coordinates": [ 2.474076, 48.900966 ] } },
{ "type": "Feature", "properties": { "building.architecture": "Lotissements\/maisons pavillonnaires", "building.architecture.niveau": " 2", "addr.housenumber": "12", "addr.street": "Allee Rulhiere" }, "geometry": { "type": "Point", "coordinates": [ 2.473864, 48.901258 ] } },
{ "type": "Feature", "properties": { "building.architecture": "Lotissements\/maisons pavillonnaires", "building.architecture.niveau": " 2", "addr.housenumber": "13", "addr.street": "Allee Rulhiere" }, "geometry": { "type": "Point", "coordinates": [ 2.474402, 48.9012 ] } },
{ "type": "Feature", "properties": { "building.architecture": "Lotissements\/maisons pavillonnaires", "building.architecture.niveau": " 2", "addr.housenumber": "15", "addr.street": "Allee Rulhiere" }, "geometry": { "type": "Point", "coordinates": [ 2.474547, 48.901159 ] } },
{ "type": "Feature", "properties": { "building.architecture": "Lotissements\/maisons pavillonnaires", "building.architecture.niveau": " 2", "addr.housenumber": "5bis", "addr.street": "Allee Rulhiere" }, "geometry": { "type": "Point", "coordinates": [ 2.473677, 48.90139 ] } },
{ "type": "Feature", "properties": { "building.architecture": "Lotissements\/maisons pavillonnaires", "building.architecture.niveau": " 2", "addr.housenumber": "1bis", "addr.street": "Rue de Cronstadt" }, "geometry": { "type": "Point", "coordinates": [ 2.473396, 48.901113 ] } },
{ "type": "Feature", "properties": { "building.architecture": "Lotissements\/maisons pavillonnaires", "building.architecture.niveau": " 2", "addr.housenumber": "6", "addr.street": "Rue des Droits de l'Homme" }, "geometry": { "type": "Point", "coordinates": [ 2.47499, 48.900679 ] } },
{ "type": "Feature", "properties": { "building.architecture": "Lotissements\/maisons pavillonnaires", "building.architecture.niveau": " 2", "addr.housenumber": "8", "addr.street": "Rue des Droits de l'Homme" }, "geometry": { "type": "Point", "coordinates": [ 2.475125, 48.900656 ] } },
{ "type": "Feature", "properties": { "building.architecture": "Lotissements\/maisons pavillonnaires", "building.architecture.niveau": " 2", "addr.housenumber": "9", "addr.street": "Rue des Droits de l'Homme" }, "geometry": { "type": "Point", "coordinates": [ 2.475478, 48.900679 ] } },
{ "type": "Feature", "properties": { "building.architecture": "Lotissements\/maisons pavillonnaires", "building.architecture.niveau": " 2", "addr.housenumber": "10", "addr.street": "Rue des Droits de l'Homme" }, "geometry": { "type": "Point", "coordinates": [ 2.475273, 48.900631 ] } },
{ "type": "Feature", "properties": { "building.architecture": "Lotissements\/maisons pavillonnaires", "building.architecture.niveau": " 2", "addr.housenumber": "12", "addr.street": "Rue des Droits de l'Homme" }, "geometry": { "type": "Point", "coordinates": [ 2.475469, 48.9004 ] } },
{ "type": "Feature", "properties": { "building.architecture": "Lotissements\/maisons pavillonnaires", "building.architecture.niveau": " 2", "addr.housenumber": "4", "addr.street": "Rue des Droits de l'Homme" }, "geometry": { "type": "Point", "coordinates": [ 2.474861, 48.900703 ] } },
{ "type": "Feature", "properties": { "building.architecture": "Lotissements\/maisons pavillonnaires", "building.architecture.niveau": " 2", "addr.housenumber": "45", "addr.street": "Rue du Breuil" }, "geometry": { "type": "Point", "coordinates": [ 2.474977, 48.901219 ] } },
{ "type": "Feature", "properties": { "building.architecture": "Lotissements\/maisons pavillonnaires", "building.architecture.niveau": " 2", "addr.housenumber": "48", "addr.street": "Rue du Breuil" }, "geometry": { "type": "Point", "coordinates": [ 2.47462, 48.900775 ] } },
{ "type": "Feature", "properties": { "building.architecture": "Lotissements\/maisons pavillonnaires", "building.architecture.niveau": " 2", "addr.housenumber": "53", "addr.street": "Rue du Breuil" }, "geometry": { "type": "Point", "coordinates": [ 2.474826, 48.900916 ] } },
{ "type": "Feature", "properties": { "building.architecture": "Lotissements\/maisons pavillonnaires", "building.architecture.niveau": " 2", "addr.housenumber": "54", "addr.street": "Rue du Breuil" }, "geometry": { "type": "Point", "coordinates": [ 2.47448, 48.900513 ] } },
{ "type": "Feature", "properties": { "building.architecture": "Lotissements\/maisons pavillonnaires", "building.architecture.niveau": " 2", "addr.housenumber": "56", "addr.street": "Rue du Breuil" }, "geometry": { "type": "Point", "coordinates": [ 2.474346, 48.90026 ] } },
{ "type": "Feature", "properties": { "building.architecture": "Lotissements\/maisons pavillonnaires", "building.architecture.niveau": " 2", "addr.housenumber": "57", "addr.street": "Rue du Breuil" }, "geometry": { "type": "Point", "coordinates": [ 2.474667, 48.900626 ] } },
{ "type": "Feature", "properties": { "building.architecture": "Maisons de bourg", "building.architecture.niveau": " 2", "addr.housenumber": "59", "addr.street": "Rue du Breuil" }, "geometry": { "type": "Point", "coordinates": [ 2.474595, 48.90049 ] } },
{ "type": "Feature", "properties": { "building.architecture": "Maisons de bourg", "building.architecture.niveau": " 2", "addr.housenumber": "67", "addr.street": "Rue du Breuil" }, "geometry": { "type": "Point", "coordinates": [ 2.474453, 48.900223 ] } },
{ "type": "Feature", "properties": { "building.architecture": "Lotissements\/maisons pavillonnaires", "building.architecture.niveau": " 2", "addr.housenumber": "69", "addr.street": "Rue du Breuil" }, "geometry": { "type": "Point", "coordinates": [ 2.474642, 48.899868 ] } },
{ "type": "Feature", "properties": { "building.architecture": "Maisons de bourg", "building.architecture.niveau": " 2", "addr.housenumber": "29", "addr.street": "Rue Michelet" }, "geometry": { "type": "Point", "coordinates": [ 2.473496, 48.900037 ] } },
{ "type": "Feature", "properties": { "building.architecture": "Lotissements\/maisons pavillonnaires", "building.architecture.niveau": " 2", "addr.housenumber": "31", "addr.street": "Rue Michelet" }, "geometry": { "type": "Point", "coordinates": [ 2.47362, 48.900006 ] } },
{ "type": "Feature", "properties": { "building.architecture": "Lotissements\/maisons pavillonnaires", "building.architecture.niveau": " 2", "addr.housenumber": "33", "addr.street": "Rue Michelet" }, "geometry": { "type": "Point", "coordinates": [ 2.47362, 48.900005 ] } },
{ "type": "Feature", "properties": { "building.architecture": "Maisons de bourg", "building.architecture.niveau": " 2", "addr.housenumber": "35", "addr.street": "Rue Michelet" }, "geometry": { "type": "Point", "coordinates": [ 2.474004, 48.899912 ] } },
{ "type": "Feature", "properties": { "building.architecture": "Maisons de bourg", "building.architecture.niveau": " 2", "addr.housenumber": "39", "addr.street": "Rue Michelet" }, "geometry": { "type": "Point", "coordinates": [ 2.474531, 48.899783 ] } },
{ "type": "Feature", "properties": { "building.architecture": "Maisons de bourg", "building.architecture.niveau": " 2", "addr.housenumber": "43", "addr.street": "Rue Michelet" }, "geometry": { "type": "Point", "coordinates": [ 2.474833, 48.899712 ] } },
{ "type": "Feature", "properties": { "building.architecture": "Maisons de bourg", "building.architecture.niveau": " 2", "addr.housenumber": "45", "addr.street": "Rue Michelet" }, "geometry": { "type": "Point", "coordinates": [ 2.474992, 48.899674 ] } },
{ "type": "Feature", "properties": { "building.architecture": "Lotissements\/maisons pavillonnaires", "building.architecture.niveau": " 2", "addr.housenumber": "48", "addr.street": "Rue Michelet" }, "geometry": { "type": "Point", "coordinates": [ 2.474047, 48.899802 ] } },
{ "type": "Feature", "properties": { "building.architecture": "Lotissements\/maisons pavillonnaires", "building.architecture.niveau": " 2", "addr.housenumber": null, "addr.street": "Rue Michelet" }, "geometry": { "type": "Point", "coordinates": [ 2.47315, 48.90001 ] } },
{ "type": "Feature", "properties": { "building.architecture": "Lotissements\/maisons pavillonnaires", "building.architecture.niveau": " 2", "addr.housenumber": "25bis", "addr.street": "Rue Michelet" }, "geometry": { "type": "Point", "coordinates": [ 2.473317, 48.900195 ] } },
{ "type": "Feature", "properties": { "building.architecture": "Maisons de bourg", "building.architecture.niveau": " 2", "addr.housenumber": "4", "addr.street": "Villa du Breuil" }, "geometry": { "type": "Point", "coordinates": [ 2.474103, 48.900432 ] } },
{ "type": "Feature", "properties": { "building.architecture": "Lotissements\/maisons pavillonnaires", "building.architecture.niveau": " 2", "addr.housenumber": "5", "addr.street": "Villa du Breuil" }, "geometry": { "type": "Point", "coordinates": [ 2.473774, 48.900468 ] } },
{ "type": "Feature", "properties": { "building.architecture": "Lotissements\/maisons pavillonnaires", "building.architecture.niveau": " 2", "addr.housenumber": "6", "addr.street": "Villa du Breuil" }, "geometry": { "type": "Point", "coordinates": [ 2.473939, 48.900473 ] } }
]
}
