{
"type": "FeatureCollection",
"name": "4_zone",
"crs": { "type": "name", "properties": { "name": "urn:ogc:def:crs:OGC:1.3:CRS84" } },
"features": [
{ "type": "Feature", "properties": { "name": 4, "boundary": "patrimoine" }, "geometry": { "type": "Polygon", "coordinates": [ [ [ 2.473237413396234, 48.898546099398374 ], [ 2.473021216520168, 48.898666191502578 ], [ 2.473148078825511, 48.900737290478467 ], [ 2.473295972191307, 48.901051102107374 ], [ 2.473391972919958, 48.901217897046948 ], [ 2.473786518888501, 48.901862986610993 ], [ 2.474237908379675, 48.901804058943156 ], [ 2.474692938160362, 48.901516047657275 ], [ 2.475139482714225, 48.901214379326397 ], [ 2.475689999657063, 48.900483934259213 ], [ 2.475542207109299, 48.899588854365035 ], [ 2.473237413396234, 48.898546099398374 ] ] ] } },
{ "type": "Feature", "properties": { "name": 4, "boundary": "patrimoine" }, "geometry": { "type": "Polygon", "coordinates": [ [ [ 2.473237413396234, 48.898546099398374 ], [ 2.473021216520168, 48.898666191502578 ], [ 2.473148078825511, 48.900737290478467 ], [ 2.473295972191307, 48.901051102107374 ], [ 2.473391972919958, 48.901217897046948 ], [ 2.473786518888501, 48.901862986610993 ], [ 2.474237908379675, 48.901804058943156 ], [ 2.474692938160362, 48.901516047657275 ], [ 2.475139482714225, 48.901214379326397 ], [ 2.475689999657063, 48.900483934259213 ], [ 2.475542207109299, 48.899588854365035 ], [ 2.473237413396234, 48.898546099398374 ] ] ] } },
{ "type": "Feature", "properties": { "name": 4, "boundary": "patrimoine" }, "geometry": { "type": "Polygon", "coordinates": [ [ [ 2.473237413396234, 48.898546099398374 ], [ 2.473021216520168, 48.898666191502578 ], [ 2.473148078825511, 48.900737290478467 ], [ 2.473295972191307, 48.901051102107374 ], [ 2.473391972919958, 48.901217897046948 ], [ 2.473786518888501, 48.901862986610993 ], [ 2.474237908379675, 48.901804058943156 ], [ 2.474692938160362, 48.901516047657275 ], [ 2.475139482714225, 48.901214379326397 ], [ 2.475689999657063, 48.900483934259213 ], [ 2.475542207109299, 48.899588854365035 ], [ 2.473237413396234, 48.898546099398374 ] ] ] } }
]
}
