{
"type": "FeatureCollection",
"name": "5_adresse",
"crs": { "type": "name", "properties": { "name": "urn:ogc:def:crs:OGC:1.3:CRS84" } },
"features": [
{ "type": "Feature", "properties": { "building.architecture": "Lotissements/maisons pavillonnaires", "building.architecture.niveau": " 2", "addr.housenumber": "17", "addr.street": "Allee Jean Courtade" }, "geometry": { "type": "Point", "coordinates": [ 2.479529, 48.896898 ] } },
{ "type": "Feature", "properties": { "building.architecture": "Lotissements/maisons pavillonnaires", "building.architecture.niveau": " 2", "addr.housenumber": "33", "addr.street": "Avenue Carnot" }, "geometry": { "type": "Point", "coordinates": [ 2.482118, 48.900964 ] } },
{ "type": "Feature", "properties": { "building.architecture": "Lotissements/maisons pavillonnaires", "building.architecture.niveau": " 2", "addr.housenumber": "84", "addr.street": "Avenue Carnot" }, "geometry": { "type": "Point", "coordinates": [ 2.480857, 48.89861 ] } },
{ "type": "Feature", "properties": { "building.architecture": "Immeubles", "building.architecture.niveau": " 2", "addr.housenumber": "94", "addr.street": "Avenue Carnot" }, "geometry": { "type": "Point", "coordinates": [ 2.48028, 48.898222 ] } },
{ "type": "Feature", "properties": { "building.architecture": "Lotissements/maisons pavillonnaires", "building.architecture.niveau": " 2", "addr.housenumber": "112", "addr.street": "Avenue Carnot" }, "geometry": { "type": "Point", "coordinates": [ 2.480121, 48.897049 ] } },
{ "type": "Feature", "properties": { "building.architecture": "Lotissements/maisons pavillonnaires", "building.architecture.niveau": " 2", "addr.housenumber": null, "addr.street": "Avenue de la République" }, "geometry": { "type": "Point", "coordinates": [ 2.478561, 48.897794 ] } },
{ "type": "Feature", "properties": { "building.architecture": "Immeubles", "building.architecture.niveau": " 2", "addr.housenumber": "2", "addr.street": "Impasse Carnot" }, "geometry": { "type": "Point", "coordinates": [ 2.480286, 48.897882 ] } },
{ "type": "Feature", "properties": { "building.architecture": "Lotissements/maisons pavillonnaires", "building.architecture.niveau": " 2", "addr.housenumber": "4", "addr.street": "Impasse Carnot" }, "geometry": { "type": "Point", "coordinates": [ 2.480081, 48.897919 ] } },
{ "type": "Feature", "properties": { "building.architecture": "Lotissements/maisons pavillonnaires", "building.architecture.niveau": " 2", "addr.housenumber": "8", "addr.street": "Impasse Carnot" }, "geometry": { "type": "Point", "coordinates": [ 2.479825, 48.897967 ] } },
{ "type": "Feature", "properties": { "building.architecture": "Immeubles", "building.architecture.niveau": " 2", "addr.housenumber": null, "addr.street": "Place Albert Thomas" }, "geometry": { "type": "Point", "coordinates": [ 2.47948, 48.898742 ] } },
{ "type": "Feature", "properties": { "building.architecture": "Maisons de bourg", "building.architecture.niveau": " 2", "addr.housenumber": "80", "addr.street": "Rue Roger Salengro" }, "geometry": { "type": "Point", "coordinates": [ 2.477801, 48.898524 ] } },
{ "type": "Feature", "properties": { "building.architecture": "Lotissements/maisons pavillonnaires", "building.architecture.niveau": " 2", "addr.housenumber": "12", "addr.street": "Rue Beauregard" }, "geometry": { "type": "Point", "coordinates": [ 2.4776, 48.899379 ] } },
{ "type": "Feature", "properties": { "building.architecture": "Lotissements/maisons pavillonnaires", "building.architecture.niveau": " 2", "addr.housenumber": "14", "addr.street": "Rue Beauregard" }, "geometry": { "type": "Point", "coordinates": [ 2.477763, 48.8994 ] } },
{ "type": "Feature", "properties": { "building.architecture": "Lotissements/maisons pavillonnaires", "building.architecture.niveau": " 2", "addr.housenumber": "15", "addr.street": "Rue Beauregard" }, "geometry": { "type": "Point", "coordinates": [ 2.477696, 48.899477 ] } },
{ "type": "Feature", "properties": { "building.architecture": "Lotissements/maisons pavillonnaires", "building.architecture.niveau": " 2", "addr.housenumber": "19", "addr.street": "Rue Beauregard" }, "geometry": { "type": "Point", "coordinates": [ 2.478017, 48.89952 ] } },
{ "type": "Feature", "properties": { "building.architecture": "Immeubles", "building.architecture.niveau": " 2", "addr.housenumber": "18", "addr.street": "Rue Louis Auguste Blanqui" }, "geometry": { "type": "Point", "coordinates": [ 2.48056, 48.900013 ] } },
{ "type": "Feature", "properties": { "building.architecture": "Lotissements/maisons pavillonnaires", "building.architecture.niveau": " 2", "addr.housenumber": "27", "addr.street": "Rue Roger Salengro" }, "geometry": { "type": "Point", "coordinates": [ 2.478679, 48.900485 ] } },
{ "type": "Feature", "properties": { "building.architecture": "Equipement culturels", "building.architecture.niveau": " 2", "addr.housenumber": "48", "addr.street": "Rue Roger Salengro" }, "geometry": { "type": "Point", "coordinates": [ 2.478573, 48.900735 ] } },
{ "type": "Feature", "properties": { "building.architecture": "Lotissements/maisons pavillonnaires", "building.architecture.niveau": " 2", "addr.housenumber": "66", "addr.street": "Rue Roger Salengro" }, "geometry": { "type": "Point", "coordinates": [ 2.47836, 48.899624 ] } },
{ "type": "Feature", "properties": { "building.architecture": "Immeubles", "building.architecture.niveau": " 2", "addr.housenumber": "70", "addr.street": "Rue Roger Salengro" }, "geometry": { "type": "Point", "coordinates": [ 2.478184, 48.899198 ] } },
{ "type": "Feature", "properties": { "building.architecture": "Equipements culturels", "building.architecture.niveau": " 2", "addr.housenumber": "23bis", "addr.street": "Rue Roger Salengro" }, "geometry": { "type": "Point", "coordinates": [ 2.478889, 48.901127 ] } },
{ "type": "Feature", "properties": { "building.architecture": "Lotissements/maisons pavillonnaires", "building.architecture.niveau": " 2", "addr.housenumber": "2", "addr.street": "Villa Carnot" }, "geometry": { "type": "Point", "coordinates": [ 2.480804, 48.89773 ] } },
{ "type": "Feature", "properties": { "building.architecture": "Lotissements/maisons pavillonnaires", "building.architecture.niveau": " 2", "addr.housenumber": "3", "addr.street": "Villa Carnot" }, "geometry": { "type": "Point", "coordinates": [ 2.481058, 48.897832 ] } },
{ "type": "Feature", "properties": { "building.architecture": "Lotissements/maisons pavillonnaires", "building.architecture.niveau": " 2", "addr.housenumber": "4", "addr.street": "Villa Carnot" }, "geometry": { "type": "Point", "coordinates": [ 2.480938, 48.8977 ] } },
{ "type": "Feature", "properties": { "building.architecture": "Lotissements/maisons pavillonnaires", "building.architecture.niveau": " 2", "addr.housenumber": "6", "addr.street": "Villa Carnot" }, "geometry": { "type": "Point", "coordinates": [ 2.481181, 48.897647 ] } },
{ "type": "Feature", "properties": { "building.architecture": "Lotissements/maisons pavillonnaires", "building.architecture.niveau": " 2", "addr.housenumber": "7", "addr.street": "Villa Carnot" }, "geometry": { "type": "Point", "coordinates": [ 2.481382, 48.897661 ] } },
{ "type": "Feature", "properties": { "building.architecture": "Lotissements/maisons pavillonnaires", "building.architecture.niveau": " 2", "addr.housenumber": "1bis", "addr.street": "Villa Carnot" }, "geometry": { "type": "Point", "coordinates": [ 2.480881, 48.897865 ] } },
{ "type": "Feature", "properties": { "building.architecture": "Lotissements/maisons pavillonnaires", "building.architecture.niveau": " 2", "addr.housenumber": "4bis", "addr.street": "Villa Carnot" }, "geometry": { "type": "Point", "coordinates": [ 2.480985, 48.897613 ] } },
{ "type": "Feature", "properties": { "building.architecture": "Lotissements/maisons pavillonnaires", "building.architecture.niveau": " 2", "addr.housenumber": "3", "addr.street": "Villa Parmentier" }, "geometry": { "type": "Point", "coordinates": [ 2.479572, 48.899371 ] } },
{ "type": "Feature", "properties": { "building.architecture": "Lotissements/maisons pavillonnaires", "building.architecture.niveau": " 2", "addr.housenumber": "5", "addr.street": "Villa Parmentier" }, "geometry": { "type": "Point", "coordinates": [ 2.479704, 48.899344 ] } },
{ "type": "Feature", "properties": { "building.architecture": "Lotissements/maisons pavillonnaires", "building.architecture.niveau": " 2", "addr.housenumber": "6", "addr.street": "Villa Parmentier" }, "geometry": { "type": "Point", "coordinates": [ 2.479712, 48.899297 ] } },
{ "type": "Feature", "properties": { "building.architecture": "Lotissements/maisons pavillonnaires", "building.architecture.niveau": " 2", "addr.housenumber": "7", "addr.street": "Villa Parmentier" }, "geometry": { "type": "Point", "coordinates": [ 2.479821, 48.899322 ] } },
{ "type": "Feature", "properties": { "building.architecture": "Lotissements\/maisons pavillonnaires", "building.architecture.niveau": " 2", "addr.housenumber": "17", "addr.street": "Allee Jean Courtade" }, "geometry": { "type": "Point", "coordinates": [ 2.479529, 48.896898 ] } },
{ "type": "Feature", "properties": { "building.architecture": "Lotissements\/maisons pavillonnaires", "building.architecture.niveau": " 2", "addr.housenumber": "33", "addr.street": "Avenue Carnot" }, "geometry": { "type": "Point", "coordinates": [ 2.482118, 48.900964 ] } },
{ "type": "Feature", "properties": { "building.architecture": "Lotissements\/maisons pavillonnaires", "building.architecture.niveau": " 2", "addr.housenumber": "84", "addr.street": "Avenue Carnot" }, "geometry": { "type": "Point", "coordinates": [ 2.480857, 48.89861 ] } },
{ "type": "Feature", "properties": { "building.architecture": "Immeubles", "building.architecture.niveau": " 2", "addr.housenumber": "94", "addr.street": "Avenue Carnot" }, "geometry": { "type": "Point", "coordinates": [ 2.48028, 48.898222 ] } },
{ "type": "Feature", "properties": { "building.architecture": "Lotissements\/maisons pavillonnaires", "building.architecture.niveau": " 2", "addr.housenumber": "112", "addr.street": "Avenue Carnot" }, "geometry": { "type": "Point", "coordinates": [ 2.480121, 48.897049 ] } },
{ "type": "Feature", "properties": { "building.architecture": "Lotissements\/maisons pavillonnaires", "building.architecture.niveau": " 2", "addr.housenumber": null, "addr.street": "Avenue de la République" }, "geometry": { "type": "Point", "coordinates": [ 2.478561, 48.897794 ] } },
{ "type": "Feature", "properties": { "building.architecture": "Immeubles", "building.architecture.niveau": " 2", "addr.housenumber": "2", "addr.street": "Impasse Carnot" }, "geometry": { "type": "Point", "coordinates": [ 2.480286, 48.897882 ] } },
{ "type": "Feature", "properties": { "building.architecture": "Lotissements\/maisons pavillonnaires", "building.architecture.niveau": " 2", "addr.housenumber": "4", "addr.street": "Impasse Carnot" }, "geometry": { "type": "Point", "coordinates": [ 2.480081, 48.897919 ] } },
{ "type": "Feature", "properties": { "building.architecture": "Lotissements\/maisons pavillonnaires", "building.architecture.niveau": " 2", "addr.housenumber": "8", "addr.street": "Impasse Carnot" }, "geometry": { "type": "Point", "coordinates": [ 2.479825, 48.897967 ] } },
{ "type": "Feature", "properties": { "building.architecture": "Immeubles", "building.architecture.niveau": " 2", "addr.housenumber": null, "addr.street": "Place Albert Thomas" }, "geometry": { "type": "Point", "coordinates": [ 2.47948, 48.898742 ] } },
{ "type": "Feature", "properties": { "building.architecture": "Maisons de bourg", "building.architecture.niveau": " 2", "addr.housenumber": "80", "addr.street": "Rue Roger Salengro" }, "geometry": { "type": "Point", "coordinates": [ 2.477801, 48.898524 ] } },
{ "type": "Feature", "properties": { "building.architecture": "Lotissements\/maisons pavillonnaires", "building.architecture.niveau": " 2", "addr.housenumber": "12", "addr.street": "Rue Beauregard" }, "geometry": { "type": "Point", "coordinates": [ 2.4776, 48.899379 ] } },
{ "type": "Feature", "properties": { "building.architecture": "Lotissements\/maisons pavillonnaires", "building.architecture.niveau": " 2", "addr.housenumber": "14", "addr.street": "Rue Beauregard" }, "geometry": { "type": "Point", "coordinates": [ 2.477763, 48.8994 ] } },
{ "type": "Feature", "properties": { "building.architecture": "Lotissements\/maisons pavillonnaires", "building.architecture.niveau": " 2", "addr.housenumber": "15", "addr.street": "Rue Beauregard" }, "geometry": { "type": "Point", "coordinates": [ 2.477696, 48.899477 ] } },
{ "type": "Feature", "properties": { "building.architecture": "Lotissements\/maisons pavillonnaires", "building.architecture.niveau": " 2", "addr.housenumber": "19", "addr.street": "Rue Beauregard" }, "geometry": { "type": "Point", "coordinates": [ 2.478017, 48.89952 ] } },
{ "type": "Feature", "properties": { "building.architecture": "Immeubles", "building.architecture.niveau": " 2", "addr.housenumber": "18", "addr.street": "Rue Louis Auguste Blanqui" }, "geometry": { "type": "Point", "coordinates": [ 2.48056, 48.900013 ] } },
{ "type": "Feature", "properties": { "building.architecture": "Lotissements\/maisons pavillonnaires", "building.architecture.niveau": " 2", "addr.housenumber": "27", "addr.street": "Rue Roger Salengro" }, "geometry": { "type": "Point", "coordinates": [ 2.478679, 48.900485 ] } },
{ "type": "Feature", "properties": { "building.architecture": "Equipement culturels", "building.architecture.niveau": " 2", "addr.housenumber": "48", "addr.street": "Rue Roger Salengro" }, "geometry": { "type": "Point", "coordinates": [ 2.478573, 48.900735 ] } },
{ "type": "Feature", "properties": { "building.architecture": "Lotissements\/maisons pavillonnaires", "building.architecture.niveau": " 2", "addr.housenumber": "66", "addr.street": "Rue Roger Salengro" }, "geometry": { "type": "Point", "coordinates": [ 2.47836, 48.899624 ] } },
{ "type": "Feature", "properties": { "building.architecture": "Immeubles", "building.architecture.niveau": " 2", "addr.housenumber": "70", "addr.street": "Rue Roger Salengro" }, "geometry": { "type": "Point", "coordinates": [ 2.478184, 48.899198 ] } },
{ "type": "Feature", "properties": { "building.architecture": "Equipements culturels", "building.architecture.niveau": " 2", "addr.housenumber": "23bis", "addr.street": "Rue Roger Salengro" }, "geometry": { "type": "Point", "coordinates": [ 2.478889, 48.901127 ] } },
{ "type": "Feature", "properties": { "building.architecture": "Lotissements\/maisons pavillonnaires", "building.architecture.niveau": " 2", "addr.housenumber": "2", "addr.street": "Villa Carnot" }, "geometry": { "type": "Point", "coordinates": [ 2.480804, 48.89773 ] } },
{ "type": "Feature", "properties": { "building.architecture": "Lotissements\/maisons pavillonnaires", "building.architecture.niveau": " 2", "addr.housenumber": "3", "addr.street": "Villa Carnot" }, "geometry": { "type": "Point", "coordinates": [ 2.481058, 48.897832 ] } },
{ "type": "Feature", "properties": { "building.architecture": "Lotissements\/maisons pavillonnaires", "building.architecture.niveau": " 2", "addr.housenumber": "4", "addr.street": "Villa Carnot" }, "geometry": { "type": "Point", "coordinates": [ 2.480938, 48.8977 ] } },
{ "type": "Feature", "properties": { "building.architecture": "Lotissements\/maisons pavillonnaires", "building.architecture.niveau": " 2", "addr.housenumber": "6", "addr.street": "Villa Carnot" }, "geometry": { "type": "Point", "coordinates": [ 2.481181, 48.897647 ] } },
{ "type": "Feature", "properties": { "building.architecture": "Lotissements\/maisons pavillonnaires", "building.architecture.niveau": " 2", "addr.housenumber": "7", "addr.street": "Villa Carnot" }, "geometry": { "type": "Point", "coordinates": [ 2.481382, 48.897661 ] } },
{ "type": "Feature", "properties": { "building.architecture": "Lotissements\/maisons pavillonnaires", "building.architecture.niveau": " 2", "addr.housenumber": "1bis", "addr.street": "Villa Carnot" }, "geometry": { "type": "Point", "coordinates": [ 2.480881, 48.897865 ] } },
{ "type": "Feature", "properties": { "building.architecture": "Lotissements\/maisons pavillonnaires", "building.architecture.niveau": " 2", "addr.housenumber": "4bis", "addr.street": "Villa Carnot" }, "geometry": { "type": "Point", "coordinates": [ 2.480985, 48.897613 ] } },
{ "type": "Feature", "properties": { "building.architecture": "Lotissements\/maisons pavillonnaires", "building.architecture.niveau": " 2", "addr.housenumber": "3", "addr.street": "Villa Parmentier" }, "geometry": { "type": "Point", "coordinates": [ 2.479572, 48.899371 ] } },
{ "type": "Feature", "properties": { "building.architecture": "Lotissements\/maisons pavillonnaires", "building.architecture.niveau": " 2", "addr.housenumber": "5", "addr.street": "Villa Parmentier" }, "geometry": { "type": "Point", "coordinates": [ 2.479704, 48.899344 ] } },
{ "type": "Feature", "properties": { "building.architecture": "Lotissements\/maisons pavillonnaires", "building.architecture.niveau": " 2", "addr.housenumber": "6", "addr.street": "Villa Parmentier" }, "geometry": { "type": "Point", "coordinates": [ 2.479712, 48.899297 ] } },
{ "type": "Feature", "properties": { "building.architecture": "Lotissements\/maisons pavillonnaires", "building.architecture.niveau": " 2", "addr.housenumber": "7", "addr.street": "Villa Parmentier" }, "geometry": { "type": "Point", "coordinates": [ 2.479821, 48.899322 ] } },
{ "type": "Feature", "properties": { "building.architecture": "Lotissements\/maisons pavillonnaires", "building.architecture.niveau": " 2", "addr.housenumber": "17", "addr.street": "Allee Jean Courtade" }, "geometry": { "type": "Point", "coordinates": [ 2.479529, 48.896898 ] } },
{ "type": "Feature", "properties": { "building.architecture": "Lotissements\/maisons pavillonnaires", "building.architecture.niveau": " 2", "addr.housenumber": "33", "addr.street": "Avenue Carnot" }, "geometry": { "type": "Point", "coordinates": [ 2.482118, 48.900964 ] } },
{ "type": "Feature", "properties": { "building.architecture": "Lotissements\/maisons pavillonnaires", "building.architecture.niveau": " 2", "addr.housenumber": "84", "addr.street": "Avenue Carnot" }, "geometry": { "type": "Point", "coordinates": [ 2.480857, 48.89861 ] } },
{ "type": "Feature", "properties": { "building.architecture": "Immeubles", "building.architecture.niveau": " 2", "addr.housenumber": "94", "addr.street": "Avenue Carnot" }, "geometry": { "type": "Point", "coordinates": [ 2.48028, 48.898222 ] } },
{ "type": "Feature", "properties": { "building.architecture": "Lotissements\/maisons pavillonnaires", "building.architecture.niveau": " 2", "addr.housenumber": "112", "addr.street": "Avenue Carnot" }, "geometry": { "type": "Point", "coordinates": [ 2.480121, 48.897049 ] } },
{ "type": "Feature", "properties": { "building.architecture": "Lotissements\/maisons pavillonnaires", "building.architecture.niveau": " 2", "addr.housenumber": null, "addr.street": "Avenue de la République" }, "geometry": { "type": "Point", "coordinates": [ 2.478561, 48.897794 ] } },
{ "type": "Feature", "properties": { "building.architecture": "Immeubles", "building.architecture.niveau": " 2", "addr.housenumber": "2", "addr.street": "Impasse Carnot" }, "geometry": { "type": "Point", "coordinates": [ 2.480286, 48.897882 ] } },
{ "type": "Feature", "properties": { "building.architecture": "Lotissements\/maisons pavillonnaires", "building.architecture.niveau": " 2", "addr.housenumber": "4", "addr.street": "Impasse Carnot" }, "geometry": { "type": "Point", "coordinates": [ 2.480081, 48.897919 ] } },
{ "type": "Feature", "properties": { "building.architecture": "Lotissements\/maisons pavillonnaires", "building.architecture.niveau": " 2", "addr.housenumber": "8", "addr.street": "Impasse Carnot" }, "geometry": { "type": "Point", "coordinates": [ 2.479825, 48.897967 ] } },
{ "type": "Feature", "properties": { "building.architecture": "Immeubles", "building.architecture.niveau": " 2", "addr.housenumber": null, "addr.street": "Place Albert Thomas" }, "geometry": { "type": "Point", "coordinates": [ 2.47948, 48.898742 ] } },
{ "type": "Feature", "properties": { "building.architecture": "Maisons de bourg", "building.architecture.niveau": " 2", "addr.housenumber": "80", "addr.street": "Rue Roger Salengro" }, "geometry": { "type": "Point", "coordinates": [ 2.477801, 48.898524 ] } },
{ "type": "Feature", "properties": { "building.architecture": "Lotissements\/maisons pavillonnaires", "building.architecture.niveau": " 2", "addr.housenumber": "12", "addr.street": "Rue Beauregard" }, "geometry": { "type": "Point", "coordinates": [ 2.4776, 48.899379 ] } },
{ "type": "Feature", "properties": { "building.architecture": "Lotissements\/maisons pavillonnaires", "building.architecture.niveau": " 2", "addr.housenumber": "14", "addr.street": "Rue Beauregard" }, "geometry": { "type": "Point", "coordinates": [ 2.477763, 48.8994 ] } },
{ "type": "Feature", "properties": { "building.architecture": "Lotissements\/maisons pavillonnaires", "building.architecture.niveau": " 2", "addr.housenumber": "15", "addr.street": "Rue Beauregard" }, "geometry": { "type": "Point", "coordinates": [ 2.477696, 48.899477 ] } },
{ "type": "Feature", "properties": { "building.architecture": "Lotissements\/maisons pavillonnaires", "building.architecture.niveau": " 2", "addr.housenumber": "19", "addr.street": "Rue Beauregard" }, "geometry": { "type": "Point", "coordinates": [ 2.478017, 48.89952 ] } },
{ "type": "Feature", "properties": { "building.architecture": "Immeubles", "building.architecture.niveau": " 2", "addr.housenumber": "18", "addr.street": "Rue Louis Auguste Blanqui" }, "geometry": { "type": "Point", "coordinates": [ 2.48056, 48.900013 ] } },
{ "type": "Feature", "properties": { "building.architecture": "Lotissements\/maisons pavillonnaires", "building.architecture.niveau": " 2", "addr.housenumber": "27", "addr.street": "Rue Roger Salengro" }, "geometry": { "type": "Point", "coordinates": [ 2.478679, 48.900485 ] } },
{ "type": "Feature", "properties": { "building.architecture": "Equipement culturels", "building.architecture.niveau": " 2", "addr.housenumber": "48", "addr.street": "Rue Roger Salengro" }, "geometry": { "type": "Point", "coordinates": [ 2.478573, 48.900735 ] } },
{ "type": "Feature", "properties": { "building.architecture": "Lotissements\/maisons pavillonnaires", "building.architecture.niveau": " 2", "addr.housenumber": "66", "addr.street": "Rue Roger Salengro" }, "geometry": { "type": "Point", "coordinates": [ 2.47836, 48.899624 ] } },
{ "type": "Feature", "properties": { "building.architecture": "Immeubles", "building.architecture.niveau": " 2", "addr.housenumber": "70", "addr.street": "Rue Roger Salengro" }, "geometry": { "type": "Point", "coordinates": [ 2.478184, 48.899198 ] } },
{ "type": "Feature", "properties": { "building.architecture": "Equipements culturels", "building.architecture.niveau": " 2", "addr.housenumber": "23bis", "addr.street": "Rue Roger Salengro" }, "geometry": { "type": "Point", "coordinates": [ 2.478889, 48.901127 ] } },
{ "type": "Feature", "properties": { "building.architecture": "Lotissements\/maisons pavillonnaires", "building.architecture.niveau": " 2", "addr.housenumber": "2", "addr.street": "Villa Carnot" }, "geometry": { "type": "Point", "coordinates": [ 2.480804, 48.89773 ] } },
{ "type": "Feature", "properties": { "building.architecture": "Lotissements\/maisons pavillonnaires", "building.architecture.niveau": " 2", "addr.housenumber": "3", "addr.street": "Villa Carnot" }, "geometry": { "type": "Point", "coordinates": [ 2.481058, 48.897832 ] } },
{ "type": "Feature", "properties": { "building.architecture": "Lotissements\/maisons pavillonnaires", "building.architecture.niveau": " 2", "addr.housenumber": "4", "addr.street": "Villa Carnot" }, "geometry": { "type": "Point", "coordinates": [ 2.480938, 48.8977 ] } },
{ "type": "Feature", "properties": { "building.architecture": "Lotissements\/maisons pavillonnaires", "building.architecture.niveau": " 2", "addr.housenumber": "6", "addr.street": "Villa Carnot" }, "geometry": { "type": "Point", "coordinates": [ 2.481181, 48.897647 ] } },
{ "type": "Feature", "properties": { "building.architecture": "Lotissements\/maisons pavillonnaires", "building.architecture.niveau": " 2", "addr.housenumber": "7", "addr.street": "Villa Carnot" }, "geometry": { "type": "Point", "coordinates": [ 2.481382, 48.897661 ] } },
{ "type": "Feature", "properties": { "building.architecture": "Lotissements\/maisons pavillonnaires", "building.architecture.niveau": " 2", "addr.housenumber": "1bis", "addr.street": "Villa Carnot" }, "geometry": { "type": "Point", "coordinates": [ 2.480881, 48.897865 ] } },
{ "type": "Feature", "properties": { "building.architecture": "Lotissements\/maisons pavillonnaires", "building.architecture.niveau": " 2", "addr.housenumber": "4bis", "addr.street": "Villa Carnot" }, "geometry": { "type": "Point", "coordinates": [ 2.480985, 48.897613 ] } },
{ "type": "Feature", "properties": { "building.architecture": "Lotissements\/maisons pavillonnaires", "building.architecture.niveau": " 2", "addr.housenumber": "3", "addr.street": "Villa Parmentier" }, "geometry": { "type": "Point", "coordinates": [ 2.479572, 48.899371 ] } },
{ "type": "Feature", "properties": { "building.architecture": "Lotissements\/maisons pavillonnaires", "building.architecture.niveau": " 2", "addr.housenumber": "5", "addr.street": "Villa Parmentier" }, "geometry": { "type": "Point", "coordinates": [ 2.479704, 48.899344 ] } },
{ "type": "Feature", "properties": { "building.architecture": "Lotissements\/maisons pavillonnaires", "building.architecture.niveau": " 2", "addr.housenumber": "6", "addr.street": "Villa Parmentier" }, "geometry": { "type": "Point", "coordinates": [ 2.479712, 48.899297 ] } },
{ "type": "Feature", "properties": { "building.architecture": "Lotissements\/maisons pavillonnaires", "building.architecture.niveau": " 2", "addr.housenumber": "7", "addr.street": "Villa Parmentier" }, "geometry": { "type": "Point", "coordinates": [ 2.479821, 48.899322 ] } }
]
}
