{
"type": "FeatureCollection",
"name": "5_zone",
"crs": { "type": "name", "properties": { "name": "urn:ogc:def:crs:OGC:1.3:CRS84" } },
"features": [
{ "type": "Feature", "properties": { "name": 5, "boundary": "patrimoine" }, "geometry": { "type": "Polygon", "coordinates": [ [ [ 2.479505289008124, 48.896621593479395 ], [ 2.477869682096395, 48.897509401579271 ], [ 2.477468989514129, 48.899268054370907 ], [ 2.4782870313673, 48.900851518376406 ], [ 2.479414401391923, 48.90157261524385 ], [ 2.480364817428807, 48.90155126470119 ], [ 2.480931514855698, 48.901444827178999 ], [ 2.481402872823042, 48.901329761393974 ], [ 2.482228616926511, 48.900951359452776 ], [ 2.481544993979699, 48.897708981170233 ], [ 2.479505289008124, 48.896621593479395 ] ] ] } },
{ "type": "Feature", "properties": { "name": 5, "boundary": "patrimoine" }, "geometry": { "type": "Polygon", "coordinates": [ [ [ 2.479505289008124, 48.896621593479395 ], [ 2.477869682096395, 48.897509401579271 ], [ 2.477468989514129, 48.899268054370907 ], [ 2.4782870313673, 48.900851518376406 ], [ 2.479414401391923, 48.90157261524385 ], [ 2.480364817428807, 48.90155126470119 ], [ 2.480931514855698, 48.901444827178999 ], [ 2.481402872823042, 48.901329761393974 ], [ 2.482228616926511, 48.900951359452776 ], [ 2.481544993979699, 48.897708981170233 ], [ 2.479505289008124, 48.896621593479395 ] ] ] } },
{ "type": "Feature", "properties": { "name": 5, "boundary": "patrimoine" }, "geometry": { "type": "Polygon", "coordinates": [ [ [ 2.479505289008124, 48.896621593479395 ], [ 2.477869682096395, 48.897509401579271 ], [ 2.477468989514129, 48.899268054370907 ], [ 2.4782870313673, 48.900851518376406 ], [ 2.479414401391923, 48.90157261524385 ], [ 2.480364817428807, 48.90155126470119 ], [ 2.480931514855698, 48.901444827178999 ], [ 2.481402872823042, 48.901329761393974 ], [ 2.482228616926511, 48.900951359452776 ], [ 2.481544993979699, 48.897708981170233 ], [ 2.479505289008124, 48.896621593479395 ] ] ] } }
]
}
