{
"type": "FeatureCollection",
"name": "7_zone",
"crs": { "type": "name", "properties": { "name": "urn:ogc:def:crs:OGC:1.3:CRS84" } },
"features": [
{ "type": "Feature", "properties": { "name": 7, "boundary": "patrimoine" }, "geometry": { "type": "Polygon", "coordinates": [ [ [ 2.482499991771876, 48.901648689059989 ], [ 2.480545018523972, 48.901833003962629 ], [ 2.477951385746319, 48.903339348329055 ], [ 2.476828537269071, 48.904018449040166 ], [ 2.472759285335211, 48.908418821918815 ], [ 2.473228028401656, 48.9091372889159 ], [ 2.480403620940299, 48.916997219210508 ], [ 2.489125196704875, 48.912955446597991 ], [ 2.490560329213324, 48.910268137488082 ], [ 2.483986602200855, 48.903169119083039 ], [ 2.482499991771876, 48.901648689059989 ] ] ] } },
{ "type": "Feature", "properties": { "name": 7, "boundary": "patrimoine" }, "geometry": { "type": "Polygon", "coordinates": [ [ [ 2.482499991771876, 48.901648689059989 ], [ 2.480545018523972, 48.901833003962629 ], [ 2.477951385746319, 48.903339348329055 ], [ 2.476828537269071, 48.904018449040166 ], [ 2.472759285335211, 48.908418821918815 ], [ 2.473228028401656, 48.9091372889159 ], [ 2.480403620940299, 48.916997219210508 ], [ 2.489125196704875, 48.912955446597991 ], [ 2.490560329213324, 48.910268137488082 ], [ 2.483986602200855, 48.903169119083039 ], [ 2.482499991771876, 48.901648689059989 ] ] ] } },
{ "type": "Feature", "properties": { "name": 7, "boundary": "patrimoine" }, "geometry": { "type": "Polygon", "coordinates": [ [ [ 2.482499991771876, 48.901648689059989 ], [ 2.480545018523972, 48.901833003962629 ], [ 2.477951385746319, 48.903339348329055 ], [ 2.476828537269071, 48.904018449040166 ], [ 2.472759285335211, 48.908418821918815 ], [ 2.473228028401656, 48.9091372889159 ], [ 2.480403620940299, 48.916997219210508 ], [ 2.489125196704875, 48.912955446597991 ], [ 2.490560329213324, 48.910268137488082 ], [ 2.483986602200855, 48.903169119083039 ], [ 2.482499991771876, 48.901648689059989 ] ] ] } }
]
}
