{
"type": "FeatureCollection",
"name": "8_adresse",
"crs": { "type": "name", "properties": { "name": "urn:ogc:def:crs:OGC:1.3:CRS84" } },
"features": [
{ "type": "Feature", "properties": { "building.architecture": "Lotissements/maisons pavillonnaires", "building.architecture.niveau": " 2", "addr.housenumber": "3", "addr.street": "Allee du Moulin" }, "geometry": { "type": "Point", "coordinates": [ 2.477062, 48.895454 ] } },
{ "type": "Feature", "properties": { "building.architecture": "Lotissements/maisons pavillonnaires", "building.architecture.niveau": " 2", "addr.housenumber": "4", "addr.street": "Allee du Moulin" }, "geometry": { "type": "Point", "coordinates": [ 2.476789, 48.895596 ] } },
{ "type": "Feature", "properties": { "building.architecture": "Lotissements/maisons pavillonnaires", "building.architecture.niveau": " 2", "addr.housenumber": "5", "addr.street": "Allee du Moulin" }, "geometry": { "type": "Point", "coordinates": [ 2.476916, 48.895503 ] } },
{ "type": "Feature", "properties": { "building.architecture": "Lotissements/maisons pavillonnaires", "building.architecture.niveau": " 2", "addr.housenumber": "6", "addr.street": "Allee du Moulin" }, "geometry": { "type": "Point", "coordinates": [ 2.476587, 48.895661 ] } },
{ "type": "Feature", "properties": { "building.architecture": "Lotissements/maisons pavillonnaires", "building.architecture.niveau": " 2", "addr.housenumber": "7", "addr.street": "Allee du Moulin" }, "geometry": { "type": "Point", "coordinates": [ 2.476802, 48.895541 ] } },
{ "type": "Feature", "properties": { "building.architecture": "Lotissements/maisons pavillonnaires", "building.architecture.niveau": " 2", "addr.housenumber": "8", "addr.street": "Allee du Moulin" }, "geometry": { "type": "Point", "coordinates": [ 2.476412, 48.89572 ] } },
{ "type": "Feature", "properties": { "building.architecture": "Lotissements/maisons pavillonnaires", "building.architecture.niveau": " 2", "addr.housenumber": "9", "addr.street": "Allee du Moulin" }, "geometry": { "type": "Point", "coordinates": [ 2.47646, 48.895652 ] } },
{ "type": "Feature", "properties": { "building.architecture": "Lotissements/maisons pavillonnaires", "building.architecture.niveau": " 2", "addr.housenumber": "15", "addr.street": "Allee du Moulin" }, "geometry": { "type": "Point", "coordinates": [ 2.476289, 48.895712 ] } },
{ "type": "Feature", "properties": { "building.architecture": "Lotissements/maisons pavillonnaires", "building.architecture.niveau": " 2", "addr.housenumber": "11", "addr.street": "Allee du Moulin" }, "geometry": { "type": "Point", "coordinates": [ 2.4765, 48.895644 ] } },
{ "type": "Feature", "properties": { "building.architecture": "Lotissements/maisons pavillonnaires", "building.architecture.niveau": " 2", "addr.housenumber": "146", "addr.street": "Avenue Carnot" }, "geometry": { "type": "Point", "coordinates": [ 2.479171, 48.895626 ] } },
{ "type": "Feature", "properties": { "building.architecture": "Lotissements/maisons pavillonnaires", "building.architecture.niveau": " 2", "addr.housenumber": "154", "addr.street": "Avenue Carnot" }, "geometry": { "type": "Point", "coordinates": [ 2.479223, 48.895308 ] } },
{ "type": "Feature", "properties": { "building.architecture": "Lotissements/maisons pavillonnaires", "building.architecture.niveau": " 2", "addr.housenumber": "96", "addr.street": "Avenue de la République" }, "geometry": { "type": "Point", "coordinates": [ 2.478188, 48.897051 ] } },
{ "type": "Feature", "properties": { "building.architecture": "Lotissements/maisons pavillonnaires", "building.architecture.niveau": " 2", "addr.housenumber": "100", "addr.street": "Avenue de la République" }, "geometry": { "type": "Point", "coordinates": [ 2.478147, 48.896913 ] } },
{ "type": "Feature", "properties": { "building.architecture": "Lotissements/maisons pavillonnaires", "building.architecture.niveau": " 2", "addr.housenumber": "102", "addr.street": "Avenue de la République" }, "geometry": { "type": "Point", "coordinates": [ 2.478134, 48.896859 ] } },
{ "type": "Feature", "properties": { "building.architecture": "Lotissements/maisons pavillonnaires", "building.architecture.niveau": " 2", "addr.housenumber": "104", "addr.street": "Avenue de la République" }, "geometry": { "type": "Point", "coordinates": [ 2.478066, 48.896611 ] } },
{ "type": "Feature", "properties": { "building.architecture": "Lotissements/maisons pavillonnaires", "building.architecture.niveau": " 2", "addr.housenumber": "106", "addr.street": "Avenue de la République" }, "geometry": { "type": "Point", "coordinates": [ 2.477996, 48.896366 ] } },
{ "type": "Feature", "properties": { "building.architecture": "Lotissements/maisons pavillonnaires", "building.architecture.niveau": " 2", "addr.housenumber": "102bis", "addr.street": "Avenue de la République" }, "geometry": { "type": "Point", "coordinates": [ 2.478098, 48.896783 ] } },
{ "type": "Feature", "properties": { "building.architecture": "Lotissements/maisons pavillonnaires", "building.architecture.niveau": " 2", "addr.housenumber": "102ter", "addr.street": "Avenue de la République" }, "geometry": { "type": "Point", "coordinates": [ 2.478083, 48.896708 ] } },
{ "type": "Feature", "properties": { "building.architecture": "Lotissements/maisons pavillonnaires", "building.architecture.niveau": " 2", "addr.housenumber": "108", "addr.street": "Avenue de la République" }, "geometry": { "type": "Point", "coordinates": [ 2.477959, 48.896248 ] } },
{ "type": "Feature", "properties": { "building.architecture": "Lotissements/maisons pavillonnaires", "building.architecture.niveau": " 2", "addr.housenumber": "110", "addr.street": "Avenue de la République" }, "geometry": { "type": "Point", "coordinates": [ 2.477935, 48.896144 ] } },
{ "type": "Feature", "properties": { "building.architecture": "Lotissements/maisons pavillonnaires", "building.architecture.niveau": " 2", "addr.housenumber": "116", "addr.street": "Avenue de la République" }, "geometry": { "type": "Point", "coordinates": [ 2.477553, 48.89579 ] } },
{ "type": "Feature", "properties": { "building.architecture": "Lotissements/maisons pavillonnaires", "building.architecture.niveau": " 2", "addr.housenumber": "5", "addr.street": "Rue du Sergent Bobillot" }, "geometry": { "type": "Point", "coordinates": [ 2.476583, 48.896174 ] } },
{ "type": "Feature", "properties": { "building.architecture": "Lotissements/maisons pavillonnaires", "building.architecture.niveau": " 2", "addr.housenumber": "3", "addr.street": "Rue Edouard Vaillant" }, "geometry": { "type": "Point", "coordinates": [ 2.477445, 48.896613 ] } },
{ "type": "Feature", "properties": { "building.architecture": "Immeubles", "building.architecture.niveau": " 2", "addr.housenumber": "21", "addr.street": "Rue Edouard Vaillant" }, "geometry": { "type": "Point", "coordinates": [ 2.479195, 48.896368 ] } },
{ "type": "Feature", "properties": { "building.architecture": "Lotissements/maisons pavillonnaires", "building.architecture.niveau": " 2", "addr.housenumber": "8", "addr.street": "Rue Etienne Dolet" }, "geometry": { "type": "Point", "coordinates": [ 2.477243, 48.893064 ] } },
{ "type": "Feature", "properties": { "building.architecture": "Architecture scolaire", "building.architecture.niveau": " 3", "addr.housenumber": "5bis", "addr.street": "Rue Etienne Dolet" }, "geometry": { "type": "Point", "coordinates": [ 2.47743, 48.893581 ] } },
{ "type": "Feature", "properties": { "building.architecture": "Maisons de bourg", "building.architecture.niveau": " 2", "addr.housenumber": "71", "addr.street": "Rue Roger Salengro" }, "geometry": { "type": "Point", "coordinates": [ 2.477426, 48.897372 ] } },
{ "type": "Feature", "properties": { "building.architecture": "Lotissements/maisons pavillonnaires", "building.architecture.niveau": " 2", "addr.housenumber": "89", "addr.street": "Rue Roger Salengro" }, "geometry": { "type": "Point", "coordinates": [ 2.47725, 48.895896 ] } },
{ "type": "Feature", "properties": { "building.architecture": "Architecture scolaire", "building.architecture.niveau": " 3", "addr.housenumber": "106", "addr.street": "Rue Roger Salengro" }, "geometry": { "type": "Point", "coordinates": [ 2.47715, 48.89708 ] } },
{ "type": "Feature", "properties": { "building.architecture": "Lotissements/maisons pavillonnaires", "building.architecture.niveau": " 2", "addr.housenumber": "112", "addr.street": "Rue Roger Salengro" }, "geometry": { "type": "Point", "coordinates": [ 2.477078, 48.896738 ] } },
{ "type": "Feature", "properties": { "building.architecture": "Lotissements/maisons pavillonnaires", "building.architecture.niveau": " 2", "addr.housenumber": "114", "addr.street": "Rue Roger Salengro" }, "geometry": { "type": "Point", "coordinates": [ 2.477063, 48.896655 ] } },
{ "type": "Feature", "properties": { "building.architecture": "Immeubles", "building.architecture.niveau": " 2", "addr.housenumber": "120", "addr.street": "Rue Roger Salengro" }, "geometry": { "type": "Point", "coordinates": [ 2.477064, 48.896206 ] } },
{ "type": "Feature", "properties": { "building.architecture": "Lotissements\/maisons pavillonnaires", "building.architecture.niveau": " 2", "addr.housenumber": "3", "addr.street": "Allee du Moulin" }, "geometry": { "type": "Point", "coordinates": [ 2.477062, 48.895454 ] } },
{ "type": "Feature", "properties": { "building.architecture": "Lotissements\/maisons pavillonnaires", "building.architecture.niveau": " 2", "addr.housenumber": "4", "addr.street": "Allee du Moulin" }, "geometry": { "type": "Point", "coordinates": [ 2.476789, 48.895596 ] } },
{ "type": "Feature", "properties": { "building.architecture": "Lotissements\/maisons pavillonnaires", "building.architecture.niveau": " 2", "addr.housenumber": "5", "addr.street": "Allee du Moulin" }, "geometry": { "type": "Point", "coordinates": [ 2.476916, 48.895503 ] } },
{ "type": "Feature", "properties": { "building.architecture": "Lotissements\/maisons pavillonnaires", "building.architecture.niveau": " 2", "addr.housenumber": "6", "addr.street": "Allee du Moulin" }, "geometry": { "type": "Point", "coordinates": [ 2.476587, 48.895661 ] } },
{ "type": "Feature", "properties": { "building.architecture": "Lotissements\/maisons pavillonnaires", "building.architecture.niveau": " 2", "addr.housenumber": "7", "addr.street": "Allee du Moulin" }, "geometry": { "type": "Point", "coordinates": [ 2.476802, 48.895541 ] } },
{ "type": "Feature", "properties": { "building.architecture": "Lotissements\/maisons pavillonnaires", "building.architecture.niveau": " 2", "addr.housenumber": "8", "addr.street": "Allee du Moulin" }, "geometry": { "type": "Point", "coordinates": [ 2.476412, 48.89572 ] } },
{ "type": "Feature", "properties": { "building.architecture": "Lotissements\/maisons pavillonnaires", "building.architecture.niveau": " 2", "addr.housenumber": "9", "addr.street": "Allee du Moulin" }, "geometry": { "type": "Point", "coordinates": [ 2.47646, 48.895652 ] } },
{ "type": "Feature", "properties": { "building.architecture": "Lotissements\/maisons pavillonnaires", "building.architecture.niveau": " 2", "addr.housenumber": "15", "addr.street": "Allee du Moulin" }, "geometry": { "type": "Point", "coordinates": [ 2.476289, 48.895712 ] } },
{ "type": "Feature", "properties": { "building.architecture": "Lotissements\/maisons pavillonnaires", "building.architecture.niveau": " 2", "addr.housenumber": "11", "addr.street": "Allee du Moulin" }, "geometry": { "type": "Point", "coordinates": [ 2.4765, 48.895644 ] } },
{ "type": "Feature", "properties": { "building.architecture": "Lotissements\/maisons pavillonnaires", "building.architecture.niveau": " 2", "addr.housenumber": "146", "addr.street": "Avenue Carnot" }, "geometry": { "type": "Point", "coordinates": [ 2.479171, 48.895626 ] } },
{ "type": "Feature", "properties": { "building.architecture": "Lotissements\/maisons pavillonnaires", "building.architecture.niveau": " 2", "addr.housenumber": "154", "addr.street": "Avenue Carnot" }, "geometry": { "type": "Point", "coordinates": [ 2.479223, 48.895308 ] } },
{ "type": "Feature", "properties": { "building.architecture": "Lotissements\/maisons pavillonnaires", "building.architecture.niveau": " 2", "addr.housenumber": "96", "addr.street": "Avenue de la République" }, "geometry": { "type": "Point", "coordinates": [ 2.478188, 48.897051 ] } },
{ "type": "Feature", "properties": { "building.architecture": "Lotissements\/maisons pavillonnaires", "building.architecture.niveau": " 2", "addr.housenumber": "100", "addr.street": "Avenue de la République" }, "geometry": { "type": "Point", "coordinates": [ 2.478147, 48.896913 ] } },
{ "type": "Feature", "properties": { "building.architecture": "Lotissements\/maisons pavillonnaires", "building.architecture.niveau": " 2", "addr.housenumber": "102", "addr.street": "Avenue de la République" }, "geometry": { "type": "Point", "coordinates": [ 2.478134, 48.896859 ] } },
{ "type": "Feature", "properties": { "building.architecture": "Lotissements\/maisons pavillonnaires", "building.architecture.niveau": " 2", "addr.housenumber": "104", "addr.street": "Avenue de la République" }, "geometry": { "type": "Point", "coordinates": [ 2.478066, 48.896611 ] } },
{ "type": "Feature", "properties": { "building.architecture": "Lotissements\/maisons pavillonnaires", "building.architecture.niveau": " 2", "addr.housenumber": "106", "addr.street": "Avenue de la République" }, "geometry": { "type": "Point", "coordinates": [ 2.477996, 48.896366 ] } },
{ "type": "Feature", "properties": { "building.architecture": "Lotissements\/maisons pavillonnaires", "building.architecture.niveau": " 2", "addr.housenumber": "102bis", "addr.street": "Avenue de la République" }, "geometry": { "type": "Point", "coordinates": [ 2.478098, 48.896783 ] } },
{ "type": "Feature", "properties": { "building.architecture": "Lotissements\/maisons pavillonnaires", "building.architecture.niveau": " 2", "addr.housenumber": "102ter", "addr.street": "Avenue de la République" }, "geometry": { "type": "Point", "coordinates": [ 2.478083, 48.896708 ] } },
{ "type": "Feature", "properties": { "building.architecture": "Lotissements\/maisons pavillonnaires", "building.architecture.niveau": " 2", "addr.housenumber": "108", "addr.street": "Avenue de la République" }, "geometry": { "type": "Point", "coordinates": [ 2.477959, 48.896248 ] } },
{ "type": "Feature", "properties": { "building.architecture": "Lotissements\/maisons pavillonnaires", "building.architecture.niveau": " 2", "addr.housenumber": "110", "addr.street": "Avenue de la République" }, "geometry": { "type": "Point", "coordinates": [ 2.477935, 48.896144 ] } },
{ "type": "Feature", "properties": { "building.architecture": "Lotissements\/maisons pavillonnaires", "building.architecture.niveau": " 2", "addr.housenumber": "116", "addr.street": "Avenue de la République" }, "geometry": { "type": "Point", "coordinates": [ 2.477553, 48.89579 ] } },
{ "type": "Feature", "properties": { "building.architecture": "Lotissements\/maisons pavillonnaires", "building.architecture.niveau": " 2", "addr.housenumber": "5", "addr.street": "Rue du Sergent Bobillot" }, "geometry": { "type": "Point", "coordinates": [ 2.476583, 48.896174 ] } },
{ "type": "Feature", "properties": { "building.architecture": "Lotissements\/maisons pavillonnaires", "building.architecture.niveau": " 2", "addr.housenumber": "3", "addr.street": "Rue Edouard Vaillant" }, "geometry": { "type": "Point", "coordinates": [ 2.477445, 48.896613 ] } },
{ "type": "Feature", "properties": { "building.architecture": "Immeubles", "building.architecture.niveau": " 2", "addr.housenumber": "21", "addr.street": "Rue Edouard Vaillant" }, "geometry": { "type": "Point", "coordinates": [ 2.479195, 48.896368 ] } },
{ "type": "Feature", "properties": { "building.architecture": "Lotissements\/maisons pavillonnaires", "building.architecture.niveau": " 2", "addr.housenumber": "8", "addr.street": "Rue Etienne Dolet" }, "geometry": { "type": "Point", "coordinates": [ 2.477243, 48.893064 ] } },
{ "type": "Feature", "properties": { "building.architecture": "Architecture scolaire", "building.architecture.niveau": " 3", "addr.housenumber": "5bis", "addr.street": "Rue Etienne Dolet" }, "geometry": { "type": "Point", "coordinates": [ 2.47743, 48.893581 ] } },
{ "type": "Feature", "properties": { "building.architecture": "Maisons de bourg", "building.architecture.niveau": " 2", "addr.housenumber": "71", "addr.street": "Rue Roger Salengro" }, "geometry": { "type": "Point", "coordinates": [ 2.477426, 48.897372 ] } },
{ "type": "Feature", "properties": { "building.architecture": "Lotissements\/maisons pavillonnaires", "building.architecture.niveau": " 2", "addr.housenumber": "89", "addr.street": "Rue Roger Salengro" }, "geometry": { "type": "Point", "coordinates": [ 2.47725, 48.895896 ] } },
{ "type": "Feature", "properties": { "building.architecture": "Architecture scolaire", "building.architecture.niveau": " 3", "addr.housenumber": "106", "addr.street": "Rue Roger Salengro" }, "geometry": { "type": "Point", "coordinates": [ 2.47715, 48.89708 ] } },
{ "type": "Feature", "properties": { "building.architecture": "Lotissements\/maisons pavillonnaires", "building.architecture.niveau": " 2", "addr.housenumber": "112", "addr.street": "Rue Roger Salengro" }, "geometry": { "type": "Point", "coordinates": [ 2.477078, 48.896738 ] } },
{ "type": "Feature", "properties": { "building.architecture": "Lotissements\/maisons pavillonnaires", "building.architecture.niveau": " 2", "addr.housenumber": "114", "addr.street": "Rue Roger Salengro" }, "geometry": { "type": "Point", "coordinates": [ 2.477063, 48.896655 ] } },
{ "type": "Feature", "properties": { "building.architecture": "Immeubles", "building.architecture.niveau": " 2", "addr.housenumber": "120", "addr.street": "Rue Roger Salengro" }, "geometry": { "type": "Point", "coordinates": [ 2.477064, 48.896206 ] } },
{ "type": "Feature", "properties": { "building.architecture": "Lotissements\/maisons pavillonnaires", "building.architecture.niveau": " 2", "addr.housenumber": "3", "addr.street": "Allee du Moulin" }, "geometry": { "type": "Point", "coordinates": [ 2.477062, 48.895454 ] } },
{ "type": "Feature", "properties": { "building.architecture": "Lotissements\/maisons pavillonnaires", "building.architecture.niveau": " 2", "addr.housenumber": "4", "addr.street": "Allee du Moulin" }, "geometry": { "type": "Point", "coordinates": [ 2.476789, 48.895596 ] } },
{ "type": "Feature", "properties": { "building.architecture": "Lotissements\/maisons pavillonnaires", "building.architecture.niveau": " 2", "addr.housenumber": "5", "addr.street": "Allee du Moulin" }, "geometry": { "type": "Point", "coordinates": [ 2.476916, 48.895503 ] } },
{ "type": "Feature", "properties": { "building.architecture": "Lotissements\/maisons pavillonnaires", "building.architecture.niveau": " 2", "addr.housenumber": "6", "addr.street": "Allee du Moulin" }, "geometry": { "type": "Point", "coordinates": [ 2.476587, 48.895661 ] } },
{ "type": "Feature", "properties": { "building.architecture": "Lotissements\/maisons pavillonnaires", "building.architecture.niveau": " 2", "addr.housenumber": "7", "addr.street": "Allee du Moulin" }, "geometry": { "type": "Point", "coordinates": [ 2.476802, 48.895541 ] } },
{ "type": "Feature", "properties": { "building.architecture": "Lotissements\/maisons pavillonnaires", "building.architecture.niveau": " 2", "addr.housenumber": "8", "addr.street": "Allee du Moulin" }, "geometry": { "type": "Point", "coordinates": [ 2.476412, 48.89572 ] } },
{ "type": "Feature", "properties": { "building.architecture": "Lotissements\/maisons pavillonnaires", "building.architecture.niveau": " 2", "addr.housenumber": "9", "addr.street": "Allee du Moulin" }, "geometry": { "type": "Point", "coordinates": [ 2.47646, 48.895652 ] } },
{ "type": "Feature", "properties": { "building.architecture": "Lotissements\/maisons pavillonnaires", "building.architecture.niveau": " 2", "addr.housenumber": "15", "addr.street": "Allee du Moulin" }, "geometry": { "type": "Point", "coordinates": [ 2.476289, 48.895712 ] } },
{ "type": "Feature", "properties": { "building.architecture": "Lotissements\/maisons pavillonnaires", "building.architecture.niveau": " 2", "addr.housenumber": "11", "addr.street": "Allee du Moulin" }, "geometry": { "type": "Point", "coordinates": [ 2.4765, 48.895644 ] } },
{ "type": "Feature", "properties": { "building.architecture": "Lotissements\/maisons pavillonnaires", "building.architecture.niveau": " 2", "addr.housenumber": "146", "addr.street": "Avenue Carnot" }, "geometry": { "type": "Point", "coordinates": [ 2.479171, 48.895626 ] } },
{ "type": "Feature", "properties": { "building.architecture": "Lotissements\/maisons pavillonnaires", "building.architecture.niveau": " 2", "addr.housenumber": "154", "addr.street": "Avenue Carnot" }, "geometry": { "type": "Point", "coordinates": [ 2.479223, 48.895308 ] } },
{ "type": "Feature", "properties": { "building.architecture": "Lotissements\/maisons pavillonnaires", "building.architecture.niveau": " 2", "addr.housenumber": "96", "addr.street": "Avenue de la République" }, "geometry": { "type": "Point", "coordinates": [ 2.478188, 48.897051 ] } },
{ "type": "Feature", "properties": { "building.architecture": "Lotissements\/maisons pavillonnaires", "building.architecture.niveau": " 2", "addr.housenumber": "100", "addr.street": "Avenue de la République" }, "geometry": { "type": "Point", "coordinates": [ 2.478147, 48.896913 ] } },
{ "type": "Feature", "properties": { "building.architecture": "Lotissements\/maisons pavillonnaires", "building.architecture.niveau": " 2", "addr.housenumber": "102", "addr.street": "Avenue de la République" }, "geometry": { "type": "Point", "coordinates": [ 2.478134, 48.896859 ] } },
{ "type": "Feature", "properties": { "building.architecture": "Lotissements\/maisons pavillonnaires", "building.architecture.niveau": " 2", "addr.housenumber": "104", "addr.street": "Avenue de la République" }, "geometry": { "type": "Point", "coordinates": [ 2.478066, 48.896611 ] } },
{ "type": "Feature", "properties": { "building.architecture": "Lotissements\/maisons pavillonnaires", "building.architecture.niveau": " 2", "addr.housenumber": "106", "addr.street": "Avenue de la République" }, "geometry": { "type": "Point", "coordinates": [ 2.477996, 48.896366 ] } },
{ "type": "Feature", "properties": { "building.architecture": "Lotissements\/maisons pavillonnaires", "building.architecture.niveau": " 2", "addr.housenumber": "102bis", "addr.street": "Avenue de la République" }, "geometry": { "type": "Point", "coordinates": [ 2.478098, 48.896783 ] } },
{ "type": "Feature", "properties": { "building.architecture": "Lotissements\/maisons pavillonnaires", "building.architecture.niveau": " 2", "addr.housenumber": "102ter", "addr.street": "Avenue de la République" }, "geometry": { "type": "Point", "coordinates": [ 2.478083, 48.896708 ] } },
{ "type": "Feature", "properties": { "building.architecture": "Lotissements\/maisons pavillonnaires", "building.architecture.niveau": " 2", "addr.housenumber": "108", "addr.street": "Avenue de la République" }, "geometry": { "type": "Point", "coordinates": [ 2.477959, 48.896248 ] } },
{ "type": "Feature", "properties": { "building.architecture": "Lotissements\/maisons pavillonnaires", "building.architecture.niveau": " 2", "addr.housenumber": "110", "addr.street": "Avenue de la République" }, "geometry": { "type": "Point", "coordinates": [ 2.477935, 48.896144 ] } },
{ "type": "Feature", "properties": { "building.architecture": "Lotissements\/maisons pavillonnaires", "building.architecture.niveau": " 2", "addr.housenumber": "116", "addr.street": "Avenue de la République" }, "geometry": { "type": "Point", "coordinates": [ 2.477553, 48.89579 ] } },
{ "type": "Feature", "properties": { "building.architecture": "Lotissements\/maisons pavillonnaires", "building.architecture.niveau": " 2", "addr.housenumber": "5", "addr.street": "Rue du Sergent Bobillot" }, "geometry": { "type": "Point", "coordinates": [ 2.476583, 48.896174 ] } },
{ "type": "Feature", "properties": { "building.architecture": "Lotissements\/maisons pavillonnaires", "building.architecture.niveau": " 2", "addr.housenumber": "3", "addr.street": "Rue Edouard Vaillant" }, "geometry": { "type": "Point", "coordinates": [ 2.477445, 48.896613 ] } },
{ "type": "Feature", "properties": { "building.architecture": "Immeubles", "building.architecture.niveau": " 2", "addr.housenumber": "21", "addr.street": "Rue Edouard Vaillant" }, "geometry": { "type": "Point", "coordinates": [ 2.479195, 48.896368 ] } },
{ "type": "Feature", "properties": { "building.architecture": "Lotissements\/maisons pavillonnaires", "building.architecture.niveau": " 2", "addr.housenumber": "8", "addr.street": "Rue Etienne Dolet" }, "geometry": { "type": "Point", "coordinates": [ 2.477243, 48.893064 ] } },
{ "type": "Feature", "properties": { "building.architecture": "Architecture scolaire", "building.architecture.niveau": " 3", "addr.housenumber": "5bis", "addr.street": "Rue Etienne Dolet" }, "geometry": { "type": "Point", "coordinates": [ 2.47743, 48.893581 ] } },
{ "type": "Feature", "properties": { "building.architecture": "Maisons de bourg", "building.architecture.niveau": " 2", "addr.housenumber": "71", "addr.street": "Rue Roger Salengro" }, "geometry": { "type": "Point", "coordinates": [ 2.477426, 48.897372 ] } },
{ "type": "Feature", "properties": { "building.architecture": "Lotissements\/maisons pavillonnaires", "building.architecture.niveau": " 2", "addr.housenumber": "89", "addr.street": "Rue Roger Salengro" }, "geometry": { "type": "Point", "coordinates": [ 2.47725, 48.895896 ] } },
{ "type": "Feature", "properties": { "building.architecture": "Architecture scolaire", "building.architecture.niveau": " 3", "addr.housenumber": "106", "addr.street": "Rue Roger Salengro" }, "geometry": { "type": "Point", "coordinates": [ 2.47715, 48.89708 ] } },
{ "type": "Feature", "properties": { "building.architecture": "Lotissements\/maisons pavillonnaires", "building.architecture.niveau": " 2", "addr.housenumber": "112", "addr.street": "Rue Roger Salengro" }, "geometry": { "type": "Point", "coordinates": [ 2.477078, 48.896738 ] } },
{ "type": "Feature", "properties": { "building.architecture": "Lotissements\/maisons pavillonnaires", "building.architecture.niveau": " 2", "addr.housenumber": "114", "addr.street": "Rue Roger Salengro" }, "geometry": { "type": "Point", "coordinates": [ 2.477063, 48.896655 ] } },
{ "type": "Feature", "properties": { "building.architecture": "Immeubles", "building.architecture.niveau": " 2", "addr.housenumber": "120", "addr.street": "Rue Roger Salengro" }, "geometry": { "type": "Point", "coordinates": [ 2.477064, 48.896206 ] } }
]
}
