{
"type": "FeatureCollection",
"name": "8_zone",
"crs": { "type": "name", "properties": { "name": "urn:ogc:def:crs:OGC:1.3:CRS84" } },
"features": [
{ "type": "Feature", "properties": { "name": 8, "boundary": "patrimoine" }, "geometry": { "type": "Polygon", "coordinates": [ [ [ 2.476899244666266, 48.892530146003843 ], [ 2.476655381545126, 48.892587790349879 ], [ 2.475986575385023, 48.896193583775322 ], [ 2.47739953472139, 48.897401406202 ], [ 2.477780667514414, 48.897350880151087 ], [ 2.47793397343132, 48.89732185778179 ], [ 2.47802450929104, 48.897304239248172 ], [ 2.479217052187944, 48.896459110320578 ], [ 2.479225441191811, 48.894969426893681 ], [ 2.477486817635439, 48.893006172643588 ], [ 2.476899244666266, 48.892530146003843 ] ] ] } },
{ "type": "Feature", "properties": { "name": 8, "boundary": "patrimoine" }, "geometry": { "type": "Polygon", "coordinates": [ [ [ 2.476899244666266, 48.892530146003843 ], [ 2.476655381545126, 48.892587790349879 ], [ 2.475986575385023, 48.896193583775322 ], [ 2.47739953472139, 48.897401406202 ], [ 2.477780667514414, 48.897350880151087 ], [ 2.47793397343132, 48.89732185778179 ], [ 2.47802450929104, 48.897304239248172 ], [ 2.479217052187944, 48.896459110320578 ], [ 2.479225441191811, 48.894969426893681 ], [ 2.477486817635439, 48.893006172643588 ], [ 2.476899244666266, 48.892530146003843 ] ] ] } },
{ "type": "Feature", "properties": { "name": 8, "boundary": "patrimoine" }, "geometry": { "type": "Polygon", "coordinates": [ [ [ 2.476899244666266, 48.892530146003843 ], [ 2.476655381545126, 48.892587790349879 ], [ 2.475986575385023, 48.896193583775322 ], [ 2.47739953472139, 48.897401406202 ], [ 2.477780667514414, 48.897350880151087 ], [ 2.47793397343132, 48.89732185778179 ], [ 2.47802450929104, 48.897304239248172 ], [ 2.479217052187944, 48.896459110320578 ], [ 2.479225441191811, 48.894969426893681 ], [ 2.477486817635439, 48.893006172643588 ], [ 2.476899244666266, 48.892530146003843 ] ] ] } }
]
}
