{
"type": "FeatureCollection",
"name": "9_adresse",
"crs": { "type": "name", "properties": { "name": "urn:ogc:def:crs:OGC:1.3:CRS84" } },
"features": [
{ "type": "Feature", "properties": { "building.architecture": "Lotissements/maisons pavillonnaires", "building.architecture.niveau": " 2", "addr.housenumber": "14", "addr.street": "Allée de l'Orme" }, "geometry": { "type": "Point", "coordinates": [ 2.482842, 48.892325 ] } },
{ "type": "Feature", "properties": { "building.architecture": "Lotissements/maisons pavillonnaires", "building.architecture.niveau": " 2", "addr.housenumber": "19", "addr.street": "Allée de l'Orme" }, "geometry": { "type": "Point", "coordinates": [ 2.482911, 48.892283 ] } },
{ "type": "Feature", "properties": { "building.architecture": "Lotissements/maisons pavillonnaires", "building.architecture.niveau": " 2", "addr.housenumber": "29", "addr.street": "Allée de l'Orme" }, "geometry": { "type": "Point", "coordinates": [ 2.482577, 48.891558 ] } },
{ "type": "Feature", "properties": { "building.architecture": "Lotissements/maisons pavillonnaires", "building.architecture.niveau": " 2", "addr.housenumber": "12", "addr.street": "Allée de l'Orme" }, "geometry": { "type": "Point", "coordinates": [ 2.482894, 48.892442 ] } },
{ "type": "Feature", "properties": { "building.architecture": "Lotissements/maisons pavillonnaires", "building.architecture.niveau": " 2", "addr.housenumber": "13", "addr.street": "Allée de l'Orme" }, "geometry": { "type": "Point", "coordinates": [ 2.482984, 48.892447 ] } },
{ "type": "Feature", "properties": { "building.architecture": "Lotissements/maisons pavillonnaires", "building.architecture.niveau": " 2", "addr.housenumber": "15", "addr.street": "Allée de l'Orme" }, "geometry": { "type": "Point", "coordinates": [ 2.482999, 48.892477 ] } },
{ "type": "Feature", "properties": { "building.architecture": "Lotissements/maisons pavillonnaires", "building.architecture.niveau": " 2", "addr.housenumber": "17", "addr.street": "Allée de l'Orme" }, "geometry": { "type": "Point", "coordinates": [ 2.482963, 48.892397 ] } },
{ "type": "Feature", "properties": { "building.architecture": "Lotissements/maisons pavillonnaires", "building.architecture.niveau": " 2", "addr.housenumber": "21", "addr.street": "Allée de l'Orme" }, "geometry": { "type": "Point", "coordinates": [ 2.482855, 48.89216 ] } },
{ "type": "Feature", "properties": { "building.architecture": "Lotissements/maisons pavillonnaires", "building.architecture.niveau": " 2", "addr.housenumber": "24", "addr.street": "Allée de l'Orme" }, "geometry": { "type": "Point", "coordinates": [ 2.482514, 48.891613 ] } },
{ "type": "Feature", "properties": { "building.architecture": "Lotissements/maisons pavillonnaires", "building.architecture.niveau": " 2", "addr.housenumber": "28", "addr.street": "Allée de l'Orme" }, "geometry": { "type": "Point", "coordinates": [ 2.482354, 48.891355 ] } },
{ "type": "Feature", "properties": { "building.architecture": "Lotissements/maisons pavillonnaires", "building.architecture.niveau": " 2", "addr.housenumber": "3", "addr.street": "Allée des Hêtres" }, "geometry": { "type": "Point", "coordinates": [ 2.480151, 48.893244 ] } },
{ "type": "Feature", "properties": { "building.architecture": "Lotissements/maisons pavillonnaires", "building.architecture.niveau": " 2", "addr.housenumber": "12", "addr.street": "Allée des Hêtres" }, "geometry": { "type": "Point", "coordinates": [ 2.479877, 48.892755 ] } },
{ "type": "Feature", "properties": { "building.architecture": "Lotissements/maisons pavillonnaires", "building.architecture.niveau": " 2", "addr.housenumber": "9", "addr.street": "Avenue de l'Est" }, "geometry": { "type": "Point", "coordinates": [ 2.478872, 48.891686 ] } },
{ "type": "Feature", "properties": { "building.architecture": "Lotissements/maisons pavillonnaires", "building.architecture.niveau": " 2", "addr.housenumber": "16", "addr.street": "Avenue de l'Est" }, "geometry": { "type": "Point", "coordinates": [ 2.479511, 48.89155 ] } },
{ "type": "Feature", "properties": { "building.architecture": "Lotissements/maisons pavillonnaires", "building.architecture.niveau": " 2", "addr.housenumber": "19", "addr.street": "Avenue de l'Est" }, "geometry": { "type": "Point", "coordinates": [ 2.480032, 48.891582 ] } },
{ "type": "Feature", "properties": { "building.architecture": "Lotissements/maisons pavillonnaires", "building.architecture.niveau": " 2", "addr.housenumber": "22", "addr.street": "Avenue de l'Est" }, "geometry": { "type": "Point", "coordinates": [ 2.480508, 48.89142 ] } },
{ "type": "Feature", "properties": { "building.architecture": "Lotissements/maisons pavillonnaires", "building.architecture.niveau": " 2", "addr.housenumber": "43", "addr.street": "Avenue de l'Est" }, "geometry": { "type": "Point", "coordinates": [ 2.481605, 48.891303 ] } },
{ "type": "Feature", "properties": { "building.architecture": "Lotissements/maisons pavillonnaires", "building.architecture.niveau": " 2", "addr.housenumber": "13", "addr.street": "Avenue de Metz" }, "geometry": { "type": "Point", "coordinates": [ 2.479018, 48.890585 ] } },
{ "type": "Feature", "properties": { "building.architecture": "Lotissements/maisons pavillonnaires", "building.architecture.niveau": " 2", "addr.housenumber": "15", "addr.street": "Avenue de Metz" }, "geometry": { "type": "Point", "coordinates": [ 2.479138, 48.890576 ] } },
{ "type": "Feature", "properties": { "building.architecture": "Lotissements/maisons pavillonnaires", "building.architecture.niveau": " 2", "addr.housenumber": "5", "addr.street": "Avenue de Nancy" }, "geometry": { "type": "Point", "coordinates": [ 2.479581, 48.893352 ] } },
{ "type": "Feature", "properties": { "building.architecture": "Lotissements/maisons pavillonnaires", "building.architecture.niveau": " 2", "addr.housenumber": "11", "addr.street": "Avenue de Nancy" }, "geometry": { "type": "Point", "coordinates": [ 2.479456, 48.892989 ] } },
{ "type": "Feature", "properties": { "building.architecture": "Lotissements/maisons pavillonnaires", "building.architecture.niveau": " 2", "addr.housenumber": "6", "addr.street": "Avenue de Nancy" }, "geometry": { "type": "Point", "coordinates": [ 2.479439, 48.89338 ] } },
{ "type": "Feature", "properties": { "building.architecture": "Lotissements/maisons pavillonnaires", "building.architecture.niveau": " 2", "addr.housenumber": "7", "addr.street": "Avenue de Nancy" }, "geometry": { "type": "Point", "coordinates": [ 2.479526, 48.893237 ] } },
{ "type": "Feature", "properties": { "building.architecture": "Lotissements/maisons pavillonnaires", "building.architecture.niveau": " 2", "addr.housenumber": "8", "addr.street": "Avenue de Nancy" }, "geometry": { "type": "Point", "coordinates": [ 2.4794, 48.893257 ] } },
{ "type": "Feature", "properties": { "building.architecture": "Lotissements/maisons pavillonnaires", "building.architecture.niveau": " 2", "addr.housenumber": "9", "addr.street": "Avenue de Nancy" }, "geometry": { "type": "Point", "coordinates": [ 2.479481, 48.893089 ] } },
{ "type": "Feature", "properties": { "building.architecture": "Lotissements/maisons pavillonnaires", "building.architecture.niveau": " 2", "addr.housenumber": "10", "addr.street": "Avenue de Nancy" }, "geometry": { "type": "Point", "coordinates": [ 2.479341, 48.893036 ] } },
{ "type": "Feature", "properties": { "building.architecture": "Lotissements/maisons pavillonnaires", "building.architecture.niveau": " 2", "addr.housenumber": "14", "addr.street": "Avenue de Nancy" }, "geometry": { "type": "Point", "coordinates": [ 2.479072, 48.892839 ] } },
{ "type": "Feature", "properties": { "building.architecture": "Lotissements/maisons pavillonnaires", "building.architecture.niveau": " 2", "addr.housenumber": "16", "addr.street": "Avenue de Nancy" }, "geometry": { "type": "Point", "coordinates": [ 2.479245, 48.892683 ] } },
{ "type": "Feature", "properties": { "building.architecture": "Lotissements/maisons pavillonnaires", "building.architecture.niveau": " 2", "addr.housenumber": "19", "addr.street": "Avenue de Nancy" }, "geometry": { "type": "Point", "coordinates": [ 2.479331, 48.892513 ] } },
{ "type": "Feature", "properties": { "building.architecture": "Lotissements/maisons pavillonnaires", "building.architecture.niveau": " 2", "addr.housenumber": "14bis", "addr.street": "Avenue de Nancy" }, "geometry": { "type": "Point", "coordinates": [ 2.479058, 48.892824 ] } },
{ "type": "Feature", "properties": { "building.architecture": "Lotissements/maisons pavillonnaires", "building.architecture.niveau": " 2", "addr.housenumber": "5", "addr.street": "Rue des Peupliers" }, "geometry": { "type": "Point", "coordinates": [ 2.480697, 48.89299 ] } },
{ "type": "Feature", "properties": { "building.architecture": "Lotissements/maisons pavillonnaires", "building.architecture.niveau": " 2", "addr.housenumber": "4", "addr.street": "Rue des Peupliers" }, "geometry": { "type": "Point", "coordinates": [ 2.480629, 48.893152 ] } },
{ "type": "Feature", "properties": { "building.architecture": "Lotissements/maisons pavillonnaires", "building.architecture.niveau": " 2", "addr.housenumber": "6", "addr.street": "Rue des Peupliers" }, "geometry": { "type": "Point", "coordinates": [ 2.480572, 48.892999 ] } },
{ "type": "Feature", "properties": { "building.architecture": "Lotissements/maisons pavillonnaires", "building.architecture.niveau": " 2", "addr.housenumber": "8", "addr.street": "Rue des Peupliers" }, "geometry": { "type": "Point", "coordinates": [ 2.480526, 48.892889 ] } },
{ "type": "Feature", "properties": { "building.architecture": "Lotissements/maisons pavillonnaires", "building.architecture.niveau": " 2", "addr.housenumber": "15", "addr.street": "Rue des Peupliers" }, "geometry": { "type": "Point", "coordinates": [ 2.480469, 48.892394 ] } },
{ "type": "Feature", "properties": { "building.architecture": "Lotissements/maisons pavillonnaires", "building.architecture.niveau": " 2", "addr.housenumber": "24", "addr.street": "Rue des Peupliers" }, "geometry": { "type": "Point", "coordinates": [ 2.480262, 48.892195 ] } },
{ "type": "Feature", "properties": { "building.architecture": "Lotissements/maisons pavillonnaires", "building.architecture.niveau": " 2", "addr.housenumber": "26", "addr.street": "Rue des Peupliers" }, "geometry": { "type": "Point", "coordinates": [ 2.480219, 48.892094 ] } },
{ "type": "Feature", "properties": { "building.architecture": "Lotissements/maisons pavillonnaires", "building.architecture.niveau": " 2", "addr.housenumber": "11", "addr.street": "Rue du Midi" }, "geometry": { "type": "Point", "coordinates": [ 2.480057, 48.890834 ] } },
{ "type": "Feature", "properties": { "building.architecture": "Lotissements/maisons pavillonnaires", "building.architecture.niveau": " 2", "addr.housenumber": "26", "addr.street": "Rue du Midi" }, "geometry": { "type": "Point", "coordinates": [ 2.479622, 48.890004 ] } },
{ "type": "Feature", "properties": { "building.architecture": "Lotissements/maisons pavillonnaires", "building.architecture.niveau": " 2", "addr.housenumber": "49", "addr.street": "Rue du Midi" }, "geometry": { "type": "Point", "coordinates": [ 2.479546, 48.889417 ] } },
{ "type": "Feature", "properties": { "building.architecture": "Lotissements\/maisons pavillonnaires", "building.architecture.niveau": " 2", "addr.housenumber": "14", "addr.street": "Allée de l'Orme" }, "geometry": { "type": "Point", "coordinates": [ 2.482842, 48.892325 ] } },
{ "type": "Feature", "properties": { "building.architecture": "Lotissements\/maisons pavillonnaires", "building.architecture.niveau": " 2", "addr.housenumber": "19", "addr.street": "Allée de l'Orme" }, "geometry": { "type": "Point", "coordinates": [ 2.482911, 48.892283 ] } },
{ "type": "Feature", "properties": { "building.architecture": "Lotissements\/maisons pavillonnaires", "building.architecture.niveau": " 2", "addr.housenumber": "29", "addr.street": "Allée de l'Orme" }, "geometry": { "type": "Point", "coordinates": [ 2.482577, 48.891558 ] } },
{ "type": "Feature", "properties": { "building.architecture": "Lotissements\/maisons pavillonnaires", "building.architecture.niveau": " 2", "addr.housenumber": "12", "addr.street": "Allée de l'Orme" }, "geometry": { "type": "Point", "coordinates": [ 2.482894, 48.892442 ] } },
{ "type": "Feature", "properties": { "building.architecture": "Lotissements\/maisons pavillonnaires", "building.architecture.niveau": " 2", "addr.housenumber": "13", "addr.street": "Allée de l'Orme" }, "geometry": { "type": "Point", "coordinates": [ 2.482984, 48.892447 ] } },
{ "type": "Feature", "properties": { "building.architecture": "Lotissements\/maisons pavillonnaires", "building.architecture.niveau": " 2", "addr.housenumber": "15", "addr.street": "Allée de l'Orme" }, "geometry": { "type": "Point", "coordinates": [ 2.482999, 48.892477 ] } },
{ "type": "Feature", "properties": { "building.architecture": "Lotissements\/maisons pavillonnaires", "building.architecture.niveau": " 2", "addr.housenumber": "17", "addr.street": "Allée de l'Orme" }, "geometry": { "type": "Point", "coordinates": [ 2.482963, 48.892397 ] } },
{ "type": "Feature", "properties": { "building.architecture": "Lotissements\/maisons pavillonnaires", "building.architecture.niveau": " 2", "addr.housenumber": "21", "addr.street": "Allée de l'Orme" }, "geometry": { "type": "Point", "coordinates": [ 2.482855, 48.89216 ] } },
{ "type": "Feature", "properties": { "building.architecture": "Lotissements\/maisons pavillonnaires", "building.architecture.niveau": " 2", "addr.housenumber": "24", "addr.street": "Allée de l'Orme" }, "geometry": { "type": "Point", "coordinates": [ 2.482514, 48.891613 ] } },
{ "type": "Feature", "properties": { "building.architecture": "Lotissements\/maisons pavillonnaires", "building.architecture.niveau": " 2", "addr.housenumber": "28", "addr.street": "Allée de l'Orme" }, "geometry": { "type": "Point", "coordinates": [ 2.482354, 48.891355 ] } },
{ "type": "Feature", "properties": { "building.architecture": "Lotissements\/maisons pavillonnaires", "building.architecture.niveau": " 2", "addr.housenumber": "3", "addr.street": "Allée des Hêtres" }, "geometry": { "type": "Point", "coordinates": [ 2.480151, 48.893244 ] } },
{ "type": "Feature", "properties": { "building.architecture": "Lotissements\/maisons pavillonnaires", "building.architecture.niveau": " 2", "addr.housenumber": "12", "addr.street": "Allée des Hêtres" }, "geometry": { "type": "Point", "coordinates": [ 2.479877, 48.892755 ] } },
{ "type": "Feature", "properties": { "building.architecture": "Lotissements\/maisons pavillonnaires", "building.architecture.niveau": " 2", "addr.housenumber": "9", "addr.street": "Avenue de l'Est" }, "geometry": { "type": "Point", "coordinates": [ 2.478872, 48.891686 ] } },
{ "type": "Feature", "properties": { "building.architecture": "Lotissements\/maisons pavillonnaires", "building.architecture.niveau": " 2", "addr.housenumber": "16", "addr.street": "Avenue de l'Est" }, "geometry": { "type": "Point", "coordinates": [ 2.479511, 48.89155 ] } },
{ "type": "Feature", "properties": { "building.architecture": "Lotissements\/maisons pavillonnaires", "building.architecture.niveau": " 2", "addr.housenumber": "19", "addr.street": "Avenue de l'Est" }, "geometry": { "type": "Point", "coordinates": [ 2.480032, 48.891582 ] } },
{ "type": "Feature", "properties": { "building.architecture": "Lotissements\/maisons pavillonnaires", "building.architecture.niveau": " 2", "addr.housenumber": "22", "addr.street": "Avenue de l'Est" }, "geometry": { "type": "Point", "coordinates": [ 2.480508, 48.89142 ] } },
{ "type": "Feature", "properties": { "building.architecture": "Lotissements\/maisons pavillonnaires", "building.architecture.niveau": " 2", "addr.housenumber": "43", "addr.street": "Avenue de l'Est" }, "geometry": { "type": "Point", "coordinates": [ 2.481605, 48.891303 ] } },
{ "type": "Feature", "properties": { "building.architecture": "Lotissements\/maisons pavillonnaires", "building.architecture.niveau": " 2", "addr.housenumber": "13", "addr.street": "Avenue de Metz" }, "geometry": { "type": "Point", "coordinates": [ 2.479018, 48.890585 ] } },
{ "type": "Feature", "properties": { "building.architecture": "Lotissements\/maisons pavillonnaires", "building.architecture.niveau": " 2", "addr.housenumber": "15", "addr.street": "Avenue de Metz" }, "geometry": { "type": "Point", "coordinates": [ 2.479138, 48.890576 ] } },
{ "type": "Feature", "properties": { "building.architecture": "Lotissements\/maisons pavillonnaires", "building.architecture.niveau": " 2", "addr.housenumber": "5", "addr.street": "Avenue de Nancy" }, "geometry": { "type": "Point", "coordinates": [ 2.479581, 48.893352 ] } },
{ "type": "Feature", "properties": { "building.architecture": "Lotissements\/maisons pavillonnaires", "building.architecture.niveau": " 2", "addr.housenumber": "11", "addr.street": "Avenue de Nancy" }, "geometry": { "type": "Point", "coordinates": [ 2.479456, 48.892989 ] } },
{ "type": "Feature", "properties": { "building.architecture": "Lotissements\/maisons pavillonnaires", "building.architecture.niveau": " 2", "addr.housenumber": "6", "addr.street": "Avenue de Nancy" }, "geometry": { "type": "Point", "coordinates": [ 2.479439, 48.89338 ] } },
{ "type": "Feature", "properties": { "building.architecture": "Lotissements\/maisons pavillonnaires", "building.architecture.niveau": " 2", "addr.housenumber": "7", "addr.street": "Avenue de Nancy" }, "geometry": { "type": "Point", "coordinates": [ 2.479526, 48.893237 ] } },
{ "type": "Feature", "properties": { "building.architecture": "Lotissements\/maisons pavillonnaires", "building.architecture.niveau": " 2", "addr.housenumber": "8", "addr.street": "Avenue de Nancy" }, "geometry": { "type": "Point", "coordinates": [ 2.4794, 48.893257 ] } },
{ "type": "Feature", "properties": { "building.architecture": "Lotissements\/maisons pavillonnaires", "building.architecture.niveau": " 2", "addr.housenumber": "9", "addr.street": "Avenue de Nancy" }, "geometry": { "type": "Point", "coordinates": [ 2.479481, 48.893089 ] } },
{ "type": "Feature", "properties": { "building.architecture": "Lotissements\/maisons pavillonnaires", "building.architecture.niveau": " 2", "addr.housenumber": "10", "addr.street": "Avenue de Nancy" }, "geometry": { "type": "Point", "coordinates": [ 2.479341, 48.893036 ] } },
{ "type": "Feature", "properties": { "building.architecture": "Lotissements\/maisons pavillonnaires", "building.architecture.niveau": " 2", "addr.housenumber": "14", "addr.street": "Avenue de Nancy" }, "geometry": { "type": "Point", "coordinates": [ 2.479072, 48.892839 ] } },
{ "type": "Feature", "properties": { "building.architecture": "Lotissements\/maisons pavillonnaires", "building.architecture.niveau": " 2", "addr.housenumber": "16", "addr.street": "Avenue de Nancy" }, "geometry": { "type": "Point", "coordinates": [ 2.479245, 48.892683 ] } },
{ "type": "Feature", "properties": { "building.architecture": "Lotissements\/maisons pavillonnaires", "building.architecture.niveau": " 2", "addr.housenumber": "19", "addr.street": "Avenue de Nancy" }, "geometry": { "type": "Point", "coordinates": [ 2.479331, 48.892513 ] } },
{ "type": "Feature", "properties": { "building.architecture": "Lotissements\/maisons pavillonnaires", "building.architecture.niveau": " 2", "addr.housenumber": "14bis", "addr.street": "Avenue de Nancy" }, "geometry": { "type": "Point", "coordinates": [ 2.479058, 48.892824 ] } },
{ "type": "Feature", "properties": { "building.architecture": "Lotissements\/maisons pavillonnaires", "building.architecture.niveau": " 2", "addr.housenumber": "5", "addr.street": "Rue des Peupliers" }, "geometry": { "type": "Point", "coordinates": [ 2.480697, 48.89299 ] } },
{ "type": "Feature", "properties": { "building.architecture": "Lotissements\/maisons pavillonnaires", "building.architecture.niveau": " 2", "addr.housenumber": "4", "addr.street": "Rue des Peupliers" }, "geometry": { "type": "Point", "coordinates": [ 2.480629, 48.893152 ] } },
{ "type": "Feature", "properties": { "building.architecture": "Lotissements\/maisons pavillonnaires", "building.architecture.niveau": " 2", "addr.housenumber": "6", "addr.street": "Rue des Peupliers" }, "geometry": { "type": "Point", "coordinates": [ 2.480572, 48.892999 ] } },
{ "type": "Feature", "properties": { "building.architecture": "Lotissements\/maisons pavillonnaires", "building.architecture.niveau": " 2", "addr.housenumber": "8", "addr.street": "Rue des Peupliers" }, "geometry": { "type": "Point", "coordinates": [ 2.480526, 48.892889 ] } },
{ "type": "Feature", "properties": { "building.architecture": "Lotissements\/maisons pavillonnaires", "building.architecture.niveau": " 2", "addr.housenumber": "15", "addr.street": "Rue des Peupliers" }, "geometry": { "type": "Point", "coordinates": [ 2.480469, 48.892394 ] } },
{ "type": "Feature", "properties": { "building.architecture": "Lotissements\/maisons pavillonnaires", "building.architecture.niveau": " 2", "addr.housenumber": "24", "addr.street": "Rue des Peupliers" }, "geometry": { "type": "Point", "coordinates": [ 2.480262, 48.892195 ] } },
{ "type": "Feature", "properties": { "building.architecture": "Lotissements\/maisons pavillonnaires", "building.architecture.niveau": " 2", "addr.housenumber": "26", "addr.street": "Rue des Peupliers" }, "geometry": { "type": "Point", "coordinates": [ 2.480219, 48.892094 ] } },
{ "type": "Feature", "properties": { "building.architecture": "Lotissements\/maisons pavillonnaires", "building.architecture.niveau": " 2", "addr.housenumber": "11", "addr.street": "Rue du Midi" }, "geometry": { "type": "Point", "coordinates": [ 2.480057, 48.890834 ] } },
{ "type": "Feature", "properties": { "building.architecture": "Lotissements\/maisons pavillonnaires", "building.architecture.niveau": " 2", "addr.housenumber": "26", "addr.street": "Rue du Midi" }, "geometry": { "type": "Point", "coordinates": [ 2.479622, 48.890004 ] } },
{ "type": "Feature", "properties": { "building.architecture": "Lotissements\/maisons pavillonnaires", "building.architecture.niveau": " 2", "addr.housenumber": "49", "addr.street": "Rue du Midi" }, "geometry": { "type": "Point", "coordinates": [ 2.479546, 48.889417 ] } },
{ "type": "Feature", "properties": { "building.architecture": "Lotissements\/maisons pavillonnaires", "building.architecture.niveau": " 2", "addr.housenumber": "14", "addr.street": "Allée de l'Orme" }, "geometry": { "type": "Point", "coordinates": [ 2.482842, 48.892325 ] } },
{ "type": "Feature", "properties": { "building.architecture": "Lotissements\/maisons pavillonnaires", "building.architecture.niveau": " 2", "addr.housenumber": "19", "addr.street": "Allée de l'Orme" }, "geometry": { "type": "Point", "coordinates": [ 2.482911, 48.892283 ] } },
{ "type": "Feature", "properties": { "building.architecture": "Lotissements\/maisons pavillonnaires", "building.architecture.niveau": " 2", "addr.housenumber": "29", "addr.street": "Allée de l'Orme" }, "geometry": { "type": "Point", "coordinates": [ 2.482577, 48.891558 ] } },
{ "type": "Feature", "properties": { "building.architecture": "Lotissements\/maisons pavillonnaires", "building.architecture.niveau": " 2", "addr.housenumber": "12", "addr.street": "Allée de l'Orme" }, "geometry": { "type": "Point", "coordinates": [ 2.482894, 48.892442 ] } },
{ "type": "Feature", "properties": { "building.architecture": "Lotissements\/maisons pavillonnaires", "building.architecture.niveau": " 2", "addr.housenumber": "13", "addr.street": "Allée de l'Orme" }, "geometry": { "type": "Point", "coordinates": [ 2.482984, 48.892447 ] } },
{ "type": "Feature", "properties": { "building.architecture": "Lotissements\/maisons pavillonnaires", "building.architecture.niveau": " 2", "addr.housenumber": "15", "addr.street": "Allée de l'Orme" }, "geometry": { "type": "Point", "coordinates": [ 2.482999, 48.892477 ] } },
{ "type": "Feature", "properties": { "building.architecture": "Lotissements\/maisons pavillonnaires", "building.architecture.niveau": " 2", "addr.housenumber": "17", "addr.street": "Allée de l'Orme" }, "geometry": { "type": "Point", "coordinates": [ 2.482963, 48.892397 ] } },
{ "type": "Feature", "properties": { "building.architecture": "Lotissements\/maisons pavillonnaires", "building.architecture.niveau": " 2", "addr.housenumber": "21", "addr.street": "Allée de l'Orme" }, "geometry": { "type": "Point", "coordinates": [ 2.482855, 48.89216 ] } },
{ "type": "Feature", "properties": { "building.architecture": "Lotissements\/maisons pavillonnaires", "building.architecture.niveau": " 2", "addr.housenumber": "24", "addr.street": "Allée de l'Orme" }, "geometry": { "type": "Point", "coordinates": [ 2.482514, 48.891613 ] } },
{ "type": "Feature", "properties": { "building.architecture": "Lotissements\/maisons pavillonnaires", "building.architecture.niveau": " 2", "addr.housenumber": "28", "addr.street": "Allée de l'Orme" }, "geometry": { "type": "Point", "coordinates": [ 2.482354, 48.891355 ] } },
{ "type": "Feature", "properties": { "building.architecture": "Lotissements\/maisons pavillonnaires", "building.architecture.niveau": " 2", "addr.housenumber": "3", "addr.street": "Allée des Hêtres" }, "geometry": { "type": "Point", "coordinates": [ 2.480151, 48.893244 ] } },
{ "type": "Feature", "properties": { "building.architecture": "Lotissements\/maisons pavillonnaires", "building.architecture.niveau": " 2", "addr.housenumber": "12", "addr.street": "Allée des Hêtres" }, "geometry": { "type": "Point", "coordinates": [ 2.479877, 48.892755 ] } },
{ "type": "Feature", "properties": { "building.architecture": "Lotissements\/maisons pavillonnaires", "building.architecture.niveau": " 2", "addr.housenumber": "9", "addr.street": "Avenue de l'Est" }, "geometry": { "type": "Point", "coordinates": [ 2.478872, 48.891686 ] } },
{ "type": "Feature", "properties": { "building.architecture": "Lotissements\/maisons pavillonnaires", "building.architecture.niveau": " 2", "addr.housenumber": "16", "addr.street": "Avenue de l'Est" }, "geometry": { "type": "Point", "coordinates": [ 2.479511, 48.89155 ] } },
{ "type": "Feature", "properties": { "building.architecture": "Lotissements\/maisons pavillonnaires", "building.architecture.niveau": " 2", "addr.housenumber": "19", "addr.street": "Avenue de l'Est" }, "geometry": { "type": "Point", "coordinates": [ 2.480032, 48.891582 ] } },
{ "type": "Feature", "properties": { "building.architecture": "Lotissements\/maisons pavillonnaires", "building.architecture.niveau": " 2", "addr.housenumber": "22", "addr.street": "Avenue de l'Est" }, "geometry": { "type": "Point", "coordinates": [ 2.480508, 48.89142 ] } },
{ "type": "Feature", "properties": { "building.architecture": "Lotissements\/maisons pavillonnaires", "building.architecture.niveau": " 2", "addr.housenumber": "43", "addr.street": "Avenue de l'Est" }, "geometry": { "type": "Point", "coordinates": [ 2.481605, 48.891303 ] } },
{ "type": "Feature", "properties": { "building.architecture": "Lotissements\/maisons pavillonnaires", "building.architecture.niveau": " 2", "addr.housenumber": "13", "addr.street": "Avenue de Metz" }, "geometry": { "type": "Point", "coordinates": [ 2.479018, 48.890585 ] } },
{ "type": "Feature", "properties": { "building.architecture": "Lotissements\/maisons pavillonnaires", "building.architecture.niveau": " 2", "addr.housenumber": "15", "addr.street": "Avenue de Metz" }, "geometry": { "type": "Point", "coordinates": [ 2.479138, 48.890576 ] } },
{ "type": "Feature", "properties": { "building.architecture": "Lotissements\/maisons pavillonnaires", "building.architecture.niveau": " 2", "addr.housenumber": "5", "addr.street": "Avenue de Nancy" }, "geometry": { "type": "Point", "coordinates": [ 2.479581, 48.893352 ] } },
{ "type": "Feature", "properties": { "building.architecture": "Lotissements\/maisons pavillonnaires", "building.architecture.niveau": " 2", "addr.housenumber": "11", "addr.street": "Avenue de Nancy" }, "geometry": { "type": "Point", "coordinates": [ 2.479456, 48.892989 ] } },
{ "type": "Feature", "properties": { "building.architecture": "Lotissements\/maisons pavillonnaires", "building.architecture.niveau": " 2", "addr.housenumber": "6", "addr.street": "Avenue de Nancy" }, "geometry": { "type": "Point", "coordinates": [ 2.479439, 48.89338 ] } },
{ "type": "Feature", "properties": { "building.architecture": "Lotissements\/maisons pavillonnaires", "building.architecture.niveau": " 2", "addr.housenumber": "7", "addr.street": "Avenue de Nancy" }, "geometry": { "type": "Point", "coordinates": [ 2.479526, 48.893237 ] } },
{ "type": "Feature", "properties": { "building.architecture": "Lotissements\/maisons pavillonnaires", "building.architecture.niveau": " 2", "addr.housenumber": "8", "addr.street": "Avenue de Nancy" }, "geometry": { "type": "Point", "coordinates": [ 2.4794, 48.893257 ] } },
{ "type": "Feature", "properties": { "building.architecture": "Lotissements\/maisons pavillonnaires", "building.architecture.niveau": " 2", "addr.housenumber": "9", "addr.street": "Avenue de Nancy" }, "geometry": { "type": "Point", "coordinates": [ 2.479481, 48.893089 ] } },
{ "type": "Feature", "properties": { "building.architecture": "Lotissements\/maisons pavillonnaires", "building.architecture.niveau": " 2", "addr.housenumber": "10", "addr.street": "Avenue de Nancy" }, "geometry": { "type": "Point", "coordinates": [ 2.479341, 48.893036 ] } },
{ "type": "Feature", "properties": { "building.architecture": "Lotissements\/maisons pavillonnaires", "building.architecture.niveau": " 2", "addr.housenumber": "14", "addr.street": "Avenue de Nancy" }, "geometry": { "type": "Point", "coordinates": [ 2.479072, 48.892839 ] } },
{ "type": "Feature", "properties": { "building.architecture": "Lotissements\/maisons pavillonnaires", "building.architecture.niveau": " 2", "addr.housenumber": "16", "addr.street": "Avenue de Nancy" }, "geometry": { "type": "Point", "coordinates": [ 2.479245, 48.892683 ] } },
{ "type": "Feature", "properties": { "building.architecture": "Lotissements\/maisons pavillonnaires", "building.architecture.niveau": " 2", "addr.housenumber": "19", "addr.street": "Avenue de Nancy" }, "geometry": { "type": "Point", "coordinates": [ 2.479331, 48.892513 ] } },
{ "type": "Feature", "properties": { "building.architecture": "Lotissements\/maisons pavillonnaires", "building.architecture.niveau": " 2", "addr.housenumber": "14bis", "addr.street": "Avenue de Nancy" }, "geometry": { "type": "Point", "coordinates": [ 2.479058, 48.892824 ] } },
{ "type": "Feature", "properties": { "building.architecture": "Lotissements\/maisons pavillonnaires", "building.architecture.niveau": " 2", "addr.housenumber": "5", "addr.street": "Rue des Peupliers" }, "geometry": { "type": "Point", "coordinates": [ 2.480697, 48.89299 ] } },
{ "type": "Feature", "properties": { "building.architecture": "Lotissements\/maisons pavillonnaires", "building.architecture.niveau": " 2", "addr.housenumber": "4", "addr.street": "Rue des Peupliers" }, "geometry": { "type": "Point", "coordinates": [ 2.480629, 48.893152 ] } },
{ "type": "Feature", "properties": { "building.architecture": "Lotissements\/maisons pavillonnaires", "building.architecture.niveau": " 2", "addr.housenumber": "6", "addr.street": "Rue des Peupliers" }, "geometry": { "type": "Point", "coordinates": [ 2.480572, 48.892999 ] } },
{ "type": "Feature", "properties": { "building.architecture": "Lotissements\/maisons pavillonnaires", "building.architecture.niveau": " 2", "addr.housenumber": "8", "addr.street": "Rue des Peupliers" }, "geometry": { "type": "Point", "coordinates": [ 2.480526, 48.892889 ] } },
{ "type": "Feature", "properties": { "building.architecture": "Lotissements\/maisons pavillonnaires", "building.architecture.niveau": " 2", "addr.housenumber": "15", "addr.street": "Rue des Peupliers" }, "geometry": { "type": "Point", "coordinates": [ 2.480469, 48.892394 ] } },
{ "type": "Feature", "properties": { "building.architecture": "Lotissements\/maisons pavillonnaires", "building.architecture.niveau": " 2", "addr.housenumber": "24", "addr.street": "Rue des Peupliers" }, "geometry": { "type": "Point", "coordinates": [ 2.480262, 48.892195 ] } },
{ "type": "Feature", "properties": { "building.architecture": "Lotissements\/maisons pavillonnaires", "building.architecture.niveau": " 2", "addr.housenumber": "26", "addr.street": "Rue des Peupliers" }, "geometry": { "type": "Point", "coordinates": [ 2.480219, 48.892094 ] } },
{ "type": "Feature", "properties": { "building.architecture": "Lotissements\/maisons pavillonnaires", "building.architecture.niveau": " 2", "addr.housenumber": "11", "addr.street": "Rue du Midi" }, "geometry": { "type": "Point", "coordinates": [ 2.480057, 48.890834 ] } },
{ "type": "Feature", "properties": { "building.architecture": "Lotissements\/maisons pavillonnaires", "building.architecture.niveau": " 2", "addr.housenumber": "26", "addr.street": "Rue du Midi" }, "geometry": { "type": "Point", "coordinates": [ 2.479622, 48.890004 ] } },
{ "type": "Feature", "properties": { "building.architecture": "Lotissements\/maisons pavillonnaires", "building.architecture.niveau": " 2", "addr.housenumber": "49", "addr.street": "Rue du Midi" }, "geometry": { "type": "Point", "coordinates": [ 2.479546, 48.889417 ] } }
]
}
