{
"type": "FeatureCollection",
"name": "9_zone",
"crs": { "type": "name", "properties": { "name": "urn:ogc:def:crs:OGC:1.3:CRS84" } },
"features": [
{ "type": "Feature", "properties": { "name": 9, "boundary": "patrimoine" }, "geometry": { "type": "Polygon", "coordinates": [ [ [ 2.479222753387039, 48.889214878471705 ], [ 2.478019819948429, 48.89125402713114 ], [ 2.479322529193407, 48.893587298948837 ], [ 2.479683850234633, 48.893541034895449 ], [ 2.482136672437427, 48.893181494603652 ], [ 2.483096153208123, 48.892453321710505 ], [ 2.482399574274607, 48.890490793856173 ], [ 2.479222753387039, 48.889214878471705 ] ] ] } },
{ "type": "Feature", "properties": { "name": 9, "boundary": "patrimoine" }, "geometry": { "type": "Polygon", "coordinates": [ [ [ 2.479222753387039, 48.889214878471705 ], [ 2.478019819948429, 48.89125402713114 ], [ 2.479322529193407, 48.893587298948837 ], [ 2.479683850234633, 48.893541034895449 ], [ 2.482136672437427, 48.893181494603652 ], [ 2.483096153208123, 48.892453321710505 ], [ 2.482399574274607, 48.890490793856173 ], [ 2.479222753387039, 48.889214878471705 ] ] ] } },
{ "type": "Feature", "properties": { "name": 9, "boundary": "patrimoine" }, "geometry": { "type": "Polygon", "coordinates": [ [ [ 2.479222753387039, 48.889214878471705 ], [ 2.478019819948429, 48.89125402713114 ], [ 2.479322529193407, 48.893587298948837 ], [ 2.479683850234633, 48.893541034895449 ], [ 2.482136672437427, 48.893181494603652 ], [ 2.483096153208123, 48.892453321710505 ], [ 2.482399574274607, 48.890490793856173 ], [ 2.479222753387039, 48.889214878471705 ] ] ] } }
]
}
