{
"type": "FeatureCollection",
"name": "input_polygon",
"crs": { "type": "name", "properties": { "name": "urn:ogc:def:crs:OGC:1.3:CRS84" } },
"xy_coordinate_resolution": 1e-15,
"features": [
{ "type": "Feature", "properties": { }, "geometry": { "type": "Polygon", "coordinates": [ [ [ 2.4700476, 48.904971399702269 ], [ 2.4709144, 48.905168999702255 ], [ 2.4723163, 48.908050799701527 ], [ 2.476204, 48.912930099700361 ], [ 2.4754569, 48.916469899699464 ], [ 2.4743264, 48.918400699698999 ], [ 2.4760526, 48.91889709969886 ], [ 2.4770148, 48.920245699698555 ], [ 2.4794358, 48.919923499698633 ], [ 2.479557492184345, 48.918438916327048 ], [ 2.482114549179156, 48.918194996174044 ], [ 2.482210504848237, 48.918507464438321 ], [ 2.483671597535865, 48.918267099459072 ], [ 2.484495133976663, 48.918055487286324 ], [ 2.485268855958, 48.917909740163367 ], [ 2.4861204, 48.918690599698898 ], [ 2.488729, 48.918631999698974 ], [ 2.4918648, 48.916906099699375 ], [ 2.4921766, 48.915971899699606 ], [ 2.4913426, 48.91313059970031 ], [ 2.4911483, 48.910216999701035 ], [ 2.4904856, 48.909053999701293 ], [ 2.492615008807177, 48.90765524133716 ], [ 2.490161281327026, 48.907335871465271 ], [ 2.490308737705629, 48.906857375759934 ], [ 2.492058999854959, 48.907053037478107 ], [ 2.4937486, 48.907316199701725 ], [ 2.4936484, 48.905659499702111 ], [ 2.4972679, 48.905772999702087 ], [ 2.497168664211365, 48.904790203548004 ], [ 2.499207280605195, 48.904687519105764 ], [ 2.499296645135908, 48.904841896816521 ], [ 2.499897090205306, 48.904610632678278 ], [ 2.499428174225555, 48.903310960276301 ], [ 2.499255457993345, 48.902377656224665 ], [ 2.499272220973614, 48.901984159308924 ], [ 2.499474, 48.902028999703042 ], [ 2.4984332, 48.899603599703624 ], [ 2.4971908, 48.89968749970361 ], [ 2.4955854, 48.896737699704346 ], [ 2.5001206, 48.895740199704562 ], [ 2.4980552, 48.893050299705237 ], [ 2.4971517, 48.891070699705708 ], [ 2.498226495557782, 48.89083576970026 ], [ 2.498076862395247, 48.890174728158868 ], [ 2.497154525995398, 48.88981106234457 ], [ 2.4955022, 48.889324999706155 ], [ 2.49501619752237, 48.889462015034802 ], [ 2.491877514277223, 48.890287056352363 ], [ 2.491029501977192, 48.890908299004067 ], [ 2.4898653, 48.888336599706378 ], [ 2.487360314743894, 48.888499057998111 ], [ 2.48693881953827, 48.886986404310015 ], [ 2.4817863, 48.887842999706528 ], [ 2.4778921, 48.889180699706174 ], [ 2.4765712, 48.88877029970628 ], [ 2.4713292, 48.88903409970623 ], [ 2.4727503, 48.892772899705292 ], [ 2.4744368, 48.895111899704752 ], [ 2.4727898, 48.895636699704625 ], [ 2.4746291, 48.898147399703966 ], [ 2.468867, 48.899582099703657 ], [ 2.4706524, 48.902930099702807 ], [ 2.4700476, 48.904971399702269 ] ] ] } }
]
}
