{
"type": "FeatureCollection",
"name": "crossing_centers_voronois",
"crs": { "type": "name", "properties": { "name": "urn:ogc:def:crs:OGC:1.3:CRS84" } },
"xy_coordinate_resolution": 1e-15,
"features": [
{ "type": "Feature", "properties": { "osm_id": "134577038", "name": null, "highway": "residential", "waterway": null, "aerialway": null, "barrier": null, "man_made": null, "railway": null, "z_order": 3, "other_tags": null, "access": null, "bicycle": null, "boundary": null, "bridge": null, "covered": null, "cycleway": null, "cycleway:left": null, "cycleway:right": null, "foot": null, "footway": null, "int_ref": null, "lane_markings": null, "lanes": null, "layer": null, "lit": null, "maxspeed": null, "nat_ref": null, "oneway": null, "operator": null, "operator:wikidata": null, "political_division": null, "ref": null, "sidewalk": null, "smoothness": null, "source:maxspeed": null, "surface": null, "toll": null, "turn:lanes": null, "was:name": null, "width": null, "zone:maxspeed": null, "osm_id_2": "134577039", "name_2": null, "highway_2": "residential", "waterway_2": null, "aerialway_2": null, "barrier_2": null, "man_made_2": null, "railway_2": null, "z_order_2": 3, "other_tags_2": "\"surface\"=>\"asphalt\"", "access_2": null, "bicycle_2": null, "boundary_2": null, "bridge_2": null, "covered_2": null, "cycleway_2": null, "cycleway:left_2": null, "cycleway:right_2": null, "foot_2": null, "footway_2": null, "int_ref_2": null, "lane_markings_2": null, "lanes_2": null, "layer_2": null, "lit_2": null, "maxspeed_2": null, "nat_ref_2": null, "oneway_2": null, "operator_2": null, "operator:wikidata_2": null, "political_division_2": null, "ref_2": null, "sidewalk_2": null, "smoothness_2": null, "source:maxspeed_2": null, "surface_2": "asphalt", "toll_2": null, "turn:lanes_2": null, "was:name_2": null, "width_2": null, "zone:maxspeed_2": null }, "geometry": { "type": "MultiPolygon", "coordinates": [ [ [ [ 2.474513566154629, 48.909566979696542 ], [ 2.475423689538717, 48.909262266358319 ], [ 2.475432659179892, 48.909148091507227 ], [ 2.474961261536015, 48.909098426661473 ], [ 2.474823850589273, 48.909111871354746 ], [ 2.474236267236235, 48.909226016369153 ], [ 2.474513566154629, 48.909566979696542 ] ] ] ] } },
{ "type": "Feature", "properties": { "osm_id": "25415621", "name": "Rue François Martin", "highway": "residential", "waterway": null, "aerialway": null, "barrier": null, "man_made": null, "railway": null, "z_order": 3, "other_tags": "\"lit\"=>\"yes\",\"surface\"=>\"asphalt\"", "access": null, "bicycle": null, "boundary": null, "bridge": null, "covered": null, "cycleway": null, "cycleway:left": null, "cycleway:right": null, "foot": null, "footway": null, "int_ref": null, "lane_markings": null, "lanes": null, "layer": null, "lit": "yes", "maxspeed": null, "nat_ref": null, "oneway": null, "operator": null, "operator:wikidata": null, "political_division": null, "ref": null, "sidewalk": null, "smoothness": null, "source:maxspeed": null, "surface": "asphalt", "toll": null, "turn:lanes": null, "was:name": null, "width": null, "zone:maxspeed": null, "osm_id_2": "134577039", "name_2": null, "highway_2": "residential", "waterway_2": null, "aerialway_2": null, "barrier_2": null, "man_made_2": null, "railway_2": null, "z_order_2": 3, "other_tags_2": "\"surface\"=>\"asphalt\"", "access_2": null, "bicycle_2": null, "boundary_2": null, "bridge_2": null, "covered_2": null, "cycleway_2": null, "cycleway:left_2": null, "cycleway:right_2": null, "foot_2": null, "footway_2": null, "int_ref_2": null, "lane_markings_2": null, "lanes_2": null, "layer_2": null, "lit_2": null, "maxspeed_2": null, "nat_ref_2": null, "oneway_2": null, "operator_2": null, "operator:wikidata_2": null, "political_division_2": null, "ref_2": null, "sidewalk_2": null, "smoothness_2": null, "source:maxspeed_2": null, "surface_2": "asphalt", "toll_2": null, "turn:lanes_2": null, "was:name_2": null, "width_2": null, "zone:maxspeed_2": null }, "geometry": { "type": "MultiPolygon", "coordinates": [ [ [ [ 2.473348297827321, 48.908134144304384 ], [ 2.474236267236235, 48.909226016369153 ], [ 2.474823850589273, 48.909111871354746 ], [ 2.474917282106549, 48.908206556613322 ], [ 2.473348297827321, 48.908134144304384 ] ] ] ] } },
{ "type": "Feature", "properties": { "osm_id": "25415621", "name": "Rue François Martin", "highway": "residential", "waterway": null, "aerialway": null, "barrier": null, "man_made": null, "railway": null, "z_order": 3, "other_tags": "\"lit\"=>\"yes\",\"surface\"=>\"asphalt\"", "access": null, "bicycle": null, "boundary": null, "bridge": null, "covered": null, "cycleway": null, "cycleway:left": null, "cycleway:right": null, "foot": null, "footway": null, "int_ref": null, "lane_markings": null, "lanes": null, "layer": null, "lit": "yes", "maxspeed": null, "nat_ref": null, "oneway": null, "operator": null, "operator:wikidata": null, "political_division": null, "ref": null, "sidewalk": null, "smoothness": null, "source:maxspeed": null, "surface": "asphalt", "toll": null, "turn:lanes": null, "was:name": null, "width": null, "zone:maxspeed": null, "osm_id_2": "25415621", "name_2": "Rue François Martin", "highway_2": "residential", "waterway_2": null, "aerialway_2": null, "barrier_2": null, "man_made_2": null, "railway_2": null, "z_order_2": 3, "other_tags_2": "\"lit\"=>\"yes\",\"surface\"=>\"asphalt\"", "access_2": null, "bicycle_2": null, "boundary_2": null, "bridge_2": null, "covered_2": null, "cycleway_2": null, "cycleway:left_2": null, "cycleway:right_2": null, "foot_2": null, "footway_2": null, "int_ref_2": null, "lane_markings_2": null, "lanes_2": null, "layer_2": null, "lit_2": "yes", "maxspeed_2": null, "nat_ref_2": null, "oneway_2": null, "operator_2": null, "operator:wikidata_2": null, "political_division_2": null, "ref_2": null, "sidewalk_2": null, "smoothness_2": null, "source:maxspeed_2": null, "surface_2": "asphalt", "toll_2": null, "turn:lanes_2": null, "was:name_2": null, "width_2": null, "zone:maxspeed_2": null }, "geometry": { "type": "MultiPolygon", "coordinates": [ [ [ [ 2.474917282106549, 48.908206556613322 ], [ 2.474823850589273, 48.909111871354746 ], [ 2.474961261536015, 48.909098426661473 ], [ 2.475054103554409, 48.908212870222634 ], [ 2.474917282106549, 48.908206556613322 ] ] ] ] } },
{ "type": "Feature", "properties": { "osm_id": "132451200", "name": "Allée des Tulipes", "highway": "residential", "waterway": null, "aerialway": null, "barrier": null, "man_made": null, "railway": null, "z_order": 3, "other_tags": "\"lit\"=>\"yes\",\"surface\"=>\"asphalt\"", "access": null, "bicycle": null, "boundary": null, "bridge": null, "covered": null, "cycleway": null, "cycleway:left": null, "cycleway:right": null, "foot": null, "footway": null, "int_ref": null, "lane_markings": null, "lanes": null, "layer": null, "lit": "yes", "maxspeed": null, "nat_ref": null, "oneway": null, "operator": null, "operator:wikidata": null, "political_division": null, "ref": null, "sidewalk": null, "smoothness": null, "source:maxspeed": null, "surface": "asphalt", "toll": null, "turn:lanes": null, "was:name": null, "width": null, "zone:maxspeed": null, "osm_id_2": "134577036", "name_2": null, "highway_2": "residential", "waterway_2": null, "aerialway_2": null, "barrier_2": null, "man_made_2": null, "railway_2": null, "z_order_2": 3, "other_tags_2": null, "access_2": null, "bicycle_2": null, "boundary_2": null, "bridge_2": null, "covered_2": null, "cycleway_2": null, "cycleway:left_2": null, "cycleway:right_2": null, "foot_2": null, "footway_2": null, "int_ref_2": null, "lane_markings_2": null, "lanes_2": null, "layer_2": null, "lit_2": null, "maxspeed_2": null, "nat_ref_2": null, "oneway_2": null, "operator_2": null, "operator:wikidata_2": null, "political_division_2": null, "ref_2": null, "sidewalk_2": null, "smoothness_2": null, "source:maxspeed_2": null, "surface_2": null, "toll_2": null, "turn:lanes_2": null, "was:name_2": null, "width_2": null, "zone:maxspeed_2": null }, "geometry": { "type": "MultiPolygon", "coordinates": [ [ [ [ 2.475477169608584, 48.909516184196157 ], [ 2.475937755041001, 48.909538223096703 ], [ 2.476021223252749, 48.909424846173138 ], [ 2.475487317321589, 48.909399317313358 ], [ 2.475477169608584, 48.909516184196157 ] ] ] ] } },
{ "type": "Feature", "properties": { "osm_id": "134577036", "name": null, "highway": "residential", "waterway": null, "aerialway": null, "barrier": null, "man_made": null, "railway": null, "z_order": 3, "other_tags": null, "access": null, "bicycle": null, "boundary": null, "bridge": null, "covered": null, "cycleway": null, "cycleway:left": null, "cycleway:right": null, "foot": null, "footway": null, "int_ref": null, "lane_markings": null, "lanes": null, "layer": null, "lit": null, "maxspeed": null, "nat_ref": null, "oneway": null, "operator": null, "operator:wikidata": null, "political_division": null, "ref": null, "sidewalk": null, "smoothness": null, "source:maxspeed": null, "surface": null, "toll": null, "turn:lanes": null, "was:name": null, "width": null, "zone:maxspeed": null, "osm_id_2": "134577039", "name_2": null, "highway_2": "residential", "waterway_2": null, "aerialway_2": null, "barrier_2": null, "man_made_2": null, "railway_2": null, "z_order_2": 3, "other_tags_2": "\"surface\"=>\"asphalt\"", "access_2": null, "bicycle_2": null, "boundary_2": null, "bridge_2": null, "covered_2": null, "cycleway_2": null, "cycleway:left_2": null, "cycleway:right_2": null, "foot_2": null, "footway_2": null, "int_ref_2": null, "lane_markings_2": null, "lanes_2": null, "layer_2": null, "lit_2": null, "maxspeed_2": null, "nat_ref_2": null, "oneway_2": null, "operator_2": null, "operator:wikidata_2": null, "political_division_2": null, "ref_2": null, "sidewalk_2": null, "smoothness_2": null, "source:maxspeed_2": null, "surface_2": "asphalt", "toll_2": null, "turn:lanes_2": null, "was:name_2": null, "width_2": null, "zone:maxspeed_2": null }, "geometry": { "type": "MultiPolygon", "coordinates": [ [ [ [ 2.475227959042708, 48.910445363836111 ], [ 2.475477169608584, 48.909516184196157 ], [ 2.475487317321589, 48.909399317313358 ], [ 2.475423689538717, 48.909262266358319 ], [ 2.474513566154629, 48.909566979696542 ], [ 2.475227959042708, 48.910445363836111 ] ] ] ] } },
{ "type": "Feature", "properties": { "osm_id": "25415621", "name": "Rue François Martin", "highway": "residential", "waterway": null, "aerialway": null, "barrier": null, "man_made": null, "railway": null, "z_order": 3, "other_tags": "\"lit\"=>\"yes\",\"surface\"=>\"asphalt\"", "access": null, "bicycle": null, "boundary": null, "bridge": null, "covered": null, "cycleway": null, "cycleway:left": null, "cycleway:right": null, "foot": null, "footway": null, "int_ref": null, "lane_markings": null, "lanes": null, "layer": null, "lit": "yes", "maxspeed": null, "nat_ref": null, "oneway": null, "operator": null, "operator:wikidata": null, "political_division": null, "ref": null, "sidewalk": null, "smoothness": null, "source:maxspeed": null, "surface": "asphalt", "toll": null, "turn:lanes": null, "was:name": null, "width": null, "zone:maxspeed": null, "osm_id_2": "25415621", "name_2": "Rue François Martin", "highway_2": "residential", "waterway_2": null, "aerialway_2": null, "barrier_2": null, "man_made_2": null, "railway_2": null, "z_order_2": 3, "other_tags_2": "\"lit\"=>\"yes\",\"surface\"=>\"asphalt\"", "access_2": null, "bicycle_2": null, "boundary_2": null, "bridge_2": null, "covered_2": null, "cycleway_2": null, "cycleway:left_2": null, "cycleway:right_2": null, "foot_2": null, "footway_2": null, "int_ref_2": null, "lane_markings_2": null, "lanes_2": null, "layer_2": null, "lit_2": "yes", "maxspeed_2": null, "nat_ref_2": null, "oneway_2": null, "operator_2": null, "operator:wikidata_2": null, "political_division_2": null, "ref_2": null, "sidewalk_2": null, "smoothness_2": null, "source:maxspeed_2": null, "surface_2": "asphalt", "toll_2": null, "turn:lanes_2": null, "was:name_2": null, "width_2": null, "zone:maxspeed_2": null }, "geometry": { "type": "MultiPolygon", "coordinates": [ [ [ [ 2.475054103554409, 48.908212870222634 ], [ 2.474961261536015, 48.909098426661473 ], [ 2.475432659179892, 48.909148091507227 ], [ 2.475465170110958, 48.909121303904278 ], [ 2.475562648073316, 48.908236335511681 ], [ 2.475054103554409, 48.908212870222634 ] ] ] ] } },
{ "type": "Feature", "properties": { "osm_id": "132451200", "name": "Allée des Tulipes", "highway": "residential", "waterway": null, "aerialway": null, "barrier": null, "man_made": null, "railway": null, "z_order": 3, "other_tags": "\"lit\"=>\"yes\",\"surface\"=>\"asphalt\"", "access": null, "bicycle": null, "boundary": null, "bridge": null, "covered": null, "cycleway": null, "cycleway:left": null, "cycleway:right": null, "foot": null, "footway": null, "int_ref": null, "lane_markings": null, "lanes": null, "layer": null, "lit": "yes", "maxspeed": null, "nat_ref": null, "oneway": null, "operator": null, "operator:wikidata": null, "political_division": null, "ref": null, "sidewalk": null, "smoothness": null, "source:maxspeed": null, "surface": "asphalt", "toll": null, "turn:lanes": null, "was:name": null, "width": null, "zone:maxspeed": null, "osm_id_2": "134577038", "name_2": null, "highway_2": "residential", "waterway_2": null, "aerialway_2": null, "barrier_2": null, "man_made_2": null, "railway_2": null, "z_order_2": 3, "other_tags_2": null, "access_2": null, "bicycle_2": null, "boundary_2": null, "bridge_2": null, "covered_2": null, "cycleway_2": null, "cycleway:left_2": null, "cycleway:right_2": null, "foot_2": null, "footway_2": null, "int_ref_2": null, "lane_markings_2": null, "lanes_2": null, "layer_2": null, "lit_2": null, "maxspeed_2": null, "nat_ref_2": null, "oneway_2": null, "operator_2": null, "operator:wikidata_2": null, "political_division_2": null, "ref_2": null, "sidewalk_2": null, "smoothness_2": null, "source:maxspeed_2": null, "surface_2": null, "toll_2": null, "turn:lanes_2": null, "was:name_2": null, "width_2": null, "zone:maxspeed_2": null }, "geometry": { "type": "MultiPolygon", "coordinates": [ [ [ [ 2.475487317321589, 48.909399317313358 ], [ 2.476021223252749, 48.909424846173138 ], [ 2.476195949614856, 48.909369062709089 ], [ 2.4763140915639, 48.909273161807 ], [ 2.47626048790937, 48.909238668339754 ], [ 2.476029363698314, 48.909146790139133 ], [ 2.475465170110958, 48.909121303904278 ], [ 2.475432659179892, 48.909148091507227 ], [ 2.475423689538717, 48.909262266358319 ], [ 2.475487317321589, 48.909399317313358 ] ] ] ] } },
{ "type": "Feature", "properties": { "osm_id": "25415880", "name": "Rue Paul Renaud", "highway": "residential", "waterway": null, "aerialway": null, "barrier": null, "man_made": null, "railway": null, "z_order": 3, "other_tags": "\"lanes\"=>\"1\",\"lit\"=>\"yes\",\"maxspeed\"=>\"50\",\"oneway\"=>\"yes\",\"sidewalk\"=>\"both\",\"smoothness\"=>\"good\",\"source:maxspeed\"=>\"FR:urban\",\"surface\"=>\"asphalt\"", "access": null, "bicycle": null, "boundary": null, "bridge": null, "covered": null, "cycleway": null, "cycleway:left": null, "cycleway:right": null, "foot": null, "footway": null, "int_ref": null, "lane_markings": null, "lanes": "1", "layer": null, "lit": "yes", "maxspeed": "50", "nat_ref": null, "oneway": "yes", "operator": null, "operator:wikidata": null, "political_division": null, "ref": null, "sidewalk": "both", "smoothness": "good", "source:maxspeed": "FR:urban", "surface": "asphalt", "toll": null, "turn:lanes": null, "was:name": null, "width": null, "zone:maxspeed": null, "osm_id_2": "25415880", "name_2": "Rue Paul Renaud", "highway_2": "residential", "waterway_2": null, "aerialway_2": null, "barrier_2": null, "man_made_2": null, "railway_2": null, "z_order_2": 3, "other_tags_2": "\"lanes\"=>\"1\",\"lit\"=>\"yes\",\"maxspeed\"=>\"50\",\"oneway\"=>\"yes\",\"sidewalk\"=>\"both\",\"smoothness\"=>\"good\",\"source:maxspeed\"=>\"FR:urban\",\"surface\"=>\"asphalt\"", "access_2": null, "bicycle_2": null, "boundary_2": null, "bridge_2": null, "covered_2": null, "cycleway_2": null, "cycleway:left_2": null, "cycleway:right_2": null, "foot_2": null, "footway_2": null, "int_ref_2": null, "lane_markings_2": null, "lanes_2": "1", "layer_2": null, "lit_2": "yes", "maxspeed_2": "50", "nat_ref_2": null, "oneway_2": "yes", "operator_2": null, "operator:wikidata_2": null, "political_division_2": null, "ref_2": null, "sidewalk_2": "both", "smoothness_2": "good", "source:maxspeed_2": "FR:urban", "surface_2": "asphalt", "toll_2": null, "turn:lanes_2": null, "was:name_2": null, "width_2": null, "zone:maxspeed_2": null }, "geometry": { "type": "MultiPolygon", "coordinates": [ [ [ [ 2.479858122617349, 48.912380293218682 ], [ 2.479967760350168, 48.910132839762277 ], [ 2.479661803267414, 48.909995146484668 ], [ 2.479225881548736, 48.909888383066239 ], [ 2.478694593981531, 48.910078553979154 ], [ 2.478009082053567, 48.910438081911366 ], [ 2.477524019161142, 48.910882291434561 ], [ 2.47711460353029, 48.911688467537168 ], [ 2.477592860472088, 48.912450469465334 ], [ 2.477698447022326, 48.912533664983876 ], [ 2.477908038141869, 48.912585838394058 ], [ 2.478301152060335, 48.912568665796094 ], [ 2.479858122617349, 48.912380293218682 ] ] ] ] } },
{ "type": "Feature", "properties": { "osm_id": "132451200", "name": "Allée des Tulipes", "highway": "residential", "waterway": null, "aerialway": null, "barrier": null, "man_made": null, "railway": null, "z_order": 3, "other_tags": "\"lit\"=>\"yes\",\"surface\"=>\"asphalt\"", "access": null, "bicycle": null, "boundary": null, "bridge": null, "covered": null, "cycleway": null, "cycleway:left": null, "cycleway:right": null, "foot": null, "footway": null, "int_ref": null, "lane_markings": null, "lanes": null, "layer": null, "lit": "yes", "maxspeed": null, "nat_ref": null, "oneway": null, "operator": null, "operator:wikidata": null, "political_division": null, "ref": null, "sidewalk": null, "smoothness": null, "source:maxspeed": null, "surface": "asphalt", "toll": null, "turn:lanes": null, "was:name": null, "width": null, "zone:maxspeed": null, "osm_id_2": "132451201", "name_2": "Rue Henri Mouly", "highway_2": "residential", "waterway_2": null, "aerialway_2": null, "barrier_2": null, "man_made_2": null, "railway_2": null, "z_order_2": 3, "other_tags_2": "\"lit\"=>\"yes\",\"surface\"=>\"asphalt\"", "access_2": null, "bicycle_2": null, "boundary_2": null, "bridge_2": null, "covered_2": null, "cycleway_2": null, "cycleway:left_2": null, "cycleway:right_2": null, "foot_2": null, "footway_2": null, "int_ref_2": null, "lane_markings_2": null, "lanes_2": null, "layer_2": null, "lit_2": "yes", "maxspeed_2": null, "nat_ref_2": null, "oneway_2": null, "operator_2": null, "operator:wikidata_2": null, "political_division_2": null, "ref_2": null, "sidewalk_2": null, "smoothness_2": null, "source:maxspeed_2": null, "surface_2": "asphalt", "toll_2": null, "turn:lanes_2": null, "was:name_2": null, "width_2": null, "zone:maxspeed_2": null }, "geometry": { "type": "MultiPolygon", "coordinates": [ [ [ [ 2.475434329900909, 48.910699101226399 ], [ 2.475870606999914, 48.910473213026201 ], [ 2.475937755041001, 48.909538223096703 ], [ 2.475477169608584, 48.909516184196157 ], [ 2.475227959042708, 48.910445363836111 ], [ 2.475434329900909, 48.910699101226399 ] ] ] ] } },
{ "type": "Feature", "properties": { "osm_id": "132451201", "name": "Rue Henri Mouly", "highway": "residential", "waterway": null, "aerialway": null, "barrier": null, "man_made": null, "railway": null, "z_order": 3, "other_tags": "\"lit\"=>\"yes\",\"surface\"=>\"asphalt\"", "access": null, "bicycle": null, "boundary": null, "bridge": null, "covered": null, "cycleway": null, "cycleway:left": null, "cycleway:right": null, "foot": null, "footway": null, "int_ref": null, "lane_markings": null, "lanes": null, "layer": null, "lit": "yes", "maxspeed": null, "nat_ref": null, "oneway": null, "operator": null, "operator:wikidata": null, "political_division": null, "ref": null, "sidewalk": null, "smoothness": null, "source:maxspeed": null, "surface": "asphalt", "toll": null, "turn:lanes": null, "was:name": null, "width": null, "zone:maxspeed": null, "osm_id_2": "132451201", "name_2": "Rue Henri Mouly", "highway_2": "residential", "waterway_2": null, "aerialway_2": null, "barrier_2": null, "man_made_2": null, "railway_2": null, "z_order_2": 3, "other_tags_2": "\"lit\"=>\"yes\",\"surface\"=>\"asphalt\"", "access_2": null, "bicycle_2": null, "boundary_2": null, "bridge_2": null, "covered_2": null, "cycleway_2": null, "cycleway:left_2": null, "cycleway:right_2": null, "foot_2": null, "footway_2": null, "int_ref_2": null, "lane_markings_2": null, "lanes_2": null, "layer_2": null, "lit_2": "yes", "maxspeed_2": null, "nat_ref_2": null, "oneway_2": null, "operator_2": null, "operator:wikidata_2": null, "political_division_2": null, "ref_2": null, "sidewalk_2": null, "smoothness_2": null, "source:maxspeed_2": null, "surface_2": "asphalt", "toll_2": null, "turn:lanes_2": null, "was:name_2": null, "width_2": null, "zone:maxspeed_2": null }, "geometry": { "type": "MultiPolygon", "coordinates": [ [ [ [ 2.476100869084121, 48.910353990316622 ], [ 2.476126048201927, 48.910332941144645 ], [ 2.476195949614856, 48.909369062709089 ], [ 2.476021223252749, 48.909424846173138 ], [ 2.475937755041001, 48.909538223096703 ], [ 2.475870606999914, 48.910473213026201 ], [ 2.476100869084121, 48.910353990316622 ] ] ] ] } },
{ "type": "Feature", "properties": { "osm_id": "25415621", "name": "Rue François Martin", "highway": "residential", "waterway": null, "aerialway": null, "barrier": null, "man_made": null, "railway": null, "z_order": 3, "other_tags": "\"lit\"=>\"yes\",\"surface\"=>\"asphalt\"", "access": null, "bicycle": null, "boundary": null, "bridge": null, "covered": null, "cycleway": null, "cycleway:left": null, "cycleway:right": null, "foot": null, "footway": null, "int_ref": null, "lane_markings": null, "lanes": null, "layer": null, "lit": "yes", "maxspeed": null, "nat_ref": null, "oneway": null, "operator": null, "operator:wikidata": null, "political_division": null, "ref": null, "sidewalk": null, "smoothness": null, "source:maxspeed": null, "surface": "asphalt", "toll": null, "turn:lanes": null, "was:name": null, "width": null, "zone:maxspeed": null, "osm_id_2": "25415621", "name_2": "Rue François Martin", "highway_2": "residential", "waterway_2": null, "aerialway_2": null, "barrier_2": null, "man_made_2": null, "railway_2": null, "z_order_2": 3, "other_tags_2": "\"lit\"=>\"yes\",\"surface\"=>\"asphalt\"", "access_2": null, "bicycle_2": null, "boundary_2": null, "bridge_2": null, "covered_2": null, "cycleway_2": null, "cycleway:left_2": null, "cycleway:right_2": null, "foot_2": null, "footway_2": null, "int_ref_2": null, "lane_markings_2": null, "lanes_2": null, "layer_2": null, "lit_2": "yes", "maxspeed_2": null, "nat_ref_2": null, "oneway_2": null, "operator_2": null, "operator:wikidata_2": null, "political_division_2": null, "ref_2": null, "sidewalk_2": null, "smoothness_2": null, "source:maxspeed_2": null, "surface_2": "asphalt", "toll_2": null, "turn:lanes_2": null, "was:name_2": null, "width_2": null, "zone:maxspeed_2": null }, "geometry": { "type": "MultiPolygon", "coordinates": [ [ [ [ 2.47611107019263, 48.908261638297368 ], [ 2.476029363698314, 48.909146790139133 ], [ 2.47626048790937, 48.909238668339754 ], [ 2.476366600729517, 48.908273426919564 ], [ 2.47611107019263, 48.908261638297368 ] ] ] ] } },
{ "type": "Feature", "properties": { "osm_id": "25415621", "name": "Rue François Martin", "highway": "residential", "waterway": null, "aerialway": null, "barrier": null, "man_made": null, "railway": null, "z_order": 3, "other_tags": "\"lit\"=>\"yes\",\"surface\"=>\"asphalt\"", "access": null, "bicycle": null, "boundary": null, "bridge": null, "covered": null, "cycleway": null, "cycleway:left": null, "cycleway:right": null, "foot": null, "footway": null, "int_ref": null, "lane_markings": null, "lanes": null, "layer": null, "lit": "yes", "maxspeed": null, "nat_ref": null, "oneway": null, "operator": null, "operator:wikidata": null, "political_division": null, "ref": null, "sidewalk": null, "smoothness": null, "source:maxspeed": null, "surface": "asphalt", "toll": null, "turn:lanes": null, "was:name": null, "width": null, "zone:maxspeed": null, "osm_id_2": "25415621", "name_2": "Rue François Martin", "highway_2": "residential", "waterway_2": null, "aerialway_2": null, "barrier_2": null, "man_made_2": null, "railway_2": null, "z_order_2": 3, "other_tags_2": "\"lit\"=>\"yes\",\"surface\"=>\"asphalt\"", "access_2": null, "bicycle_2": null, "boundary_2": null, "bridge_2": null, "covered_2": null, "cycleway_2": null, "cycleway:left_2": null, "cycleway:right_2": null, "foot_2": null, "footway_2": null, "int_ref_2": null, "lane_markings_2": null, "lanes_2": null, "layer_2": null, "lit_2": "yes", "maxspeed_2": null, "nat_ref_2": null, "oneway_2": null, "operator_2": null, "operator:wikidata_2": null, "political_division_2": null, "ref_2": null, "sidewalk_2": null, "smoothness_2": null, "source:maxspeed_2": null, "surface_2": "asphalt", "toll_2": null, "turn:lanes_2": null, "was:name_2": null, "width_2": null, "zone:maxspeed_2": null }, "geometry": { "type": "MultiPolygon", "coordinates": [ [ [ [ 2.475562648073316, 48.908236335511681 ], [ 2.475465170110958, 48.909121303904278 ], [ 2.476029363698314, 48.909146790139133 ], [ 2.47611107019263, 48.908261638297368 ], [ 2.475562648073316, 48.908236335511681 ] ] ] ] } },
{ "type": "Feature", "properties": { "osm_id": "25415621", "name": "Rue François Martin", "highway": "residential", "waterway": null, "aerialway": null, "barrier": null, "man_made": null, "railway": null, "z_order": 3, "other_tags": "\"lit\"=>\"yes\",\"surface\"=>\"asphalt\"", "access": null, "bicycle": null, "boundary": null, "bridge": null, "covered": null, "cycleway": null, "cycleway:left": null, "cycleway:right": null, "foot": null, "footway": null, "int_ref": null, "lane_markings": null, "lanes": null, "layer": null, "lit": "yes", "maxspeed": null, "nat_ref": null, "oneway": null, "operator": null, "operator:wikidata": null, "political_division": null, "ref": null, "sidewalk": null, "smoothness": null, "source:maxspeed": null, "surface": "asphalt", "toll": null, "turn:lanes": null, "was:name": null, "width": null, "zone:maxspeed": null, "osm_id_2": "25415621", "name_2": "Rue François Martin", "highway_2": "residential", "waterway_2": null, "aerialway_2": null, "barrier_2": null, "man_made_2": null, "railway_2": null, "z_order_2": 3, "other_tags_2": "\"lit\"=>\"yes\",\"surface\"=>\"asphalt\"", "access_2": null, "bicycle_2": null, "boundary_2": null, "bridge_2": null, "covered_2": null, "cycleway_2": null, "cycleway:left_2": null, "cycleway:right_2": null, "foot_2": null, "footway_2": null, "int_ref_2": null, "lane_markings_2": null, "lanes_2": null, "layer_2": null, "lit_2": "yes", "maxspeed_2": null, "nat_ref_2": null, "oneway_2": null, "operator_2": null, "operator:wikidata_2": null, "political_division_2": null, "ref_2": null, "sidewalk_2": null, "smoothness_2": null, "source:maxspeed_2": null, "surface_2": "asphalt", "toll_2": null, "turn:lanes_2": null, "was:name_2": null, "width_2": null, "zone:maxspeed_2": null }, "geometry": { "type": "MultiPolygon", "coordinates": [ [ [ [ 2.476366600729517, 48.908273426919564 ], [ 2.47626048790937, 48.909238668339754 ], [ 2.4763140915639, 48.909273161807 ], [ 2.476687327108794, 48.909289512696212 ], [ 2.476936089447293, 48.909038182776101 ], [ 2.476940331952676, 48.909019820413661 ], [ 2.477020076500605, 48.908303571709808 ], [ 2.476366600729517, 48.908273426919564 ] ] ] ] } },
{ "type": "Feature", "properties": { "osm_id": "132451199", "name": "Allée des Lauriers", "highway": "residential", "waterway": null, "aerialway": null, "barrier": null, "man_made": null, "railway": null, "z_order": 3, "other_tags": "\"lit\"=>\"yes\"", "access": null, "bicycle": null, "boundary": null, "bridge": null, "covered": null, "cycleway": null, "cycleway:left": null, "cycleway:right": null, "foot": null, "footway": null, "int_ref": null, "lane_markings": null, "lanes": null, "layer": null, "lit": "yes", "maxspeed": null, "nat_ref": null, "oneway": null, "operator": null, "operator:wikidata": null, "political_division": null, "ref": null, "sidewalk": null, "smoothness": null, "source:maxspeed": null, "surface": null, "toll": null, "turn:lanes": null, "was:name": null, "width": null, "zone:maxspeed": null, "osm_id_2": "132451201", "name_2": "Rue Henri Mouly", "highway_2": "residential", "waterway_2": null, "aerialway_2": null, "barrier_2": null, "man_made_2": null, "railway_2": null, "z_order_2": 3, "other_tags_2": "\"lit\"=>\"yes\",\"surface\"=>\"asphalt\"", "access_2": null, "bicycle_2": null, "boundary_2": null, "bridge_2": null, "covered_2": null, "cycleway_2": null, "cycleway:left_2": null, "cycleway:right_2": null, "foot_2": null, "footway_2": null, "int_ref_2": null, "lane_markings_2": null, "lanes_2": null, "layer_2": null, "lit_2": "yes", "maxspeed_2": null, "nat_ref_2": null, "oneway_2": null, "operator_2": null, "operator:wikidata_2": null, "political_division_2": null, "ref_2": null, "sidewalk_2": null, "smoothness_2": null, "source:maxspeed_2": null, "surface_2": "asphalt", "toll_2": null, "turn:lanes_2": null, "was:name_2": null, "width_2": null, "zone:maxspeed_2": null }, "geometry": { "type": "MultiPolygon", "coordinates": [ [ [ [ 2.476216444535481, 48.910257371666326 ], [ 2.47711460353029, 48.911688467537168 ], [ 2.477524019161142, 48.910882291434561 ], [ 2.477357019788968, 48.910438956498282 ], [ 2.476687327108794, 48.909289512696212 ], [ 2.4763140915639, 48.909273161807 ], [ 2.476195949614856, 48.909369062709089 ], [ 2.476126048201927, 48.910332941144645 ], [ 2.476216444535481, 48.910257371666326 ] ] ] ] } },
{ "type": "Feature", "properties": { "osm_id": "132451205", "name": null, "highway": "residential", "waterway": null, "aerialway": null, "barrier": null, "man_made": null, "railway": null, "z_order": 3, "other_tags": "\"lit\"=>\"yes\"", "access": null, "bicycle": null, "boundary": null, "bridge": null, "covered": null, "cycleway": null, "cycleway:left": null, "cycleway:right": null, "foot": null, "footway": null, "int_ref": null, "lane_markings": null, "lanes": null, "layer": null, "lit": "yes", "maxspeed": null, "nat_ref": null, "oneway": null, "operator": null, "operator:wikidata": null, "political_division": null, "ref": null, "sidewalk": null, "smoothness": null, "source:maxspeed": null, "surface": null, "toll": null, "turn:lanes": null, "was:name": null, "width": null, "zone:maxspeed": null, "osm_id_2": "132451207", "name_2": null, "highway_2": "residential", "waterway_2": null, "aerialway_2": null, "barrier_2": null, "man_made_2": null, "railway_2": null, "z_order_2": 3, "other_tags_2": "\"lit\"=>\"yes\"", "access_2": null, "bicycle_2": null, "boundary_2": null, "bridge_2": null, "covered_2": null, "cycleway_2": null, "cycleway:left_2": null, "cycleway:right_2": null, "foot_2": null, "footway_2": null, "int_ref_2": null, "lane_markings_2": null, "lanes_2": null, "layer_2": null, "lit_2": "yes", "maxspeed_2": null, "nat_ref_2": null, "oneway_2": null, "operator_2": null, "operator:wikidata_2": null, "political_division_2": null, "ref_2": null, "sidewalk_2": null, "smoothness_2": null, "source:maxspeed_2": null, "surface_2": null, "toll_2": null, "turn:lanes_2": null, "was:name_2": null, "width_2": null, "zone:maxspeed_2": null }, "geometry": { "type": "MultiPolygon", "coordinates": [ [ [ [ 2.476687327108794, 48.909289512696212 ], [ 2.477357019788968, 48.910438956498282 ], [ 2.477461303507894, 48.90925101283311 ], [ 2.476936089447293, 48.909038182776101 ], [ 2.476687327108794, 48.909289512696212 ] ] ] ] } },
{ "type": "Feature", "properties": { "osm_id": "25415621", "name": "Rue François Martin", "highway": "residential", "waterway": null, "aerialway": null, "barrier": null, "man_made": null, "railway": null, "z_order": 3, "other_tags": "\"lit\"=>\"yes\",\"surface\"=>\"asphalt\"", "access": null, "bicycle": null, "boundary": null, "bridge": null, "covered": null, "cycleway": null, "cycleway:left": null, "cycleway:right": null, "foot": null, "footway": null, "int_ref": null, "lane_markings": null, "lanes": null, "layer": null, "lit": "yes", "maxspeed": null, "nat_ref": null, "oneway": null, "operator": null, "operator:wikidata": null, "political_division": null, "ref": null, "sidewalk": null, "smoothness": null, "source:maxspeed": null, "surface": "asphalt", "toll": null, "turn:lanes": null, "was:name": null, "width": null, "zone:maxspeed": null, "osm_id_2": "132451779", "name_2": null, "highway_2": "residential", "waterway_2": null, "aerialway_2": null, "barrier_2": null, "man_made_2": null, "railway_2": null, "z_order_2": 3, "other_tags_2": "\"lit\"=>\"yes\"", "access_2": null, "bicycle_2": null, "boundary_2": null, "bridge_2": null, "covered_2": null, "cycleway_2": null, "cycleway:left_2": null, "cycleway:right_2": null, "foot_2": null, "footway_2": null, "int_ref_2": null, "lane_markings_2": null, "lanes_2": null, "layer_2": null, "lit_2": "yes", "maxspeed_2": null, "nat_ref_2": null, "oneway_2": null, "operator_2": null, "operator:wikidata_2": null, "political_division_2": null, "ref_2": null, "sidewalk_2": null, "smoothness_2": null, "source:maxspeed_2": null, "surface_2": null, "toll_2": null, "turn:lanes_2": null, "was:name_2": null, "width_2": null, "zone:maxspeed_2": null }, "geometry": { "type": "MultiPolygon", "coordinates": [ [ [ [ 2.478203213481733, 48.908358140220301 ], [ 2.478135437225963, 48.909076449418308 ], [ 2.479330283916739, 48.909143029804369 ], [ 2.479399125644566, 48.908413285490312 ], [ 2.478203213481733, 48.908358140220301 ] ] ] ] } },
{ "type": "Feature", "properties": { "osm_id": "132451205", "name": null, "highway": "residential", "waterway": null, "aerialway": null, "barrier": null, "man_made": null, "railway": null, "z_order": 3, "other_tags": "\"lit\"=>\"yes\"", "access": null, "bicycle": null, "boundary": null, "bridge": null, "covered": null, "cycleway": null, "cycleway:left": null, "cycleway:right": null, "foot": null, "footway": null, "int_ref": null, "lane_markings": null, "lanes": null, "layer": null, "lit": "yes", "maxspeed": null, "nat_ref": null, "oneway": null, "operator": null, "operator:wikidata": null, "political_division": null, "ref": null, "sidewalk": null, "smoothness": null, "source:maxspeed": null, "surface": null, "toll": null, "turn:lanes": null, "was:name": null, "width": null, "zone:maxspeed": null, "osm_id_2": "132451207", "name_2": null, "highway_2": "residential", "waterway_2": null, "aerialway_2": null, "barrier_2": null, "man_made_2": null, "railway_2": null, "z_order_2": 3, "other_tags_2": "\"lit\"=>\"yes\"", "access_2": null, "bicycle_2": null, "boundary_2": null, "bridge_2": null, "covered_2": null, "cycleway_2": null, "cycleway:left_2": null, "cycleway:right_2": null, "foot_2": null, "footway_2": null, "int_ref_2": null, "lane_markings_2": null, "lanes_2": null, "layer_2": null, "lit_2": "yes", "maxspeed_2": null, "nat_ref_2": null, "oneway_2": null, "operator_2": null, "operator:wikidata_2": null, "political_division_2": null, "ref_2": null, "sidewalk_2": null, "smoothness_2": null, "source:maxspeed_2": null, "surface_2": null, "toll_2": null, "turn:lanes_2": null, "was:name_2": null, "width_2": null, "zone:maxspeed_2": null }, "geometry": { "type": "MultiPolygon", "coordinates": [ [ [ [ 2.477524019161142, 48.910882291434561 ], [ 2.478009082053567, 48.910438081911366 ], [ 2.478138527785707, 48.909084963660412 ], [ 2.478135213062147, 48.909077498349163 ], [ 2.478065758678037, 48.909091883946253 ], [ 2.477461303507894, 48.90925101283311 ], [ 2.477357019788968, 48.910438956498282 ], [ 2.477524019161142, 48.910882291434561 ] ] ] ] } },
{ "type": "Feature", "properties": { "osm_id": "25415621", "name": "Rue François Martin", "highway": "residential", "waterway": null, "aerialway": null, "barrier": null, "man_made": null, "railway": null, "z_order": 3, "other_tags": "\"lit\"=>\"yes\",\"surface\"=>\"asphalt\"", "access": null, "bicycle": null, "boundary": null, "bridge": null, "covered": null, "cycleway": null, "cycleway:left": null, "cycleway:right": null, "foot": null, "footway": null, "int_ref": null, "lane_markings": null, "lanes": null, "layer": null, "lit": "yes", "maxspeed": null, "nat_ref": null, "oneway": null, "operator": null, "operator:wikidata": null, "political_division": null, "ref": null, "sidewalk": null, "smoothness": null, "source:maxspeed": null, "surface": "asphalt", "toll": null, "turn:lanes": null, "was:name": null, "width": null, "zone:maxspeed": null, "osm_id_2": "25415621", "name_2": "Rue François Martin", "highway_2": "residential", "waterway_2": null, "aerialway_2": null, "barrier_2": null, "man_made_2": null, "railway_2": null, "z_order_2": 3, "other_tags_2": "\"lit\"=>\"yes\",\"surface\"=>\"asphalt\"", "access_2": null, "bicycle_2": null, "boundary_2": null, "bridge_2": null, "covered_2": null, "cycleway_2": null, "cycleway:left_2": null, "cycleway:right_2": null, "foot_2": null, "footway_2": null, "int_ref_2": null, "lane_markings_2": null, "lanes_2": null, "layer_2": null, "lit_2": "yes", "maxspeed_2": null, "nat_ref_2": null, "oneway_2": null, "operator_2": null, "operator:wikidata_2": null, "political_division_2": null, "ref_2": null, "sidewalk_2": null, "smoothness_2": null, "source:maxspeed_2": null, "surface_2": "asphalt", "toll_2": null, "turn:lanes_2": null, "was:name_2": null, "width_2": null, "zone:maxspeed_2": null }, "geometry": { "type": "MultiPolygon", "coordinates": [ [ [ [ 2.477020076500605, 48.908303571709808 ], [ 2.476940331952676, 48.909019820413661 ], [ 2.478065758678037, 48.909091883946253 ], [ 2.478135213062147, 48.909077498349163 ], [ 2.478135437225963, 48.909076449418308 ], [ 2.478203213481733, 48.908358140220301 ], [ 2.477020076500605, 48.908303571709808 ] ] ] ] } },
{ "type": "Feature", "properties": { "osm_id": "132451207", "name": null, "highway": "residential", "waterway": null, "aerialway": null, "barrier": null, "man_made": null, "railway": null, "z_order": 3, "other_tags": "\"lit\"=>\"yes\"", "access": null, "bicycle": null, "boundary": null, "bridge": null, "covered": null, "cycleway": null, "cycleway:left": null, "cycleway:right": null, "foot": null, "footway": null, "int_ref": null, "lane_markings": null, "lanes": null, "layer": null, "lit": "yes", "maxspeed": null, "nat_ref": null, "oneway": null, "operator": null, "operator:wikidata": null, "political_division": null, "ref": null, "sidewalk": null, "smoothness": null, "source:maxspeed": null, "surface": null, "toll": null, "turn:lanes": null, "was:name": null, "width": null, "zone:maxspeed": null, "osm_id_2": "132451778", "name_2": null, "highway_2": "residential", "waterway_2": null, "aerialway_2": null, "barrier_2": null, "man_made_2": null, "railway_2": null, "z_order_2": 3, "other_tags_2": "\"lit\"=>\"yes\"", "access_2": null, "bicycle_2": null, "boundary_2": null, "bridge_2": null, "covered_2": null, "cycleway_2": null, "cycleway:left_2": null, "cycleway:right_2": null, "foot_2": null, "footway_2": null, "int_ref_2": null, "lane_markings_2": null, "lanes_2": null, "layer_2": null, "lit_2": "yes", "maxspeed_2": null, "nat_ref_2": null, "oneway_2": null, "operator_2": null, "operator:wikidata_2": null, "political_division_2": null, "ref_2": null, "sidewalk_2": null, "smoothness_2": null, "source:maxspeed_2": null, "surface_2": null, "toll_2": null, "turn:lanes_2": null, "was:name_2": null, "width_2": null, "zone:maxspeed_2": null }, "geometry": { "type": "MultiPolygon", "coordinates": [ [ [ [ 2.477461303507894, 48.90925101283311 ], [ 2.478065758678037, 48.909091883946253 ], [ 2.476940331952676, 48.909019820413661 ], [ 2.476936089447293, 48.909038182776101 ], [ 2.477461303507894, 48.90925101283311 ] ] ] ] } },
{ "type": "Feature", "properties": { "osm_id": "132451202", "name": null, "highway": "residential", "waterway": null, "aerialway": null, "barrier": null, "man_made": null, "railway": null, "z_order": 3, "other_tags": "\"lit\"=>\"yes\"", "access": null, "bicycle": null, "boundary": null, "bridge": null, "covered": null, "cycleway": null, "cycleway:left": null, "cycleway:right": null, "foot": null, "footway": null, "int_ref": null, "lane_markings": null, "lanes": null, "layer": null, "lit": "yes", "maxspeed": null, "nat_ref": null, "oneway": null, "operator": null, "operator:wikidata": null, "political_division": null, "ref": null, "sidewalk": null, "smoothness": null, "source:maxspeed": null, "surface": null, "toll": null, "turn:lanes": null, "was:name": null, "width": null, "zone:maxspeed": null, "osm_id_2": "132451202", "name_2": null, "highway_2": "residential", "waterway_2": null, "aerialway_2": null, "barrier_2": null, "man_made_2": null, "railway_2": null, "z_order_2": 3, "other_tags_2": "\"lit\"=>\"yes\"", "access_2": null, "bicycle_2": null, "boundary_2": null, "bridge_2": null, "covered_2": null, "cycleway_2": null, "cycleway:left_2": null, "cycleway:right_2": null, "foot_2": null, "footway_2": null, "int_ref_2": null, "lane_markings_2": null, "lanes_2": null, "layer_2": null, "lit_2": "yes", "maxspeed_2": null, "nat_ref_2": null, "oneway_2": null, "operator_2": null, "operator:wikidata_2": null, "political_division_2": null, "ref_2": null, "sidewalk_2": null, "smoothness_2": null, "source:maxspeed_2": null, "surface_2": null, "toll_2": null, "turn:lanes_2": null, "was:name_2": null, "width_2": null, "zone:maxspeed_2": null }, "geometry": { "type": "MultiPolygon", "coordinates": [ [ [ [ 2.478138527785707, 48.909084963660412 ], [ 2.478752455081407, 48.909301139333742 ], [ 2.479330613520637, 48.909151154661131 ], [ 2.479330283916739, 48.909143029804369 ], [ 2.478135437225963, 48.909076449418308 ], [ 2.478135213062147, 48.909077498349163 ], [ 2.478138527785707, 48.909084963660412 ] ] ] ] } },
{ "type": "Feature", "properties": { "osm_id": "132451202", "name": null, "highway": "residential", "waterway": null, "aerialway": null, "barrier": null, "man_made": null, "railway": null, "z_order": 3, "other_tags": "\"lit\"=>\"yes\"", "access": null, "bicycle": null, "boundary": null, "bridge": null, "covered": null, "cycleway": null, "cycleway:left": null, "cycleway:right": null, "foot": null, "footway": null, "int_ref": null, "lane_markings": null, "lanes": null, "layer": null, "lit": "yes", "maxspeed": null, "nat_ref": null, "oneway": null, "operator": null, "operator:wikidata": null, "political_division": null, "ref": null, "sidewalk": null, "smoothness": null, "source:maxspeed": null, "surface": null, "toll": null, "turn:lanes": null, "was:name": null, "width": null, "zone:maxspeed": null, "osm_id_2": "132451202", "name_2": null, "highway_2": "residential", "waterway_2": null, "aerialway_2": null, "barrier_2": null, "man_made_2": null, "railway_2": null, "z_order_2": 3, "other_tags_2": "\"lit\"=>\"yes\"", "access_2": null, "bicycle_2": null, "boundary_2": null, "bridge_2": null, "covered_2": null, "cycleway_2": null, "cycleway:left_2": null, "cycleway:right_2": null, "foot_2": null, "footway_2": null, "int_ref_2": null, "lane_markings_2": null, "lanes_2": null, "layer_2": null, "lit_2": "yes", "maxspeed_2": null, "nat_ref_2": null, "oneway_2": null, "operator_2": null, "operator:wikidata_2": null, "political_division_2": null, "ref_2": null, "sidewalk_2": null, "smoothness_2": null, "source:maxspeed_2": null, "surface_2": null, "toll_2": null, "turn:lanes_2": null, "was:name_2": null, "width_2": null, "zone:maxspeed_2": null }, "geometry": { "type": "MultiPolygon", "coordinates": [ [ [ [ 2.478694593981531, 48.910078553979154 ], [ 2.478752455081407, 48.909301139333742 ], [ 2.478138527785707, 48.909084963660412 ], [ 2.478009082053567, 48.910438081911366 ], [ 2.478694593981531, 48.910078553979154 ] ] ] ] } },
{ "type": "Feature", "properties": { "osm_id": "132451202", "name": null, "highway": "residential", "waterway": null, "aerialway": null, "barrier": null, "man_made": null, "railway": null, "z_order": 3, "other_tags": "\"lit\"=>\"yes\"", "access": null, "bicycle": null, "boundary": null, "bridge": null, "covered": null, "cycleway": null, "cycleway:left": null, "cycleway:right": null, "foot": null, "footway": null, "int_ref": null, "lane_markings": null, "lanes": null, "layer": null, "lit": "yes", "maxspeed": null, "nat_ref": null, "oneway": null, "operator": null, "operator:wikidata": null, "political_division": null, "ref": null, "sidewalk": null, "smoothness": null, "source:maxspeed": null, "surface": null, "toll": null, "turn:lanes": null, "was:name": null, "width": null, "zone:maxspeed": null, "osm_id_2": "132451202", "name_2": null, "highway_2": "residential", "waterway_2": null, "aerialway_2": null, "barrier_2": null, "man_made_2": null, "railway_2": null, "z_order_2": 3, "other_tags_2": "\"lit\"=>\"yes\"", "access_2": null, "bicycle_2": null, "boundary_2": null, "bridge_2": null, "covered_2": null, "cycleway_2": null, "cycleway:left_2": null, "cycleway:right_2": null, "foot_2": null, "footway_2": null, "int_ref_2": null, "lane_markings_2": null, "lanes_2": null, "layer_2": null, "lit_2": "yes", "maxspeed_2": null, "nat_ref_2": null, "oneway_2": null, "operator_2": null, "operator:wikidata_2": null, "political_division_2": null, "ref_2": null, "sidewalk_2": null, "smoothness_2": null, "source:maxspeed_2": null, "surface_2": null, "toll_2": null, "turn:lanes_2": null, "was:name_2": null, "width_2": null, "zone:maxspeed_2": null }, "geometry": { "type": "MultiPolygon", "coordinates": [ [ [ [ 2.478694593981531, 48.910078553979154 ], [ 2.479225881548736, 48.909888383066239 ], [ 2.479511103848204, 48.909511059075996 ], [ 2.479506774699702, 48.909411818997022 ], [ 2.479330613520637, 48.909151154661131 ], [ 2.478752455081407, 48.909301139333742 ], [ 2.478694593981531, 48.910078553979154 ] ] ] ] } },
{ "type": "Feature", "properties": { "osm_id": "25415621", "name": "Rue François Martin", "highway": "residential", "waterway": null, "aerialway": null, "barrier": null, "man_made": null, "railway": null, "z_order": 3, "other_tags": "\"lit\"=>\"yes\",\"surface\"=>\"asphalt\"", "access": null, "bicycle": null, "boundary": null, "bridge": null, "covered": null, "cycleway": null, "cycleway:left": null, "cycleway:right": null, "foot": null, "footway": null, "int_ref": null, "lane_markings": null, "lanes": null, "layer": null, "lit": "yes", "maxspeed": null, "nat_ref": null, "oneway": null, "operator": null, "operator:wikidata": null, "political_division": null, "ref": null, "sidewalk": null, "smoothness": null, "source:maxspeed": null, "surface": "asphalt", "toll": null, "turn:lanes": null, "was:name": null, "width": null, "zone:maxspeed": null, "osm_id_2": "132451208", "name_2": null, "highway_2": "residential", "waterway_2": null, "aerialway_2": null, "barrier_2": null, "man_made_2": null, "railway_2": null, "z_order_2": 3, "other_tags_2": "\"lit\"=>\"yes\",\"surface\"=>\"asphalt\"", "access_2": null, "bicycle_2": null, "boundary_2": null, "bridge_2": null, "covered_2": null, "cycleway_2": null, "cycleway:left_2": null, "cycleway:right_2": null, "foot_2": null, "footway_2": null, "int_ref_2": null, "lane_markings_2": null, "lanes_2": null, "layer_2": null, "lit_2": "yes", "maxspeed_2": null, "nat_ref_2": null, "oneway_2": null, "operator_2": null, "operator:wikidata_2": null, "political_division_2": null, "ref_2": null, "sidewalk_2": null, "smoothness_2": null, "source:maxspeed_2": null, "surface_2": "asphalt", "toll_2": null, "turn:lanes_2": null, "was:name_2": null, "width_2": null, "zone:maxspeed_2": null }, "geometry": { "type": "MultiPolygon", "coordinates": [ [ [ [ 2.479399125644566, 48.908413285490312 ], [ 2.479330283916739, 48.909143029804369 ], [ 2.479330613520637, 48.909151154661131 ], [ 2.479506774699702, 48.909411818997022 ], [ 2.479919337691001, 48.909278266962588 ], [ 2.479997530411459, 48.908440874114099 ], [ 2.479399125644566, 48.908413285490312 ] ] ] ] } },
{ "type": "Feature", "properties": { "osm_id": "132451201", "name": "Rue Henri Mouly", "highway": "residential", "waterway": null, "aerialway": null, "barrier": null, "man_made": null, "railway": null, "z_order": 3, "other_tags": "\"lit\"=>\"yes\",\"surface\"=>\"asphalt\"", "access": null, "bicycle": null, "boundary": null, "bridge": null, "covered": null, "cycleway": null, "cycleway:left": null, "cycleway:right": null, "foot": null, "footway": null, "int_ref": null, "lane_markings": null, "lanes": null, "layer": null, "lit": "yes", "maxspeed": null, "nat_ref": null, "oneway": null, "operator": null, "operator:wikidata": null, "political_division": null, "ref": null, "sidewalk": null, "smoothness": null, "source:maxspeed": null, "surface": "asphalt", "toll": null, "turn:lanes": null, "was:name": null, "width": null, "zone:maxspeed": null, "osm_id_2": "884293836", "name_2": "Rue Henri Mouly", "highway_2": "residential", "waterway_2": null, "aerialway_2": null, "barrier_2": null, "man_made_2": null, "railway_2": null, "z_order_2": 3, "other_tags_2": "\"lit\"=>\"yes\"", "access_2": null, "bicycle_2": null, "boundary_2": null, "bridge_2": null, "covered_2": null, "cycleway_2": null, "cycleway:left_2": null, "cycleway:right_2": null, "foot_2": null, "footway_2": null, "int_ref_2": null, "lane_markings_2": null, "lanes_2": null, "layer_2": null, "lit_2": "yes", "maxspeed_2": null, "nat_ref_2": null, "oneway_2": null, "operator_2": null, "operator:wikidata_2": null, "political_division_2": null, "ref_2": null, "sidewalk_2": null, "smoothness_2": null, "source:maxspeed_2": null, "surface_2": null, "toll_2": null, "turn:lanes_2": null, "was:name_2": null, "width_2": null, "zone:maxspeed_2": null }, "geometry": { "type": "MultiPolygon", "coordinates": [ [ [ [ 2.480038825278256, 48.909827754387862 ], [ 2.480061730981401, 48.909574742892516 ], [ 2.479511103848204, 48.909511059075996 ], [ 2.479225881548736, 48.909888383066239 ], [ 2.479661803267414, 48.909995146484668 ], [ 2.480038825278256, 48.909827754387862 ] ] ] ] } },
{ "type": "Feature", "properties": { "osm_id": "1455500555", "name": "Route d'Aulnay", "highway": "tertiary", "waterway": null, "aerialway": null, "barrier": null, "man_made": null, "railway": null, "z_order": 4, "other_tags": "\"surface\"=>\"asphalt\"", "access": null, "bicycle": null, "boundary": null, "bridge": null, "covered": null, "cycleway": null, "cycleway:left": null, "cycleway:right": null, "foot": null, "footway": null, "int_ref": null, "lane_markings": null, "lanes": null, "layer": null, "lit": null, "maxspeed": null, "nat_ref": null, "oneway": null, "operator": null, "operator:wikidata": null, "political_division": null, "ref": null, "sidewalk": null, "smoothness": null, "source:maxspeed": null, "surface": "asphalt", "toll": null, "turn:lanes": null, "was:name": null, "width": null, "zone:maxspeed": null, "osm_id_2": "1455500555", "name_2": "Route d'Aulnay", "highway_2": "tertiary", "waterway_2": null, "aerialway_2": null, "barrier_2": null, "man_made_2": null, "railway_2": null, "z_order_2": 4, "other_tags_2": "\"surface\"=>\"asphalt\"", "access_2": null, "bicycle_2": null, "boundary_2": null, "bridge_2": null, "covered_2": null, "cycleway_2": null, "cycleway:left_2": null, "cycleway:right_2": null, "foot_2": null, "footway_2": null, "int_ref_2": null, "lane_markings_2": null, "lanes_2": null, "layer_2": null, "lit_2": null, "maxspeed_2": null, "nat_ref_2": null, "oneway_2": null, "operator_2": null, "operator:wikidata_2": null, "political_division_2": null, "ref_2": null, "sidewalk_2": null, "smoothness_2": null, "source:maxspeed_2": null, "surface_2": "asphalt", "toll_2": null, "turn:lanes_2": null, "was:name_2": null, "width_2": null, "zone:maxspeed_2": null }, "geometry": { "type": "MultiPolygon", "coordinates": [ [ [ [ 2.480119552846677, 48.909868791393734 ], [ 2.481675996889909, 48.909732783630346 ], [ 2.480038825278256, 48.909827754387862 ], [ 2.479661803267414, 48.909995146484668 ], [ 2.479967760350168, 48.910132839762277 ], [ 2.480187360758006, 48.910105810144366 ], [ 2.480119552846677, 48.909868791393734 ] ] ] ] } },
{ "type": "Feature", "properties": { "osm_id": "25415621", "name": "Rue François Martin", "highway": "residential", "waterway": null, "aerialway": null, "barrier": null, "man_made": null, "railway": null, "z_order": 3, "other_tags": "\"lit\"=>\"yes\",\"surface\"=>\"asphalt\"", "access": null, "bicycle": null, "boundary": null, "bridge": null, "covered": null, "cycleway": null, "cycleway:left": null, "cycleway:right": null, "foot": null, "footway": null, "int_ref": null, "lane_markings": null, "lanes": null, "layer": null, "lit": "yes", "maxspeed": null, "nat_ref": null, "oneway": null, "operator": null, "operator:wikidata": null, "political_division": null, "ref": null, "sidewalk": null, "smoothness": null, "source:maxspeed": null, "surface": "asphalt", "toll": null, "turn:lanes": null, "was:name": null, "width": null, "zone:maxspeed": null, "osm_id_2": "884293837", "name_2": "Rue François Martin", "highway_2": "residential", "waterway_2": null, "aerialway_2": null, "barrier_2": null, "man_made_2": null, "railway_2": null, "z_order_2": 3, "other_tags_2": "\"lit\"=>\"yes\"", "access_2": null, "bicycle_2": null, "boundary_2": null, "bridge_2": null, "covered_2": null, "cycleway_2": null, "cycleway:left_2": null, "cycleway:right_2": null, "foot_2": null, "footway_2": null, "int_ref_2": null, "lane_markings_2": null, "lanes_2": null, "layer_2": null, "lit_2": "yes", "maxspeed_2": null, "nat_ref_2": null, "oneway_2": null, "operator_2": null, "operator:wikidata_2": null, "political_division_2": null, "ref_2": null, "sidewalk_2": null, "smoothness_2": null, "source:maxspeed_2": null, "surface_2": null, "toll_2": null, "turn:lanes_2": null, "was:name_2": null, "width_2": null, "zone:maxspeed_2": null }, "geometry": { "type": "MultiPolygon", "coordinates": [ [ [ [ 2.479997530411459, 48.908440874114099 ], [ 2.479919337691001, 48.909278266962588 ], [ 2.480028130524036, 48.909257927117253 ], [ 2.480104683170592, 48.908445813912806 ], [ 2.479997530411459, 48.908440874114099 ] ] ] ] } },
{ "type": "Feature", "properties": { "osm_id": "1455500555", "name": "Route d'Aulnay", "highway": "tertiary", "waterway": null, "aerialway": null, "barrier": null, "man_made": null, "railway": null, "z_order": 4, "other_tags": "\"surface\"=>\"asphalt\"", "access": null, "bicycle": null, "boundary": null, "bridge": null, "covered": null, "cycleway": null, "cycleway:left": null, "cycleway:right": null, "foot": null, "footway": null, "int_ref": null, "lane_markings": null, "lanes": null, "layer": null, "lit": null, "maxspeed": null, "nat_ref": null, "oneway": null, "operator": null, "operator:wikidata": null, "political_division": null, "ref": null, "sidewalk": null, "smoothness": null, "source:maxspeed": null, "surface": "asphalt", "toll": null, "turn:lanes": null, "was:name": null, "width": null, "zone:maxspeed": null, "osm_id_2": "1455500555", "name_2": "Route d'Aulnay", "highway_2": "tertiary", "waterway_2": null, "aerialway_2": null, "barrier_2": null, "man_made_2": null, "railway_2": null, "z_order_2": 4, "other_tags_2": "\"surface\"=>\"asphalt\"", "access_2": null, "bicycle_2": null, "boundary_2": null, "bridge_2": null, "covered_2": null, "cycleway_2": null, "cycleway:left_2": null, "cycleway:right_2": null, "foot_2": null, "footway_2": null, "int_ref_2": null, "lane_markings_2": null, "lanes_2": null, "layer_2": null, "lit_2": null, "maxspeed_2": null, "nat_ref_2": null, "oneway_2": null, "operator_2": null, "operator:wikidata_2": null, "political_division_2": null, "ref_2": null, "sidewalk_2": null, "smoothness_2": null, "source:maxspeed_2": null, "surface_2": "asphalt", "toll_2": null, "turn:lanes_2": null, "was:name_2": null, "width_2": null, "zone:maxspeed_2": null }, "geometry": { "type": "MultiPolygon", "coordinates": [ [ [ [ 2.483074031245709, 48.909353653949552 ], [ 2.481055663834946, 48.909290229555666 ], [ 2.480090431987673, 48.909369555143265 ], [ 2.480100438409218, 48.909260200552161 ], [ 2.480028130524036, 48.909257927117253 ], [ 2.479919337691001, 48.909278266962588 ], [ 2.479506774699702, 48.909411818997022 ], [ 2.479511103848204, 48.909511059075996 ], [ 2.480061730981401, 48.909574742892516 ], [ 2.483059389804672, 48.909520218260297 ], [ 2.483074031245709, 48.909353653949552 ] ] ] ] } },
{ "type": "Feature", "properties": { "osm_id": "884293836", "name": "Rue Henri Mouly", "highway": "residential", "waterway": null, "aerialway": null, "barrier": null, "man_made": null, "railway": null, "z_order": 3, "other_tags": "\"lit\"=>\"yes\"", "access": null, "bicycle": null, "boundary": null, "bridge": null, "covered": null, "cycleway": null, "cycleway:left": null, "cycleway:right": null, "foot": null, "footway": null, "int_ref": null, "lane_markings": null, "lanes": null, "layer": null, "lit": "yes", "maxspeed": null, "nat_ref": null, "oneway": null, "operator": null, "operator:wikidata": null, "political_division": null, "ref": null, "sidewalk": null, "smoothness": null, "source:maxspeed": null, "surface": null, "toll": null, "turn:lanes": null, "was:name": null, "width": null, "zone:maxspeed": null, "osm_id_2": "1455500555", "name_2": "Route d'Aulnay", "highway_2": "tertiary", "waterway_2": null, "aerialway_2": null, "barrier_2": null, "man_made_2": null, "railway_2": null, "z_order_2": 4, "other_tags_2": "\"surface\"=>\"asphalt\"", "access_2": null, "bicycle_2": null, "boundary_2": null, "bridge_2": null, "covered_2": null, "cycleway_2": null, "cycleway:left_2": null, "cycleway:right_2": null, "foot_2": null, "footway_2": null, "int_ref_2": null, "lane_markings_2": null, "lanes_2": null, "layer_2": null, "lit_2": null, "maxspeed_2": null, "nat_ref_2": null, "oneway_2": null, "operator_2": null, "operator:wikidata_2": null, "political_division_2": null, "ref_2": null, "sidewalk_2": null, "smoothness_2": null, "source:maxspeed_2": null, "surface_2": "asphalt", "toll_2": null, "turn:lanes_2": null, "was:name_2": null, "width_2": null, "zone:maxspeed_2": null }, "geometry": { "type": "MultiPolygon", "coordinates": [ [ [ [ 2.483051270119416, 48.909612589137382 ], [ 2.483059389804672, 48.909520218260297 ], [ 2.480061730981401, 48.909574742892516 ], [ 2.480038825278256, 48.909827754387862 ], [ 2.481675996889909, 48.909732783630346 ], [ 2.483051270119416, 48.909612589137382 ] ] ] ] } },
{ "type": "Feature", "properties": { "osm_id": "25415880", "name": "Rue Paul Renaud", "highway": "residential", "waterway": null, "aerialway": null, "barrier": null, "man_made": null, "railway": null, "z_order": 3, "other_tags": "\"lanes\"=>\"1\",\"lit\"=>\"yes\",\"maxspeed\"=>\"50\",\"oneway\"=>\"yes\",\"sidewalk\"=>\"both\",\"smoothness\"=>\"good\",\"source:maxspeed\"=>\"FR:urban\",\"surface\"=>\"asphalt\"", "access": null, "bicycle": null, "boundary": null, "bridge": null, "covered": null, "cycleway": null, "cycleway:left": null, "cycleway:right": null, "foot": null, "footway": null, "int_ref": null, "lane_markings": null, "lanes": "1", "layer": null, "lit": "yes", "maxspeed": "50", "nat_ref": null, "oneway": "yes", "operator": null, "operator:wikidata": null, "political_division": null, "ref": null, "sidewalk": "both", "smoothness": "good", "source:maxspeed": "FR:urban", "surface": "asphalt", "toll": null, "turn:lanes": null, "was:name": null, "width": null, "zone:maxspeed": null, "osm_id_2": "1455500555", "name_2": "Route d'Aulnay", "highway_2": "tertiary", "waterway_2": null, "aerialway_2": null, "barrier_2": null, "man_made_2": null, "railway_2": null, "z_order_2": 4, "other_tags_2": "\"surface\"=>\"asphalt\"", "access_2": null, "bicycle_2": null, "boundary_2": null, "bridge_2": null, "covered_2": null, "cycleway_2": null, "cycleway:left_2": null, "cycleway:right_2": null, "foot_2": null, "footway_2": null, "int_ref_2": null, "lane_markings_2": null, "lanes_2": null, "layer_2": null, "lit_2": null, "maxspeed_2": null, "nat_ref_2": null, "oneway_2": null, "operator_2": null, "operator:wikidata_2": null, "political_division_2": null, "ref_2": null, "sidewalk_2": null, "smoothness_2": null, "source:maxspeed_2": null, "surface_2": "asphalt", "toll_2": null, "turn:lanes_2": null, "was:name_2": null, "width_2": null, "zone:maxspeed_2": null }, "geometry": { "type": "MultiPolygon", "coordinates": [ [ [ [ 2.481142490877712, 48.912224884975217 ], [ 2.481447547895721, 48.912144370004221 ], [ 2.480254018907822, 48.910338807734149 ], [ 2.480187360758006, 48.910105810144366 ], [ 2.479967760350168, 48.910132839762277 ], [ 2.479858122617349, 48.912380293218682 ], [ 2.481142490877712, 48.912224884975217 ] ] ] ] } },
{ "type": "Feature", "properties": { "osm_id": "884293837", "name": "Rue François Martin", "highway": "residential", "waterway": null, "aerialway": null, "barrier": null, "man_made": null, "railway": null, "z_order": 3, "other_tags": "\"lit\"=>\"yes\"", "access": null, "bicycle": null, "boundary": null, "bridge": null, "covered": null, "cycleway": null, "cycleway:left": null, "cycleway:right": null, "foot": null, "footway": null, "int_ref": null, "lane_markings": null, "lanes": null, "layer": null, "lit": "yes", "maxspeed": null, "nat_ref": null, "oneway": null, "operator": null, "operator:wikidata": null, "political_division": null, "ref": null, "sidewalk": null, "smoothness": null, "source:maxspeed": null, "surface": null, "toll": null, "turn:lanes": null, "was:name": null, "width": null, "zone:maxspeed": null, "osm_id_2": "1455500555", "name_2": "Route d'Aulnay", "highway_2": "tertiary", "waterway_2": null, "aerialway_2": null, "barrier_2": null, "man_made_2": null, "railway_2": null, "z_order_2": 4, "other_tags_2": "\"surface\"=>\"asphalt\"", "access_2": null, "bicycle_2": null, "boundary_2": null, "bridge_2": null, "covered_2": null, "cycleway_2": null, "cycleway:left_2": null, "cycleway:right_2": null, "foot_2": null, "footway_2": null, "int_ref_2": null, "lane_markings_2": null, "lanes_2": null, "layer_2": null, "lit_2": null, "maxspeed_2": null, "nat_ref_2": null, "oneway_2": null, "operator_2": null, "operator:wikidata_2": null, "political_division_2": null, "ref_2": null, "sidewalk_2": null, "smoothness_2": null, "source:maxspeed_2": null, "surface_2": "asphalt", "toll_2": null, "turn:lanes_2": null, "was:name_2": null, "width_2": null, "zone:maxspeed_2": null }, "geometry": { "type": "MultiPolygon", "coordinates": [ [ [ [ 2.483094336227072, 48.909122658093359 ], [ 2.481055663834946, 48.909290229555666 ], [ 2.483074031245709, 48.909353653949552 ], [ 2.483094336227072, 48.909122658093359 ] ] ], [ [ [ 2.480174661770657, 48.908449039908923 ], [ 2.480104683170592, 48.908445813912806 ], [ 2.480028130524036, 48.909257927117253 ], [ 2.480100438409218, 48.909260200552161 ], [ 2.480174661770657, 48.908449039908923 ] ] ] ] } }
]
}
