{
"type": "FeatureCollection",
"name": "inner_crossings",
"crs": { "type": "name", "properties": { "name": "urn:ogc:def:crs:OGC:1.3:CRS84" } },
"xy_coordinate_resolution": 1e-15,
"features": [
{ "type": "Feature", "properties": { "osm_id": "132451207", "name": null, "highway": "residential", "waterway": null, "aerialway": null, "barrier": null, "man_made": null, "railway": null, "z_order": 3, "other_tags": "\"lit\"=>\"yes\"", "access": null, "bicycle": null, "boundary": null, "bridge": null, "covered": null, "cycleway": null, "cycleway:left": null, "cycleway:right": null, "foot": null, "footway": null, "int_ref": null, "lane_markings": null, "lanes": null, "layer": null, "lit": "yes", "maxspeed": null, "nat_ref": null, "oneway": null, "operator": null, "operator:wikidata": null, "political_division": null, "ref": null, "sidewalk": null, "smoothness": null, "source:maxspeed": null, "surface": null, "toll": null, "turn:lanes": null, "was:name": null, "width": null, "zone:maxspeed": null, "osm_id_2": "132451778", "name_2": null, "highway_2": "residential", "waterway_2": null, "aerialway_2": null, "barrier_2": null, "man_made_2": null, "railway_2": null, "z_order_2": 3, "other_tags_2": "\"lit\"=>\"yes\"", "access_2": null, "bicycle_2": null, "boundary_2": null, "bridge_2": null, "covered_2": null, "cycleway_2": null, "cycleway:left_2": null, "cycleway:right_2": null, "foot_2": null, "footway_2": null, "int_ref_2": null, "lane_markings_2": null, "lanes_2": null, "layer_2": null, "lit_2": "yes", "maxspeed_2": null, "nat_ref_2": null, "oneway_2": null, "operator_2": null, "operator:wikidata_2": null, "political_division_2": null, "ref_2": null, "sidewalk_2": null, "smoothness_2": null, "source:maxspeed_2": null, "surface_2": null, "toll_2": null, "turn:lanes_2": null, "was:name_2": null, "width_2": null, "zone:maxspeed_2": null }, "geometry": { "type": "Point", "coordinates": [ 2.4774902, 48.9090838 ] } },
{ "type": "Feature", "properties": { "osm_id": "1455500555", "name": "Route d'Aulnay", "highway": "tertiary", "waterway": null, "aerialway": null, "barrier": null, "man_made": null, "railway": null, "z_order": 4, "other_tags": "\"surface\"=>\"asphalt\"", "access": null, "bicycle": null, "boundary": null, "bridge": null, "covered": null, "cycleway": null, "cycleway:left": null, "cycleway:right": null, "foot": null, "footway": null, "int_ref": null, "lane_markings": null, "lanes": null, "layer": null, "lit": null, "maxspeed": null, "nat_ref": null, "oneway": null, "operator": null, "operator:wikidata": null, "political_division": null, "ref": null, "sidewalk": null, "smoothness": null, "source:maxspeed": null, "surface": "asphalt", "toll": null, "turn:lanes": null, "was:name": null, "width": null, "zone:maxspeed": null, "osm_id_2": "1455500555", "name_2": "Route d'Aulnay", "highway_2": "tertiary", "waterway_2": null, "aerialway_2": null, "barrier_2": null, "man_made_2": null, "railway_2": null, "z_order_2": 4, "other_tags_2": "\"surface\"=>\"asphalt\"", "access_2": null, "bicycle_2": null, "boundary_2": null, "bridge_2": null, "covered_2": null, "cycleway_2": null, "cycleway:left_2": null, "cycleway:right_2": null, "foot_2": null, "footway_2": null, "int_ref_2": null, "lane_markings_2": null, "lanes_2": null, "layer_2": null, "lit_2": null, "maxspeed_2": null, "nat_ref_2": null, "oneway_2": null, "operator_2": null, "operator:wikidata_2": null, "political_division_2": null, "ref_2": null, "sidewalk_2": null, "smoothness_2": null, "source:maxspeed_2": null, "surface_2": "asphalt", "toll_2": null, "turn:lanes_2": null, "was:name_2": null, "width_2": null, "zone:maxspeed_2": null }, "geometry": { "type": "Point", "coordinates": [ 2.4801187, 48.9098854 ] } },
{ "type": "Feature", "properties": { "osm_id": "25415621", "name": "Rue François Martin", "highway": "residential", "waterway": null, "aerialway": null, "barrier": null, "man_made": null, "railway": null, "z_order": 3, "other_tags": "\"lit\"=>\"yes\",\"surface\"=>\"asphalt\"", "access": null, "bicycle": null, "boundary": null, "bridge": null, "covered": null, "cycleway": null, "cycleway:left": null, "cycleway:right": null, "foot": null, "footway": null, "int_ref": null, "lane_markings": null, "lanes": null, "layer": null, "lit": "yes", "maxspeed": null, "nat_ref": null, "oneway": null, "operator": null, "operator:wikidata": null, "political_division": null, "ref": null, "sidewalk": null, "smoothness": null, "source:maxspeed": null, "surface": "asphalt", "toll": null, "turn:lanes": null, "was:name": null, "width": null, "zone:maxspeed": null, "osm_id_2": "25415621", "name_2": "Rue François Martin", "highway_2": "residential", "waterway_2": null, "aerialway_2": null, "barrier_2": null, "man_made_2": null, "railway_2": null, "z_order_2": 3, "other_tags_2": "\"lit\"=>\"yes\",\"surface\"=>\"asphalt\"", "access_2": null, "bicycle_2": null, "boundary_2": null, "bridge_2": null, "covered_2": null, "cycleway_2": null, "cycleway:left_2": null, "cycleway:right_2": null, "foot_2": null, "footway_2": null, "int_ref_2": null, "lane_markings_2": null, "lanes_2": null, "layer_2": null, "lit_2": "yes", "maxspeed_2": null, "nat_ref_2": null, "oneway_2": null, "operator_2": null, "operator:wikidata_2": null, "political_division_2": null, "ref_2": null, "sidewalk_2": null, "smoothness_2": null, "source:maxspeed_2": null, "surface_2": "asphalt", "toll_2": null, "turn:lanes_2": null, "was:name_2": null, "width_2": null, "zone:maxspeed_2": null }, "geometry": { "type": "Point", "coordinates": [ 2.4774986, 48.9090268 ] } },
{ "type": "Feature", "properties": { "osm_id": "132451201", "name": "Rue Henri Mouly", "highway": "residential", "waterway": null, "aerialway": null, "barrier": null, "man_made": null, "railway": null, "z_order": 3, "other_tags": "\"lit\"=>\"yes\",\"surface\"=>\"asphalt\"", "access": null, "bicycle": null, "boundary": null, "bridge": null, "covered": null, "cycleway": null, "cycleway:left": null, "cycleway:right": null, "foot": null, "footway": null, "int_ref": null, "lane_markings": null, "lanes": null, "layer": null, "lit": "yes", "maxspeed": null, "nat_ref": null, "oneway": null, "operator": null, "operator:wikidata": null, "political_division": null, "ref": null, "sidewalk": null, "smoothness": null, "source:maxspeed": null, "surface": "asphalt", "toll": null, "turn:lanes": null, "was:name": null, "width": null, "zone:maxspeed": null, "osm_id_2": "884293836", "name_2": "Rue Henri Mouly", "highway_2": "residential", "waterway_2": null, "aerialway_2": null, "barrier_2": null, "man_made_2": null, "railway_2": null, "z_order_2": 3, "other_tags_2": "\"lit\"=>\"yes\"", "access_2": null, "bicycle_2": null, "boundary_2": null, "bridge_2": null, "covered_2": null, "cycleway_2": null, "cycleway:left_2": null, "cycleway:right_2": null, "foot_2": null, "footway_2": null, "int_ref_2": null, "lane_markings_2": null, "lanes_2": null, "layer_2": null, "lit_2": "yes", "maxspeed_2": null, "nat_ref_2": null, "oneway_2": null, "operator_2": null, "operator:wikidata_2": null, "political_division_2": null, "ref_2": null, "sidewalk_2": null, "smoothness_2": null, "source:maxspeed_2": null, "surface_2": null, "toll_2": null, "turn:lanes_2": null, "was:name_2": null, "width_2": null, "zone:maxspeed_2": null }, "geometry": { "type": "Point", "coordinates": [ 2.4799878, 48.9097573 ] } },
{ "type": "Feature", "properties": { "osm_id": "25415621", "name": "Rue François Martin", "highway": "residential", "waterway": null, "aerialway": null, "barrier": null, "man_made": null, "railway": null, "z_order": 3, "other_tags": "\"lit\"=>\"yes\",\"surface\"=>\"asphalt\"", "access": null, "bicycle": null, "boundary": null, "bridge": null, "covered": null, "cycleway": null, "cycleway:left": null, "cycleway:right": null, "foot": null, "footway": null, "int_ref": null, "lane_markings": null, "lanes": null, "layer": null, "lit": "yes", "maxspeed": null, "nat_ref": null, "oneway": null, "operator": null, "operator:wikidata": null, "political_division": null, "ref": null, "sidewalk": null, "smoothness": null, "source:maxspeed": null, "surface": "asphalt", "toll": null, "turn:lanes": null, "was:name": null, "width": null, "zone:maxspeed": null, "osm_id_2": "25415621", "name_2": "Rue François Martin", "highway_2": "residential", "waterway_2": null, "aerialway_2": null, "barrier_2": null, "man_made_2": null, "railway_2": null, "z_order_2": 3, "other_tags_2": "\"lit\"=>\"yes\",\"surface\"=>\"asphalt\"", "access_2": null, "bicycle_2": null, "boundary_2": null, "bridge_2": null, "covered_2": null, "cycleway_2": null, "cycleway:left_2": null, "cycleway:right_2": null, "foot_2": null, "footway_2": null, "int_ref_2": null, "lane_markings_2": null, "lanes_2": null, "layer_2": null, "lit_2": "yes", "maxspeed_2": null, "nat_ref_2": null, "oneway_2": null, "operator_2": null, "operator:wikidata_2": null, "political_division_2": null, "ref_2": null, "sidewalk_2": null, "smoothness_2": null, "source:maxspeed_2": null, "surface_2": "asphalt", "toll_2": null, "turn:lanes_2": null, "was:name_2": null, "width_2": null, "zone:maxspeed_2": null }, "geometry": { "type": "Point", "coordinates": [ 2.4763865, 48.908973 ] } },
{ "type": "Feature", "properties": { "osm_id": "25415621", "name": "Rue François Martin", "highway": "residential", "waterway": null, "aerialway": null, "barrier": null, "man_made": null, "railway": null, "z_order": 3, "other_tags": "\"lit\"=>\"yes\",\"surface\"=>\"asphalt\"", "access": null, "bicycle": null, "boundary": null, "bridge": null, "covered": null, "cycleway": null, "cycleway:left": null, "cycleway:right": null, "foot": null, "footway": null, "int_ref": null, "lane_markings": null, "lanes": null, "layer": null, "lit": "yes", "maxspeed": null, "nat_ref": null, "oneway": null, "operator": null, "operator:wikidata": null, "political_division": null, "ref": null, "sidewalk": null, "smoothness": null, "source:maxspeed": null, "surface": "asphalt", "toll": null, "turn:lanes": null, "was:name": null, "width": null, "zone:maxspeed": null, "osm_id_2": "25415621", "name_2": "Rue François Martin", "highway_2": "residential", "waterway_2": null, "aerialway_2": null, "barrier_2": null, "man_made_2": null, "railway_2": null, "z_order_2": 3, "other_tags_2": "\"lit\"=>\"yes\",\"surface\"=>\"asphalt\"", "access_2": null, "bicycle_2": null, "boundary_2": null, "bridge_2": null, "covered_2": null, "cycleway_2": null, "cycleway:left_2": null, "cycleway:right_2": null, "foot_2": null, "footway_2": null, "int_ref_2": null, "lane_markings_2": null, "lanes_2": null, "layer_2": null, "lit_2": "yes", "maxspeed_2": null, "nat_ref_2": null, "oneway_2": null, "operator_2": null, "operator:wikidata_2": null, "political_division_2": null, "ref_2": null, "sidewalk_2": null, "smoothness_2": null, "source:maxspeed_2": null, "surface_2": "asphalt", "toll_2": null, "turn:lanes_2": null, "was:name_2": null, "width_2": null, "zone:maxspeed_2": null }, "geometry": { "type": "Point", "coordinates": [ 2.4758997, 48.908952 ] } },
{ "type": "Feature", "properties": { "osm_id": "132451201", "name": "Rue Henri Mouly", "highway": "residential", "waterway": null, "aerialway": null, "barrier": null, "man_made": null, "railway": null, "z_order": 3, "other_tags": "\"lit\"=>\"yes\",\"surface\"=>\"asphalt\"", "access": null, "bicycle": null, "boundary": null, "bridge": null, "covered": null, "cycleway": null, "cycleway:left": null, "cycleway:right": null, "foot": null, "footway": null, "int_ref": null, "lane_markings": null, "lanes": null, "layer": null, "lit": "yes", "maxspeed": null, "nat_ref": null, "oneway": null, "operator": null, "operator:wikidata": null, "political_division": null, "ref": null, "sidewalk": null, "smoothness": null, "source:maxspeed": null, "surface": "asphalt", "toll": null, "turn:lanes": null, "was:name": null, "width": null, "zone:maxspeed": null, "osm_id_2": "132451201", "name_2": "Rue Henri Mouly", "highway_2": "residential", "waterway_2": null, "aerialway_2": null, "barrier_2": null, "man_made_2": null, "railway_2": null, "z_order_2": 3, "other_tags_2": "\"lit\"=>\"yes\",\"surface\"=>\"asphalt\"", "access_2": null, "bicycle_2": null, "boundary_2": null, "bridge_2": null, "covered_2": null, "cycleway_2": null, "cycleway:left_2": null, "cycleway:right_2": null, "foot_2": null, "footway_2": null, "int_ref_2": null, "lane_markings_2": null, "lanes_2": null, "layer_2": null, "lit_2": "yes", "maxspeed_2": null, "nat_ref_2": null, "oneway_2": null, "operator_2": null, "operator:wikidata_2": null, "political_division_2": null, "ref_2": null, "sidewalk_2": null, "smoothness_2": null, "source:maxspeed_2": null, "surface_2": "asphalt", "toll_2": null, "turn:lanes_2": null, "was:name_2": null, "width_2": null, "zone:maxspeed_2": null }, "geometry": { "type": "Point", "coordinates": [ 2.4760368, 48.9095679 ] } },
{ "type": "Feature", "properties": { "osm_id": "25415621", "name": "Rue François Martin", "highway": "residential", "waterway": null, "aerialway": null, "barrier": null, "man_made": null, "railway": null, "z_order": 3, "other_tags": "\"lit\"=>\"yes\",\"surface\"=>\"asphalt\"", "access": null, "bicycle": null, "boundary": null, "bridge": null, "covered": null, "cycleway": null, "cycleway:left": null, "cycleway:right": null, "foot": null, "footway": null, "int_ref": null, "lane_markings": null, "lanes": null, "layer": null, "lit": "yes", "maxspeed": null, "nat_ref": null, "oneway": null, "operator": null, "operator:wikidata": null, "political_division": null, "ref": null, "sidewalk": null, "smoothness": null, "source:maxspeed": null, "surface": "asphalt", "toll": null, "turn:lanes": null, "was:name": null, "width": null, "zone:maxspeed": null, "osm_id_2": "25415621", "name_2": "Rue François Martin", "highway_2": "residential", "waterway_2": null, "aerialway_2": null, "barrier_2": null, "man_made_2": null, "railway_2": null, "z_order_2": 3, "other_tags_2": "\"lit\"=>\"yes\",\"surface\"=>\"asphalt\"", "access_2": null, "bicycle_2": null, "boundary_2": null, "bridge_2": null, "covered_2": null, "cycleway_2": null, "cycleway:left_2": null, "cycleway:right_2": null, "foot_2": null, "footway_2": null, "int_ref_2": null, "lane_markings_2": null, "lanes_2": null, "layer_2": null, "lit_2": "yes", "maxspeed_2": null, "nat_ref_2": null, "oneway_2": null, "operator_2": null, "operator:wikidata_2": null, "political_division_2": null, "ref_2": null, "sidewalk_2": null, "smoothness_2": null, "source:maxspeed_2": null, "surface_2": "asphalt", "toll_2": null, "turn:lanes_2": null, "was:name_2": null, "width_2": null, "zone:maxspeed_2": null }, "geometry": { "type": "Point", "coordinates": [ 2.4761939, 48.9089638 ] } },
{ "type": "Feature", "properties": { "osm_id": "132451202", "name": null, "highway": "residential", "waterway": null, "aerialway": null, "barrier": null, "man_made": null, "railway": null, "z_order": 3, "other_tags": "\"lit\"=>\"yes\"", "access": null, "bicycle": null, "boundary": null, "bridge": null, "covered": null, "cycleway": null, "cycleway:left": null, "cycleway:right": null, "foot": null, "footway": null, "int_ref": null, "lane_markings": null, "lanes": null, "layer": null, "lit": "yes", "maxspeed": null, "nat_ref": null, "oneway": null, "operator": null, "operator:wikidata": null, "political_division": null, "ref": null, "sidewalk": null, "smoothness": null, "source:maxspeed": null, "surface": null, "toll": null, "turn:lanes": null, "was:name": null, "width": null, "zone:maxspeed": null, "osm_id_2": "132451202", "name_2": null, "highway_2": "residential", "waterway_2": null, "aerialway_2": null, "barrier_2": null, "man_made_2": null, "railway_2": null, "z_order_2": 3, "other_tags_2": "\"lit\"=>\"yes\"", "access_2": null, "bicycle_2": null, "boundary_2": null, "bridge_2": null, "covered_2": null, "cycleway_2": null, "cycleway:left_2": null, "cycleway:right_2": null, "foot_2": null, "footway_2": null, "int_ref_2": null, "lane_markings_2": null, "lanes_2": null, "layer_2": null, "lit_2": "yes", "maxspeed_2": null, "nat_ref_2": null, "oneway_2": null, "operator_2": null, "operator:wikidata_2": null, "political_division_2": null, "ref_2": null, "sidewalk_2": null, "smoothness_2": null, "source:maxspeed_2": null, "surface_2": null, "toll_2": null, "turn:lanes_2": null, "was:name_2": null, "width_2": null, "zone:maxspeed_2": null }, "geometry": { "type": "Point", "coordinates": [ 2.478564, 48.909396799999989 ] } },
{ "type": "Feature", "properties": { "osm_id": "25415621", "name": "Rue François Martin", "highway": "residential", "waterway": null, "aerialway": null, "barrier": null, "man_made": null, "railway": null, "z_order": 3, "other_tags": "\"lit\"=>\"yes\",\"surface\"=>\"asphalt\"", "access": null, "bicycle": null, "boundary": null, "bridge": null, "covered": null, "cycleway": null, "cycleway:left": null, "cycleway:right": null, "foot": null, "footway": null, "int_ref": null, "lane_markings": null, "lanes": null, "layer": null, "lit": "yes", "maxspeed": null, "nat_ref": null, "oneway": null, "operator": null, "operator:wikidata": null, "political_division": null, "ref": null, "sidewalk": null, "smoothness": null, "source:maxspeed": null, "surface": "asphalt", "toll": null, "turn:lanes": null, "was:name": null, "width": null, "zone:maxspeed": null, "osm_id_2": "25415621", "name_2": "Rue François Martin", "highway_2": "residential", "waterway_2": null, "aerialway_2": null, "barrier_2": null, "man_made_2": null, "railway_2": null, "z_order_2": 3, "other_tags_2": "\"lit\"=>\"yes\",\"surface\"=>\"asphalt\"", "access_2": null, "bicycle_2": null, "boundary_2": null, "bridge_2": null, "covered_2": null, "cycleway_2": null, "cycleway:left_2": null, "cycleway:right_2": null, "foot_2": null, "footway_2": null, "int_ref_2": null, "lane_markings_2": null, "lanes_2": null, "layer_2": null, "lit_2": "yes", "maxspeed_2": null, "nat_ref_2": null, "oneway_2": null, "operator_2": null, "operator:wikidata_2": null, "political_division_2": null, "ref_2": null, "sidewalk_2": null, "smoothness_2": null, "source:maxspeed_2": null, "surface_2": "asphalt", "toll_2": null, "turn:lanes_2": null, "was:name_2": null, "width_2": null, "zone:maxspeed_2": null }, "geometry": { "type": "Point", "coordinates": [ 2.4750723, 48.9089124 ] } },
{ "type": "Feature", "properties": { "osm_id": "1455500555", "name": "Route d'Aulnay", "highway": "tertiary", "waterway": null, "aerialway": null, "barrier": null, "man_made": null, "railway": null, "z_order": 4, "other_tags": "\"surface\"=>\"asphalt\"", "access": null, "bicycle": null, "boundary": null, "bridge": null, "covered": null, "cycleway": null, "cycleway:left": null, "cycleway:right": null, "foot": null, "footway": null, "int_ref": null, "lane_markings": null, "lanes": null, "layer": null, "lit": null, "maxspeed": null, "nat_ref": null, "oneway": null, "operator": null, "operator:wikidata": null, "political_division": null, "ref": null, "sidewalk": null, "smoothness": null, "source:maxspeed": null, "surface": "asphalt", "toll": null, "turn:lanes": null, "was:name": null, "width": null, "zone:maxspeed": null, "osm_id_2": "1455500555", "name_2": "Route d'Aulnay", "highway_2": "tertiary", "waterway_2": null, "aerialway_2": null, "barrier_2": null, "man_made_2": null, "railway_2": null, "z_order_2": 4, "other_tags_2": "\"surface\"=>\"asphalt\"", "access_2": null, "bicycle_2": null, "boundary_2": null, "bridge_2": null, "covered_2": null, "cycleway_2": null, "cycleway:left_2": null, "cycleway:right_2": null, "foot_2": null, "footway_2": null, "int_ref_2": null, "lane_markings_2": null, "lanes_2": null, "layer_2": null, "lit_2": null, "maxspeed_2": null, "nat_ref_2": null, "oneway_2": null, "operator_2": null, "operator:wikidata_2": null, "political_division_2": null, "ref_2": null, "sidewalk_2": null, "smoothness_2": null, "source:maxspeed_2": null, "surface_2": "asphalt", "toll_2": null, "turn:lanes_2": null, "was:name_2": null, "width_2": null, "zone:maxspeed_2": null }, "geometry": { "type": "Point", "coordinates": [ 2.4800865, 48.9093865 ] } },
{ "type": "Feature", "properties": { "osm_id": "25415621", "name": "Rue François Martin", "highway": "residential", "waterway": null, "aerialway": null, "barrier": null, "man_made": null, "railway": null, "z_order": 3, "other_tags": "\"lit\"=>\"yes\",\"surface\"=>\"asphalt\"", "access": null, "bicycle": null, "boundary": null, "bridge": null, "covered": null, "cycleway": null, "cycleway:left": null, "cycleway:right": null, "foot": null, "footway": null, "int_ref": null, "lane_markings": null, "lanes": null, "layer": null, "lit": "yes", "maxspeed": null, "nat_ref": null, "oneway": null, "operator": null, "operator:wikidata": null, "political_division": null, "ref": null, "sidewalk": null, "smoothness": null, "source:maxspeed": null, "surface": "asphalt", "toll": null, "turn:lanes": null, "was:name": null, "width": null, "zone:maxspeed": null, "osm_id_2": "25415621", "name_2": "Rue François Martin", "highway_2": "residential", "waterway_2": null, "aerialway_2": null, "barrier_2": null, "man_made_2": null, "railway_2": null, "z_order_2": 3, "other_tags_2": "\"lit\"=>\"yes\",\"surface\"=>\"asphalt\"", "access_2": null, "bicycle_2": null, "boundary_2": null, "bridge_2": null, "covered_2": null, "cycleway_2": null, "cycleway:left_2": null, "cycleway:right_2": null, "foot_2": null, "footway_2": null, "int_ref_2": null, "lane_markings_2": null, "lanes_2": null, "layer_2": null, "lit_2": "yes", "maxspeed_2": null, "nat_ref_2": null, "oneway_2": null, "operator_2": null, "operator:wikidata_2": null, "political_division_2": null, "ref_2": null, "sidewalk_2": null, "smoothness_2": null, "source:maxspeed_2": null, "surface_2": "asphalt", "toll_2": null, "turn:lanes_2": null, "was:name_2": null, "width_2": null, "zone:maxspeed_2": null }, "geometry": { "type": "Point", "coordinates": [ 2.4748901, 48.9089041 ] } },
{ "type": "Feature", "properties": { "osm_id": "132451202", "name": null, "highway": "residential", "waterway": null, "aerialway": null, "barrier": null, "man_made": null, "railway": null, "z_order": 3, "other_tags": "\"lit\"=>\"yes\"", "access": null, "bicycle": null, "boundary": null, "bridge": null, "covered": null, "cycleway": null, "cycleway:left": null, "cycleway:right": null, "foot": null, "footway": null, "int_ref": null, "lane_markings": null, "lanes": null, "layer": null, "lit": "yes", "maxspeed": null, "nat_ref": null, "oneway": null, "operator": null, "operator:wikidata": null, "political_division": null, "ref": null, "sidewalk": null, "smoothness": null, "source:maxspeed": null, "surface": null, "toll": null, "turn:lanes": null, "was:name": null, "width": null, "zone:maxspeed": null, "osm_id_2": "132451202", "name_2": null, "highway_2": "residential", "waterway_2": null, "aerialway_2": null, "barrier_2": null, "man_made_2": null, "railway_2": null, "z_order_2": 3, "other_tags_2": "\"lit\"=>\"yes\"", "access_2": null, "bicycle_2": null, "boundary_2": null, "bridge_2": null, "covered_2": null, "cycleway_2": null, "cycleway:left_2": null, "cycleway:right_2": null, "foot_2": null, "footway_2": null, "int_ref_2": null, "lane_markings_2": null, "lanes_2": null, "layer_2": null, "lit_2": "yes", "maxspeed_2": null, "nat_ref_2": null, "oneway_2": null, "operator_2": null, "operator:wikidata_2": null, "political_division_2": null, "ref_2": null, "sidewalk_2": null, "smoothness_2": null, "source:maxspeed_2": null, "surface_2": null, "toll_2": null, "turn:lanes_2": null, "was:name_2": null, "width_2": null, "zone:maxspeed_2": null }, "geometry": { "type": "Point", "coordinates": [ 2.4789258, 48.9094085 ] } },
{ "type": "Feature", "properties": { "osm_id": "132451202", "name": null, "highway": "residential", "waterway": null, "aerialway": null, "barrier": null, "man_made": null, "railway": null, "z_order": 3, "other_tags": "\"lit\"=>\"yes\"", "access": null, "bicycle": null, "boundary": null, "bridge": null, "covered": null, "cycleway": null, "cycleway:left": null, "cycleway:right": null, "foot": null, "footway": null, "int_ref": null, "lane_markings": null, "lanes": null, "layer": null, "lit": "yes", "maxspeed": null, "nat_ref": null, "oneway": null, "operator": null, "operator:wikidata": null, "political_division": null, "ref": null, "sidewalk": null, "smoothness": null, "source:maxspeed": null, "surface": null, "toll": null, "turn:lanes": null, "was:name": null, "width": null, "zone:maxspeed": null, "osm_id_2": "132451202", "name_2": null, "highway_2": "residential", "waterway_2": null, "aerialway_2": null, "barrier_2": null, "man_made_2": null, "railway_2": null, "z_order_2": 3, "other_tags_2": "\"lit\"=>\"yes\"", "access_2": null, "bicycle_2": null, "boundary_2": null, "bridge_2": null, "covered_2": null, "cycleway_2": null, "cycleway:left_2": null, "cycleway:right_2": null, "foot_2": null, "footway_2": null, "int_ref_2": null, "lane_markings_2": null, "lanes_2": null, "layer_2": null, "lit_2": "yes", "maxspeed_2": null, "nat_ref_2": null, "oneway_2": null, "operator_2": null, "operator:wikidata_2": null, "political_division_2": null, "ref_2": null, "sidewalk_2": null, "smoothness_2": null, "source:maxspeed_2": null, "surface_2": null, "toll_2": null, "turn:lanes_2": null, "was:name_2": null, "width_2": null, "zone:maxspeed_2": null }, "geometry": { "type": "Point", "coordinates": [ 2.4787683, 48.9091447 ] } },
{ "type": "Feature", "properties": { "osm_id": "25415621", "name": "Rue François Martin", "highway": "residential", "waterway": null, "aerialway": null, "barrier": null, "man_made": null, "railway": null, "z_order": 3, "other_tags": "\"lit\"=>\"yes\",\"surface\"=>\"asphalt\"", "access": null, "bicycle": null, "boundary": null, "bridge": null, "covered": null, "cycleway": null, "cycleway:left": null, "cycleway:right": null, "foot": null, "footway": null, "int_ref": null, "lane_markings": null, "lanes": null, "layer": null, "lit": "yes", "maxspeed": null, "nat_ref": null, "oneway": null, "operator": null, "operator:wikidata": null, "political_division": null, "ref": null, "sidewalk": null, "smoothness": null, "source:maxspeed": null, "surface": "asphalt", "toll": null, "turn:lanes": null, "was:name": null, "width": null, "zone:maxspeed": null, "osm_id_2": "134577039", "name_2": null, "highway_2": "residential", "waterway_2": null, "aerialway_2": null, "barrier_2": null, "man_made_2": null, "railway_2": null, "z_order_2": 3, "other_tags_2": "\"surface\"=>\"asphalt\"", "access_2": null, "bicycle_2": null, "boundary_2": null, "bridge_2": null, "covered_2": null, "cycleway_2": null, "cycleway:left_2": null, "cycleway:right_2": null, "foot_2": null, "footway_2": null, "int_ref_2": null, "lane_markings_2": null, "lanes_2": null, "layer_2": null, "lit_2": null, "maxspeed_2": null, "nat_ref_2": null, "oneway_2": null, "operator_2": null, "operator:wikidata_2": null, "political_division_2": null, "ref_2": null, "sidewalk_2": null, "smoothness_2": null, "source:maxspeed_2": null, "surface_2": "asphalt", "toll_2": null, "turn:lanes_2": null, "was:name_2": null, "width_2": null, "zone:maxspeed_2": null }, "geometry": { "type": "Point", "coordinates": [ 2.4748009, 48.9089001 ] } },
{ "type": "Feature", "properties": { "osm_id": "25415880", "name": "Rue Paul Renaud", "highway": "residential", "waterway": null, "aerialway": null, "barrier": null, "man_made": null, "railway": null, "z_order": 3, "other_tags": "\"lanes\"=>\"1\",\"lit\"=>\"yes\",\"maxspeed\"=>\"50\",\"oneway\"=>\"yes\",\"sidewalk\"=>\"both\",\"smoothness\"=>\"good\",\"source:maxspeed\"=>\"FR:urban\",\"surface\"=>\"asphalt\"", "access": null, "bicycle": null, "boundary": null, "bridge": null, "covered": null, "cycleway": null, "cycleway:left": null, "cycleway:right": null, "foot": null, "footway": null, "int_ref": null, "lane_markings": null, "lanes": "1", "layer": null, "lit": "yes", "maxspeed": "50", "nat_ref": null, "oneway": "yes", "operator": null, "operator:wikidata": null, "political_division": null, "ref": null, "sidewalk": "both", "smoothness": "good", "source:maxspeed": "FR:urban", "surface": "asphalt", "toll": null, "turn:lanes": null, "was:name": null, "width": null, "zone:maxspeed": null, "osm_id_2": "1455500555", "name_2": "Route d'Aulnay", "highway_2": "tertiary", "waterway_2": null, "aerialway_2": null, "barrier_2": null, "man_made_2": null, "railway_2": null, "z_order_2": 4, "other_tags_2": "\"surface\"=>\"asphalt\"", "access_2": null, "bicycle_2": null, "boundary_2": null, "bridge_2": null, "covered_2": null, "cycleway_2": null, "cycleway:left_2": null, "cycleway:right_2": null, "foot_2": null, "footway_2": null, "int_ref_2": null, "lane_markings_2": null, "lanes_2": null, "layer_2": null, "lit_2": null, "maxspeed_2": null, "nat_ref_2": null, "oneway_2": null, "operator_2": null, "operator:wikidata_2": null, "political_division_2": null, "ref_2": null, "sidewalk_2": null, "smoothness_2": null, "source:maxspeed_2": null, "surface_2": "asphalt", "toll_2": null, "turn:lanes_2": null, "was:name_2": null, "width_2": null, "zone:maxspeed_2": null }, "geometry": { "type": "Point", "coordinates": [ 2.480244, 48.9103277 ] } },
{ "type": "Feature", "properties": { "osm_id": "134577036", "name": null, "highway": "residential", "waterway": null, "aerialway": null, "barrier": null, "man_made": null, "railway": null, "z_order": 3, "other_tags": null, "access": null, "bicycle": null, "boundary": null, "bridge": null, "covered": null, "cycleway": null, "cycleway:left": null, "cycleway:right": null, "foot": null, "footway": null, "int_ref": null, "lane_markings": null, "lanes": null, "layer": null, "lit": null, "maxspeed": null, "nat_ref": null, "oneway": null, "operator": null, "operator:wikidata": null, "political_division": null, "ref": null, "sidewalk": null, "smoothness": null, "source:maxspeed": null, "surface": null, "toll": null, "turn:lanes": null, "was:name": null, "width": null, "zone:maxspeed": null, "osm_id_2": "134577039", "name_2": null, "highway_2": "residential", "waterway_2": null, "aerialway_2": null, "barrier_2": null, "man_made_2": null, "railway_2": null, "z_order_2": 3, "other_tags_2": "\"surface\"=>\"asphalt\"", "access_2": null, "bicycle_2": null, "boundary_2": null, "bridge_2": null, "covered_2": null, "cycleway_2": null, "cycleway:left_2": null, "cycleway:right_2": null, "foot_2": null, "footway_2": null, "int_ref_2": null, "lane_markings_2": null, "lanes_2": null, "layer_2": null, "lit_2": null, "maxspeed_2": null, "nat_ref_2": null, "oneway_2": null, "operator_2": null, "operator:wikidata_2": null, "political_division_2": null, "ref_2": null, "sidewalk_2": null, "smoothness_2": null, "source:maxspeed_2": null, "surface_2": "asphalt", "toll_2": null, "turn:lanes_2": null, "was:name_2": null, "width_2": null, "zone:maxspeed_2": null }, "geometry": { "type": "Point", "coordinates": [ 2.4751175, 48.909478 ] } },
{ "type": "Feature", "properties": { "osm_id": "132451205", "name": null, "highway": "residential", "waterway": null, "aerialway": null, "barrier": null, "man_made": null, "railway": null, "z_order": 3, "other_tags": "\"lit\"=>\"yes\"", "access": null, "bicycle": null, "boundary": null, "bridge": null, "covered": null, "cycleway": null, "cycleway:left": null, "cycleway:right": null, "foot": null, "footway": null, "int_ref": null, "lane_markings": null, "lanes": null, "layer": null, "lit": "yes", "maxspeed": null, "nat_ref": null, "oneway": null, "operator": null, "operator:wikidata": null, "political_division": null, "ref": null, "sidewalk": null, "smoothness": null, "source:maxspeed": null, "surface": null, "toll": null, "turn:lanes": null, "was:name": null, "width": null, "zone:maxspeed": null, "osm_id_2": "132451207", "name_2": null, "highway_2": "residential", "waterway_2": null, "aerialway_2": null, "barrier_2": null, "man_made_2": null, "railway_2": null, "z_order_2": 3, "other_tags_2": "\"lit\"=>\"yes\"", "access_2": null, "bicycle_2": null, "boundary_2": null, "bridge_2": null, "covered_2": null, "cycleway_2": null, "cycleway:left_2": null, "cycleway:right_2": null, "foot_2": null, "footway_2": null, "int_ref_2": null, "lane_markings_2": null, "lanes_2": null, "layer_2": null, "lit_2": "yes", "maxspeed_2": null, "nat_ref_2": null, "oneway_2": null, "operator_2": null, "operator:wikidata_2": null, "political_division_2": null, "ref_2": null, "sidewalk_2": null, "smoothness_2": null, "source:maxspeed_2": null, "surface_2": null, "toll_2": null, "turn:lanes_2": null, "was:name_2": null, "width_2": null, "zone:maxspeed_2": null }, "geometry": { "type": "Point", "coordinates": [ 2.477657, 48.9093591 ] } },
{ "type": "Feature", "properties": { "osm_id": "132451199", "name": "Allée des Lauriers", "highway": "residential", "waterway": null, "aerialway": null, "barrier": null, "man_made": null, "railway": null, "z_order": 3, "other_tags": "\"lit\"=>\"yes\"", "access": null, "bicycle": null, "boundary": null, "bridge": null, "covered": null, "cycleway": null, "cycleway:left": null, "cycleway:right": null, "foot": null, "footway": null, "int_ref": null, "lane_markings": null, "lanes": null, "layer": null, "lit": "yes", "maxspeed": null, "nat_ref": null, "oneway": null, "operator": null, "operator:wikidata": null, "political_division": null, "ref": null, "sidewalk": null, "smoothness": null, "source:maxspeed": null, "surface": null, "toll": null, "turn:lanes": null, "was:name": null, "width": null, "zone:maxspeed": null, "osm_id_2": "132451201", "name_2": "Rue Henri Mouly", "highway_2": "residential", "waterway_2": null, "aerialway_2": null, "barrier_2": null, "man_made_2": null, "railway_2": null, "z_order_2": 3, "other_tags_2": "\"lit\"=>\"yes\",\"surface\"=>\"asphalt\"", "access_2": null, "bicycle_2": null, "boundary_2": null, "bridge_2": null, "covered_2": null, "cycleway_2": null, "cycleway:left_2": null, "cycleway:right_2": null, "foot_2": null, "footway_2": null, "int_ref_2": null, "lane_markings_2": null, "lanes_2": null, "layer_2": null, "lit_2": "yes", "maxspeed_2": null, "nat_ref_2": null, "oneway_2": null, "operator_2": null, "operator:wikidata_2": null, "political_division_2": null, "ref_2": null, "sidewalk_2": null, "smoothness_2": null, "source:maxspeed_2": null, "surface_2": "asphalt", "toll_2": null, "turn:lanes_2": null, "was:name_2": null, "width_2": null, "zone:maxspeed_2": null }, "geometry": { "type": "Point", "coordinates": [ 2.4763256, 48.909577 ] } },
{ "type": "Feature", "properties": { "osm_id": "134577038", "name": null, "highway": "residential", "waterway": null, "aerialway": null, "barrier": null, "man_made": null, "railway": null, "z_order": 3, "other_tags": null, "access": null, "bicycle": null, "boundary": null, "bridge": null, "covered": null, "cycleway": null, "cycleway:left": null, "cycleway:right": null, "foot": null, "footway": null, "int_ref": null, "lane_markings": null, "lanes": null, "layer": null, "lit": null, "maxspeed": null, "nat_ref": null, "oneway": null, "operator": null, "operator:wikidata": null, "political_division": null, "ref": null, "sidewalk": null, "smoothness": null, "source:maxspeed": null, "surface": null, "toll": null, "turn:lanes": null, "was:name": null, "width": null, "zone:maxspeed": null, "osm_id_2": "134577039", "name_2": null, "highway_2": "residential", "waterway_2": null, "aerialway_2": null, "barrier_2": null, "man_made_2": null, "railway_2": null, "z_order_2": 3, "other_tags_2": "\"surface\"=>\"asphalt\"", "access_2": null, "bicycle_2": null, "boundary_2": null, "bridge_2": null, "covered_2": null, "cycleway_2": null, "cycleway:left_2": null, "cycleway:right_2": null, "foot_2": null, "footway_2": null, "int_ref_2": null, "lane_markings_2": null, "lanes_2": null, "layer_2": null, "lit_2": null, "maxspeed_2": null, "nat_ref_2": null, "oneway_2": null, "operator_2": null, "operator:wikidata_2": null, "political_division_2": null, "ref_2": null, "sidewalk_2": null, "smoothness_2": null, "source:maxspeed_2": null, "surface_2": "asphalt", "toll_2": null, "turn:lanes_2": null, "was:name_2": null, "width_2": null, "zone:maxspeed_2": null }, "geometry": { "type": "Point", "coordinates": [ 2.4749788, 48.909298 ] } },
{ "type": "Feature", "properties": { "osm_id": "132451205", "name": null, "highway": "residential", "waterway": null, "aerialway": null, "barrier": null, "man_made": null, "railway": null, "z_order": 3, "other_tags": "\"lit\"=>\"yes\"", "access": null, "bicycle": null, "boundary": null, "bridge": null, "covered": null, "cycleway": null, "cycleway:left": null, "cycleway:right": null, "foot": null, "footway": null, "int_ref": null, "lane_markings": null, "lanes": null, "layer": null, "lit": "yes", "maxspeed": null, "nat_ref": null, "oneway": null, "operator": null, "operator:wikidata": null, "political_division": null, "ref": null, "sidewalk": null, "smoothness": null, "source:maxspeed": null, "surface": null, "toll": null, "turn:lanes": null, "was:name": null, "width": null, "zone:maxspeed": null, "osm_id_2": "132451207", "name_2": null, "highway_2": "residential", "waterway_2": null, "aerialway_2": null, "barrier_2": null, "man_made_2": null, "railway_2": null, "z_order_2": 3, "other_tags_2": "\"lit\"=>\"yes\"", "access_2": null, "bicycle_2": null, "boundary_2": null, "bridge_2": null, "covered_2": null, "cycleway_2": null, "cycleway:left_2": null, "cycleway:right_2": null, "foot_2": null, "footway_2": null, "int_ref_2": null, "lane_markings_2": null, "lanes_2": null, "layer_2": null, "lit_2": "yes", "maxspeed_2": null, "nat_ref_2": null, "oneway_2": null, "operator_2": null, "operator:wikidata_2": null, "political_division_2": null, "ref_2": null, "sidewalk_2": null, "smoothness_2": null, "source:maxspeed_2": null, "surface_2": null, "toll_2": null, "turn:lanes_2": null, "was:name_2": null, "width_2": null, "zone:maxspeed_2": null }, "geometry": { "type": "Point", "coordinates": [ 2.477248, 48.9093435 ] } },
{ "type": "Feature", "properties": { "osm_id": "25415880", "name": "Rue Paul Renaud", "highway": "residential", "waterway": null, "aerialway": null, "barrier": null, "man_made": null, "railway": null, "z_order": 3, "other_tags": "\"lanes\"=>\"1\",\"lit\"=>\"yes\",\"maxspeed\"=>\"50\",\"oneway\"=>\"yes\",\"sidewalk\"=>\"both\",\"smoothness\"=>\"good\",\"source:maxspeed\"=>\"FR:urban\",\"surface\"=>\"asphalt\"", "access": null, "bicycle": null, "boundary": null, "bridge": null, "covered": null, "cycleway": null, "cycleway:left": null, "cycleway:right": null, "foot": null, "footway": null, "int_ref": null, "lane_markings": null, "lanes": "1", "layer": null, "lit": "yes", "maxspeed": "50", "nat_ref": null, "oneway": "yes", "operator": null, "operator:wikidata": null, "political_division": null, "ref": null, "sidewalk": "both", "smoothness": "good", "source:maxspeed": "FR:urban", "surface": "asphalt", "toll": null, "turn:lanes": null, "was:name": null, "width": null, "zone:maxspeed": null, "osm_id_2": "25415880", "name_2": "Rue Paul Renaud", "highway_2": "residential", "waterway_2": null, "aerialway_2": null, "barrier_2": null, "man_made_2": null, "railway_2": null, "z_order_2": 3, "other_tags_2": "\"lanes\"=>\"1\",\"lit\"=>\"yes\",\"maxspeed\"=>\"50\",\"oneway\"=>\"yes\",\"sidewalk\"=>\"both\",\"smoothness\"=>\"good\",\"source:maxspeed\"=>\"FR:urban\",\"surface\"=>\"asphalt\"", "access_2": null, "bicycle_2": null, "boundary_2": null, "bridge_2": null, "covered_2": null, "cycleway_2": null, "cycleway:left_2": null, "cycleway:right_2": null, "foot_2": null, "footway_2": null, "int_ref_2": null, "lane_markings_2": null, "lanes_2": "1", "layer_2": null, "lit_2": "yes", "maxspeed_2": "50", "nat_ref_2": null, "oneway_2": "yes", "operator_2": null, "operator:wikidata_2": null, "political_division_2": null, "ref_2": null, "sidewalk_2": "both", "smoothness_2": "good", "source:maxspeed_2": "FR:urban", "surface_2": "asphalt", "toll_2": null, "turn:lanes_2": null, "was:name_2": null, "width_2": null, "zone:maxspeed_2": null }, "geometry": { "type": "Point", "coordinates": [ 2.4796731, 48.9103156 ] } },
{ "type": "Feature", "properties": { "osm_id": "132451200", "name": "Allée des Tulipes", "highway": "residential", "waterway": null, "aerialway": null, "barrier": null, "man_made": null, "railway": null, "z_order": 3, "other_tags": "\"lit\"=>\"yes\",\"surface\"=>\"asphalt\"", "access": null, "bicycle": null, "boundary": null, "bridge": null, "covered": null, "cycleway": null, "cycleway:left": null, "cycleway:right": null, "foot": null, "footway": null, "int_ref": null, "lane_markings": null, "lanes": null, "layer": null, "lit": "yes", "maxspeed": null, "nat_ref": null, "oneway": null, "operator": null, "operator:wikidata": null, "political_division": null, "ref": null, "sidewalk": null, "smoothness": null, "source:maxspeed": null, "surface": "asphalt", "toll": null, "turn:lanes": null, "was:name": null, "width": null, "zone:maxspeed": null, "osm_id_2": "134577036", "name_2": null, "highway_2": "residential", "waterway_2": null, "aerialway_2": null, "barrier_2": null, "man_made_2": null, "railway_2": null, "z_order_2": 3, "other_tags_2": null, "access_2": null, "bicycle_2": null, "boundary_2": null, "bridge_2": null, "covered_2": null, "cycleway_2": null, "cycleway:left_2": null, "cycleway:right_2": null, "foot_2": null, "footway_2": null, "int_ref_2": null, "lane_markings_2": null, "lanes_2": null, "layer_2": null, "lit_2": null, "maxspeed_2": null, "nat_ref_2": null, "oneway_2": null, "operator_2": null, "operator:wikidata_2": null, "political_division_2": null, "ref_2": null, "sidewalk_2": null, "smoothness_2": null, "source:maxspeed_2": null, "surface_2": null, "toll_2": null, "turn:lanes_2": null, "was:name_2": null, "width_2": null, "zone:maxspeed_2": null }, "geometry": { "type": "Point", "coordinates": [ 2.4758411, 48.9095053 ] } },
{ "type": "Feature", "properties": { "osm_id": "25415621", "name": "Rue François Martin", "highway": "residential", "waterway": null, "aerialway": null, "barrier": null, "man_made": null, "railway": null, "z_order": 3, "other_tags": "\"lit\"=>\"yes\",\"surface\"=>\"asphalt\"", "access": null, "bicycle": null, "boundary": null, "bridge": null, "covered": null, "cycleway": null, "cycleway:left": null, "cycleway:right": null, "foot": null, "footway": null, "int_ref": null, "lane_markings": null, "lanes": null, "layer": null, "lit": "yes", "maxspeed": null, "nat_ref": null, "oneway": null, "operator": null, "operator:wikidata": null, "political_division": null, "ref": null, "sidewalk": null, "smoothness": null, "source:maxspeed": null, "surface": "asphalt", "toll": null, "turn:lanes": null, "was:name": null, "width": null, "zone:maxspeed": null, "osm_id_2": "884293837", "name_2": "Rue François Martin", "highway_2": "residential", "waterway_2": null, "aerialway_2": null, "barrier_2": null, "man_made_2": null, "railway_2": null, "z_order_2": 3, "other_tags_2": "\"lit\"=>\"yes\"", "access_2": null, "bicycle_2": null, "boundary_2": null, "bridge_2": null, "covered_2": null, "cycleway_2": null, "cycleway:left_2": null, "cycleway:right_2": null, "foot_2": null, "footway_2": null, "int_ref_2": null, "lane_markings_2": null, "lanes_2": null, "layer_2": null, "lit_2": "yes", "maxspeed_2": null, "nat_ref_2": null, "oneway_2": null, "operator_2": null, "operator:wikidata_2": null, "political_division_2": null, "ref_2": null, "sidewalk_2": null, "smoothness_2": null, "source:maxspeed_2": null, "surface_2": null, "toll_2": null, "turn:lanes_2": null, "was:name_2": null, "width_2": null, "zone:maxspeed_2": null }, "geometry": { "type": "Point", "coordinates": [ 2.4799754, 48.9091283 ] } },
{ "type": "Feature", "properties": { "osm_id": "884293836", "name": "Rue Henri Mouly", "highway": "residential", "waterway": null, "aerialway": null, "barrier": null, "man_made": null, "railway": null, "z_order": 3, "other_tags": "\"lit\"=>\"yes\"", "access": null, "bicycle": null, "boundary": null, "bridge": null, "covered": null, "cycleway": null, "cycleway:left": null, "cycleway:right": null, "foot": null, "footway": null, "int_ref": null, "lane_markings": null, "lanes": null, "layer": null, "lit": "yes", "maxspeed": null, "nat_ref": null, "oneway": null, "operator": null, "operator:wikidata": null, "political_division": null, "ref": null, "sidewalk": null, "smoothness": null, "source:maxspeed": null, "surface": null, "toll": null, "turn:lanes": null, "was:name": null, "width": null, "zone:maxspeed": null, "osm_id_2": "1455500555", "name_2": "Route d'Aulnay", "highway_2": "tertiary", "waterway_2": null, "aerialway_2": null, "barrier_2": null, "man_made_2": null, "railway_2": null, "z_order_2": 4, "other_tags_2": "\"surface\"=>\"asphalt\"", "access_2": null, "bicycle_2": null, "boundary_2": null, "bridge_2": null, "covered_2": null, "cycleway_2": null, "cycleway:left_2": null, "cycleway:right_2": null, "foot_2": null, "footway_2": null, "int_ref_2": null, "lane_markings_2": null, "lanes_2": null, "layer_2": null, "lit_2": null, "maxspeed_2": null, "nat_ref_2": null, "oneway_2": null, "operator_2": null, "operator:wikidata_2": null, "political_division_2": null, "ref_2": null, "sidewalk_2": null, "smoothness_2": null, "source:maxspeed_2": null, "surface_2": "asphalt", "toll_2": null, "turn:lanes_2": null, "was:name_2": null, "width_2": null, "zone:maxspeed_2": null }, "geometry": { "type": "Point", "coordinates": [ 2.4801022, 48.909761799999984 ] } },
{ "type": "Feature", "properties": { "osm_id": "25415621", "name": "Rue François Martin", "highway": "residential", "waterway": null, "aerialway": null, "barrier": null, "man_made": null, "railway": null, "z_order": 3, "other_tags": "\"lit\"=>\"yes\",\"surface\"=>\"asphalt\"", "access": null, "bicycle": null, "boundary": null, "bridge": null, "covered": null, "cycleway": null, "cycleway:left": null, "cycleway:right": null, "foot": null, "footway": null, "int_ref": null, "lane_markings": null, "lanes": null, "layer": null, "lit": "yes", "maxspeed": null, "nat_ref": null, "oneway": null, "operator": null, "operator:wikidata": null, "political_division": null, "ref": null, "sidewalk": null, "smoothness": null, "source:maxspeed": null, "surface": "asphalt", "toll": null, "turn:lanes": null, "was:name": null, "width": null, "zone:maxspeed": null, "osm_id_2": "132451208", "name_2": null, "highway_2": "residential", "waterway_2": null, "aerialway_2": null, "barrier_2": null, "man_made_2": null, "railway_2": null, "z_order_2": 3, "other_tags_2": "\"lit\"=>\"yes\",\"surface\"=>\"asphalt\"", "access_2": null, "bicycle_2": null, "boundary_2": null, "bridge_2": null, "covered_2": null, "cycleway_2": null, "cycleway:left_2": null, "cycleway:right_2": null, "foot_2": null, "footway_2": null, "int_ref_2": null, "lane_markings_2": null, "lanes_2": null, "layer_2": null, "lit_2": "yes", "maxspeed_2": null, "nat_ref_2": null, "oneway_2": null, "operator_2": null, "operator:wikidata_2": null, "political_division_2": null, "ref_2": null, "sidewalk_2": null, "smoothness_2": null, "source:maxspeed_2": null, "surface_2": "asphalt", "toll_2": null, "turn:lanes_2": null, "was:name_2": null, "width_2": null, "zone:maxspeed_2": null }, "geometry": { "type": "Point", "coordinates": [ 2.4798916, 48.9091249 ] } },
{ "type": "Feature", "properties": { "osm_id": "132451200", "name": "Allée des Tulipes", "highway": "residential", "waterway": null, "aerialway": null, "barrier": null, "man_made": null, "railway": null, "z_order": 3, "other_tags": "\"lit\"=>\"yes\",\"surface\"=>\"asphalt\"", "access": null, "bicycle": null, "boundary": null, "bridge": null, "covered": null, "cycleway": null, "cycleway:left": null, "cycleway:right": null, "foot": null, "footway": null, "int_ref": null, "lane_markings": null, "lanes": null, "layer": null, "lit": "yes", "maxspeed": null, "nat_ref": null, "oneway": null, "operator": null, "operator:wikidata": null, "political_division": null, "ref": null, "sidewalk": null, "smoothness": null, "source:maxspeed": null, "surface": "asphalt", "toll": null, "turn:lanes": null, "was:name": null, "width": null, "zone:maxspeed": null, "osm_id_2": "134577038", "name_2": null, "highway_2": "residential", "waterway_2": null, "aerialway_2": null, "barrier_2": null, "man_made_2": null, "railway_2": null, "z_order_2": 3, "other_tags_2": null, "access_2": null, "bicycle_2": null, "boundary_2": null, "bridge_2": null, "covered_2": null, "cycleway_2": null, "cycleway:left_2": null, "cycleway:right_2": null, "foot_2": null, "footway_2": null, "int_ref_2": null, "lane_markings_2": null, "lanes_2": null, "layer_2": null, "lit_2": null, "maxspeed_2": null, "nat_ref_2": null, "oneway_2": null, "operator_2": null, "operator:wikidata_2": null, "political_division_2": null, "ref_2": null, "sidewalk_2": null, "smoothness_2": null, "source:maxspeed_2": null, "surface_2": null, "toll_2": null, "turn:lanes_2": null, "was:name_2": null, "width_2": null, "zone:maxspeed_2": null }, "geometry": { "type": "Point", "coordinates": [ 2.4758606, 48.9093281 ] } },
{ "type": "Feature", "properties": { "osm_id": "132451200", "name": "Allée des Tulipes", "highway": "residential", "waterway": null, "aerialway": null, "barrier": null, "man_made": null, "railway": null, "z_order": 3, "other_tags": "\"lit\"=>\"yes\",\"surface\"=>\"asphalt\"", "access": null, "bicycle": null, "boundary": null, "bridge": null, "covered": null, "cycleway": null, "cycleway:left": null, "cycleway:right": null, "foot": null, "footway": null, "int_ref": null, "lane_markings": null, "lanes": null, "layer": null, "lit": "yes", "maxspeed": null, "nat_ref": null, "oneway": null, "operator": null, "operator:wikidata": null, "political_division": null, "ref": null, "sidewalk": null, "smoothness": null, "source:maxspeed": null, "surface": "asphalt", "toll": null, "turn:lanes": null, "was:name": null, "width": null, "zone:maxspeed": null, "osm_id_2": "132451201", "name_2": "Rue Henri Mouly", "highway_2": "residential", "waterway_2": null, "aerialway_2": null, "barrier_2": null, "man_made_2": null, "railway_2": null, "z_order_2": 3, "other_tags_2": "\"lit\"=>\"yes\",\"surface\"=>\"asphalt\"", "access_2": null, "bicycle_2": null, "boundary_2": null, "bridge_2": null, "covered_2": null, "cycleway_2": null, "cycleway:left_2": null, "cycleway:right_2": null, "foot_2": null, "footway_2": null, "int_ref_2": null, "lane_markings_2": null, "lanes_2": null, "layer_2": null, "lit_2": "yes", "maxspeed_2": null, "nat_ref_2": null, "oneway_2": null, "operator_2": null, "operator:wikidata_2": null, "political_division_2": null, "ref_2": null, "sidewalk_2": null, "smoothness_2": null, "source:maxspeed_2": null, "surface_2": "asphalt", "toll_2": null, "turn:lanes_2": null, "was:name_2": null, "width_2": null, "zone:maxspeed_2": null }, "geometry": { "type": "Point", "coordinates": [ 2.4758349, 48.909561600000011 ] } },
{ "type": "Feature", "properties": { "osm_id": "884293837", "name": "Rue François Martin", "highway": "residential", "waterway": null, "aerialway": null, "barrier": null, "man_made": null, "railway": null, "z_order": 3, "other_tags": "\"lit\"=>\"yes\"", "access": null, "bicycle": null, "boundary": null, "bridge": null, "covered": null, "cycleway": null, "cycleway:left": null, "cycleway:right": null, "foot": null, "footway": null, "int_ref": null, "lane_markings": null, "lanes": null, "layer": null, "lit": "yes", "maxspeed": null, "nat_ref": null, "oneway": null, "operator": null, "operator:wikidata": null, "political_division": null, "ref": null, "sidewalk": null, "smoothness": null, "source:maxspeed": null, "surface": null, "toll": null, "turn:lanes": null, "was:name": null, "width": null, "zone:maxspeed": null, "osm_id_2": "1455500555", "name_2": "Route d'Aulnay", "highway_2": "tertiary", "waterway_2": null, "aerialway_2": null, "barrier_2": null, "man_made_2": null, "railway_2": null, "z_order_2": 4, "other_tags_2": "\"surface\"=>\"asphalt\"", "access_2": null, "bicycle_2": null, "boundary_2": null, "bridge_2": null, "covered_2": null, "cycleway_2": null, "cycleway:left_2": null, "cycleway:right_2": null, "foot_2": null, "footway_2": null, "int_ref_2": null, "lane_markings_2": null, "lanes_2": null, "layer_2": null, "lit_2": null, "maxspeed_2": null, "nat_ref_2": null, "oneway_2": null, "operator_2": null, "operator:wikidata_2": null, "political_division_2": null, "ref_2": null, "sidewalk_2": null, "smoothness_2": null, "source:maxspeed_2": null, "surface_2": "asphalt", "toll_2": null, "turn:lanes_2": null, "was:name_2": null, "width_2": null, "zone:maxspeed_2": null }, "geometry": { "type": "Point", "coordinates": [ 2.4801048, 48.9091336 ] } },
{ "type": "Feature", "properties": { "osm_id": "25415621", "name": "Rue François Martin", "highway": "residential", "waterway": null, "aerialway": null, "barrier": null, "man_made": null, "railway": null, "z_order": 3, "other_tags": "\"lit\"=>\"yes\",\"surface\"=>\"asphalt\"", "access": null, "bicycle": null, "boundary": null, "bridge": null, "covered": null, "cycleway": null, "cycleway:left": null, "cycleway:right": null, "foot": null, "footway": null, "int_ref": null, "lane_markings": null, "lanes": null, "layer": null, "lit": "yes", "maxspeed": null, "nat_ref": null, "oneway": null, "operator": null, "operator:wikidata": null, "political_division": null, "ref": null, "sidewalk": null, "smoothness": null, "source:maxspeed": null, "surface": "asphalt", "toll": null, "turn:lanes": null, "was:name": null, "width": null, "zone:maxspeed": null, "osm_id_2": "132451779", "name_2": null, "highway_2": "residential", "waterway_2": null, "aerialway_2": null, "barrier_2": null, "man_made_2": null, "railway_2": null, "z_order_2": 3, "other_tags_2": "\"lit\"=>\"yes\"", "access_2": null, "bicycle_2": null, "boundary_2": null, "bridge_2": null, "covered_2": null, "cycleway_2": null, "cycleway:left_2": null, "cycleway:right_2": null, "foot_2": null, "footway_2": null, "int_ref_2": null, "lane_markings_2": null, "lanes_2": null, "layer_2": null, "lit_2": "yes", "maxspeed_2": null, "nat_ref_2": null, "oneway_2": null, "operator_2": null, "operator:wikidata_2": null, "political_division_2": null, "ref_2": null, "sidewalk_2": null, "smoothness_2": null, "source:maxspeed_2": null, "surface_2": null, "toll_2": null, "turn:lanes_2": null, "was:name_2": null, "width_2": null, "zone:maxspeed_2": null }, "geometry": { "type": "Point", "coordinates": [ 2.4787767, 48.9090792 ] } }
]
}
