{
"type": "FeatureCollection",
"name": "input_polygon",
"crs": { "type": "name", "properties": { "name": "urn:ogc:def:crs:OGC:1.3:CRS84" } },
"xy_coordinate_resolution": 1e-15,
"features": [
{ "type": "Feature", "properties": { }, "geometry": { "type": "Polygon", "coordinates": [ [ [ 2.478301152060335, 48.912568665796094 ], [ 2.481142490877712, 48.912224884975217 ], [ 2.481447547895721, 48.912144370004235 ], [ 2.480254018907822, 48.910338807734142 ], [ 2.480119552846677, 48.909868791393734 ], [ 2.483051270119416, 48.909612589137382 ], [ 2.483094336227072, 48.909122658093374 ], [ 2.480090431987673, 48.909369555143265 ], [ 2.480174661770657, 48.908449039908916 ], [ 2.473348297827321, 48.908134144304391 ], [ 2.475434329900909, 48.910699101226399 ], [ 2.476100869084121, 48.910353990316629 ], [ 2.476216444535481, 48.910257371666319 ], [ 2.477592860472088, 48.912450469465341 ], [ 2.477698447022326, 48.912533664983876 ], [ 2.477908038141869, 48.912585838394058 ], [ 2.478301152060335, 48.912568665796094 ] ] ] } }
]
}
