{
"type": "FeatureCollection",
"name": "protoblocks",
"crs": { "type": "name", "properties": { "name": "urn:ogc:def:crs:OGC:1.3:CRS84" } },
"xy_coordinate_resolution": 1e-15,
"features": [
{ "type": "Feature", "properties": { "osm_id": null, "name": null, "highway": null, "waterway": null, "aerialway": null, "barrier": null, "man_made": null, "railway": null, "z_order": null, "other_tags": null, "access": null, "bicycle": null, "boundary": null, "bridge": null, "covered": null, "cycleway": null, "cycleway:left": null, "cycleway:right": null, "foot": null, "footway": null, "int_ref": null, "lane_markings": null, "lanes": null, "layer": null, "lit": null, "maxspeed": null, "nat_ref": null, "oneway": null, "operator": null, "operator:wikidata": null, "political_division": null, "ref": null, "sidewalk": null, "smoothness": null, "source:maxspeed": null, "surface": null, "toll": null, "turn:lanes": null, "was:name": null, "width": null, "zone:maxspeed": null, "inc_sidewalk_len": 0.0, "sidewalks_ratio": 0.0, "incident": "23 27 24 29 26" }, "geometry": { "type": "Polygon", "coordinates": [ [ [ 2.4799754, 48.9091283 ], [ 2.4798916, 48.9091249 ], [ 2.4787767, 48.9090792 ], [ 2.4774986, 48.9090268 ], [ 2.4763865, 48.908973 ], [ 2.4763256, 48.909577 ], [ 2.4770943, 48.9096166 ], [ 2.4777542, 48.9096487 ], [ 2.4783799, 48.9096791 ], [ 2.4790365, 48.909711 ], [ 2.4796748, 48.90974210000001 ], [ 2.4799878, 48.9097573 ], [ 2.4801022, 48.909761799999984 ], [ 2.4800992, 48.909661 ], [ 2.4800865, 48.9093865 ], [ 2.4800912, 48.909319 ], [ 2.4801048, 48.9091336 ], [ 2.4799754, 48.9091283 ] ], [ [ 2.478564, 48.909396799999989 ], [ 2.4785895, 48.909139 ], [ 2.4787683, 48.9091447 ], [ 2.4789493, 48.909150599999982 ], [ 2.4789258, 48.9094085 ], [ 2.478564, 48.909396799999989 ] ], [ [ 2.477657, 48.9093591 ], [ 2.477248, 48.9093435 ], [ 2.4772765, 48.9093287 ], [ 2.4772805, 48.90931 ], [ 2.4772996, 48.9091128 ], [ 2.4773112, 48.9090916 ], [ 2.4773359, 48.9090817 ], [ 2.4774902, 48.9090838 ], [ 2.4775954, 48.909090399999982 ], [ 2.4776389, 48.9090956 ], [ 2.4776596, 48.9091144 ], [ 2.4776575, 48.9091344 ], [ 2.4776365, 48.9093278 ], [ 2.4776401, 48.909347799999985 ], [ 2.477657, 48.9093591 ] ] ] } },
{ "type": "Feature", "properties": { "osm_id": null, "name": null, "highway": null, "waterway": null, "aerialway": null, "barrier": null, "man_made": null, "railway": null, "z_order": null, "other_tags": null, "access": null, "bicycle": null, "boundary": null, "bridge": null, "covered": null, "cycleway": null, "cycleway:left": null, "cycleway:right": null, "foot": null, "footway": null, "int_ref": null, "lane_markings": null, "lanes": null, "layer": null, "lit": null, "maxspeed": null, "nat_ref": null, "oneway": null, "operator": null, "operator:wikidata": null, "political_division": null, "ref": null, "sidewalk": null, "smoothness": null, "source:maxspeed": null, "surface": null, "toll": null, "turn:lanes": null, "was:name": null, "width": null, "zone:maxspeed": null, "inc_sidewalk_len": 0.0, "sidewalks_ratio": 0.0, "incident": "30" }, "geometry": { "type": "Polygon", "coordinates": [ [ [ 2.4763865, 48.908973 ], [ 2.4761939, 48.9089638 ], [ 2.4758997, 48.908952 ], [ 2.4758606, 48.9093281 ], [ 2.4758411, 48.9095053 ], [ 2.4758349, 48.909561600000011 ], [ 2.4760368, 48.9095679 ], [ 2.4763256, 48.909577 ], [ 2.4763865, 48.908973 ] ] ] } },
{ "type": "Feature", "properties": { "osm_id": null, "name": null, "highway": null, "waterway": null, "aerialway": null, "barrier": null, "man_made": null, "railway": null, "z_order": null, "other_tags": null, "access": null, "bicycle": null, "boundary": null, "bridge": null, "covered": null, "cycleway": null, "cycleway:left": null, "cycleway:right": null, "foot": null, "footway": null, "int_ref": null, "lane_markings": null, "lanes": null, "layer": null, "lit": null, "maxspeed": null, "nat_ref": null, "oneway": null, "operator": null, "operator:wikidata": null, "political_division": null, "ref": null, "sidewalk": null, "smoothness": null, "source:maxspeed": null, "surface": null, "toll": null, "turn:lanes": null, "was:name": null, "width": null, "zone:maxspeed": null, "inc_sidewalk_len": 0.0, "sidewalks_ratio": 0.0, "incident": "33 31" }, "geometry": { "type": "Polygon", "coordinates": [ [ [ 2.4758997, 48.908952 ], [ 2.4750723, 48.9089124 ], [ 2.4748901, 48.9089041 ], [ 2.4748009, 48.9089001 ], [ 2.4747933, 48.9090573 ], [ 2.4749788, 48.909298 ], [ 2.4758606, 48.9093281 ], [ 2.4758997, 48.908952 ] ] ] } },
{ "type": "Feature", "properties": { "osm_id": null, "name": null, "highway": null, "waterway": null, "aerialway": null, "barrier": null, "man_made": null, "railway": null, "z_order": null, "other_tags": null, "access": null, "bicycle": null, "boundary": null, "bridge": null, "covered": null, "cycleway": null, "cycleway:left": null, "cycleway:right": null, "foot": null, "footway": null, "int_ref": null, "lane_markings": null, "lanes": null, "layer": null, "lit": null, "maxspeed": null, "nat_ref": null, "oneway": null, "operator": null, "operator:wikidata": null, "political_division": null, "ref": null, "sidewalk": null, "smoothness": null, "source:maxspeed": null, "surface": null, "toll": null, "turn:lanes": null, "was:name": null, "width": null, "zone:maxspeed": null, "inc_sidewalk_len": 0.0, "sidewalks_ratio": 0.0, "incident": "32" }, "geometry": { "type": "Polygon", "coordinates": [ [ [ 2.4758411, 48.9095053 ], [ 2.4758606, 48.9093281 ], [ 2.4749788, 48.909298 ], [ 2.4751175, 48.909478 ], [ 2.4758411, 48.9095053 ] ] ] } },
{ "type": "Feature", "properties": { "osm_id": null, "name": null, "highway": null, "waterway": null, "aerialway": null, "barrier": null, "man_made": null, "railway": null, "z_order": null, "other_tags": null, "access": null, "bicycle": null, "boundary": null, "bridge": null, "covered": null, "cycleway": null, "cycleway:left": null, "cycleway:right": null, "foot": null, "footway": null, "int_ref": null, "lane_markings": null, "lanes": null, "layer": null, "lit": null, "maxspeed": null, "nat_ref": null, "oneway": null, "operator": null, "operator:wikidata": null, "political_division": null, "ref": null, "sidewalk": null, "smoothness": null, "source:maxspeed": null, "surface": null, "toll": null, "turn:lanes": null, "was:name": null, "width": null, "zone:maxspeed": null, "inc_sidewalk_len": 0.0, "sidewalks_ratio": 0.0, "incident": "25" }, "geometry": { "type": "Polygon", "coordinates": [ [ [ 2.4787683, 48.9091447 ], [ 2.4785895, 48.909139 ], [ 2.478564, 48.909396799999989 ], [ 2.4789258, 48.9094085 ], [ 2.4789493, 48.909150599999982 ], [ 2.4787683, 48.9091447 ] ] ] } },
{ "type": "Feature", "properties": { "osm_id": null, "name": null, "highway": null, "waterway": null, "aerialway": null, "barrier": null, "man_made": null, "railway": null, "z_order": null, "other_tags": null, "access": null, "bicycle": null, "boundary": null, "bridge": null, "covered": null, "cycleway": null, "cycleway:left": null, "cycleway:right": null, "foot": null, "footway": null, "int_ref": null, "lane_markings": null, "lanes": null, "layer": null, "lit": null, "maxspeed": null, "nat_ref": null, "oneway": null, "operator": null, "operator:wikidata": null, "political_division": null, "ref": null, "sidewalk": null, "smoothness": null, "source:maxspeed": null, "surface": null, "toll": null, "turn:lanes": null, "was:name": null, "width": null, "zone:maxspeed": null, "inc_sidewalk_len": 0.0, "sidewalks_ratio": 0.0, "incident": "28" }, "geometry": { "type": "Polygon", "coordinates": [ [ [ 2.477248, 48.9093435 ], [ 2.477657, 48.9093591 ], [ 2.4776401, 48.909347799999985 ], [ 2.4776365, 48.9093278 ], [ 2.4776575, 48.9091344 ], [ 2.4776596, 48.9091144 ], [ 2.4776389, 48.9090956 ], [ 2.4775954, 48.909090399999982 ], [ 2.4774902, 48.9090838 ], [ 2.4773359, 48.9090817 ], [ 2.4773112, 48.9090916 ], [ 2.4772996, 48.9091128 ], [ 2.4772805, 48.90931 ], [ 2.4772765, 48.9093287 ], [ 2.477248, 48.9093435 ] ] ] } }
]
}
