{
"type": "FeatureCollection",
"name": "raw_buffers",
"crs": { "type": "name", "properties": { "name": "urn:ogc:def:crs:OGC:1.3:CRS84" } },
"xy_coordinate_resolution": 1e-15,
"features": [
{ "type": "Feature", "properties": { "osm_id": "25415621", "name": "Rue François Martin", "highway": "residential", "waterway": null, "aerialway": null, "barrier": null, "man_made": null, "railway": null, "z_order": 3, "other_tags": "\"lit\"=>\"yes\",\"surface\"=>\"asphalt\"", "access": null, "bicycle": null, "boundary": null, "bridge": null, "covered": null, "cycleway": null, "cycleway:left": null, "cycleway:right": null, "foot": null, "footway": null, "int_ref": null, "lane_markings": null, "lanes": null, "layer": null, "lit": "yes", "maxspeed": null, "nat_ref": null, "oneway": null, "operator": null, "operator:wikidata": null, "political_division": null, "ref": null, "sidewalk": null, "smoothness": null, "source:maxspeed": null, "surface": "asphalt", "toll": null, "turn:lanes": null, "was:name": null, "width": "6", "zone:maxspeed": null, "id_on_layer": 3 }, "geometry": { "type": "MultiPolygon", "coordinates": [ [ [ [ 2.47989495234125, 48.909088999300337 ], [ 2.479888247653955, 48.90916080069934 ], [ 2.479972047713763, 48.909164200701746 ], [ 2.479978752281442, 48.909092399297919 ], [ 2.47989495234125, 48.909088999300337 ] ] ] ] } },
{ "type": "Feature", "properties": { "osm_id": "25415621", "name": "Rue François Martin", "highway": "residential", "waterway": null, "aerialway": null, "barrier": null, "man_made": null, "railway": null, "z_order": 3, "other_tags": "\"lit\"=>\"yes\",\"surface\"=>\"asphalt\"", "access": null, "bicycle": null, "boundary": null, "bridge": null, "covered": null, "cycleway": null, "cycleway:left": null, "cycleway:right": null, "foot": null, "footway": null, "int_ref": null, "lane_markings": null, "lanes": null, "layer": null, "lit": "yes", "maxspeed": null, "nat_ref": null, "oneway": null, "operator": null, "operator:wikidata": null, "political_division": null, "ref": null, "sidewalk": null, "smoothness": null, "source:maxspeed": null, "surface": "asphalt", "toll": null, "turn:lanes": null, "was:name": null, "width": "6", "zone:maxspeed": null, "id_on_layer": 4 }, "geometry": { "type": "MultiPolygon", "coordinates": [ [ [ [ 2.478780087063728, 48.909043300716291 ], [ 2.478773312931427, 48.909115099283369 ], [ 2.479888213727038, 48.909160799315828 ], [ 2.479894986268118, 48.909089000683856 ], [ 2.478780087063728, 48.909043300716291 ] ] ] ] } },
{ "type": "Feature", "properties": { "osm_id": "25415621", "name": "Rue François Martin", "highway": "residential", "waterway": null, "aerialway": null, "barrier": null, "man_made": null, "railway": null, "z_order": 3, "other_tags": "\"lit\"=>\"yes\",\"surface\"=>\"asphalt\"", "access": null, "bicycle": null, "boundary": null, "bridge": null, "covered": null, "cycleway": null, "cycleway:left": null, "cycleway:right": null, "foot": null, "footway": null, "int_ref": null, "lane_markings": null, "lanes": null, "layer": null, "lit": "yes", "maxspeed": null, "nat_ref": null, "oneway": null, "operator": null, "operator:wikidata": null, "political_division": null, "ref": null, "sidewalk": null, "smoothness": null, "source:maxspeed": null, "surface": "asphalt", "toll": null, "turn:lanes": null, "was:name": null, "width": "6", "zone:maxspeed": null, "id_on_layer": 5 }, "geometry": { "type": "MultiPolygon", "coordinates": [ [ [ [ 2.477501987784727, 48.908990900745664 ], [ 2.477495212210426, 48.909062699253994 ], [ 2.478773313122494, 48.909115099291206 ], [ 2.47878008687266, 48.909043300708454 ], [ 2.477501987784727, 48.908990900745664 ] ] ] ] } },
{ "type": "Feature", "properties": { "osm_id": "25415621", "name": "Rue François Martin", "highway": "residential", "waterway": null, "aerialway": null, "barrier": null, "man_made": null, "railway": null, "z_order": 3, "other_tags": "\"lit\"=>\"yes\",\"surface\"=>\"asphalt\"", "access": null, "bicycle": null, "boundary": null, "bridge": null, "covered": null, "cycleway": null, "cycleway:left": null, "cycleway:right": null, "foot": null, "footway": null, "int_ref": null, "lane_markings": null, "lanes": null, "layer": null, "lit": "yes", "maxspeed": null, "nat_ref": null, "oneway": null, "operator": null, "operator:wikidata": null, "political_division": null, "ref": null, "sidewalk": null, "smoothness": null, "source:maxspeed": null, "surface": "asphalt", "toll": null, "turn:lanes": null, "was:name": null, "width": "6", "zone:maxspeed": null, "id_on_layer": 6 }, "geometry": { "type": "MultiPolygon", "coordinates": [ [ [ [ 2.476390494324968, 48.908937127852688 ], [ 2.47638250566932, 48.909008872146927 ], [ 2.477494606461118, 48.909062672185115 ], [ 2.477502593533172, 48.908990927814514 ], [ 2.476390494324968, 48.908937127852688 ] ] ] ] } },
{ "type": "Feature", "properties": { "osm_id": "25415621", "name": "Rue François Martin", "highway": "residential", "waterway": null, "aerialway": null, "barrier": null, "man_made": null, "railway": null, "z_order": 3, "other_tags": "\"lit\"=>\"yes\",\"surface\"=>\"asphalt\"", "access": null, "bicycle": null, "boundary": null, "bridge": null, "covered": null, "cycleway": null, "cycleway:left": null, "cycleway:right": null, "foot": null, "footway": null, "int_ref": null, "lane_markings": null, "lanes": null, "layer": null, "lit": "yes", "maxspeed": null, "nat_ref": null, "oneway": null, "operator": null, "operator:wikidata": null, "political_division": null, "ref": null, "sidewalk": null, "smoothness": null, "source:maxspeed": null, "surface": "asphalt", "toll": null, "turn:lanes": null, "was:name": null, "width": "6", "zone:maxspeed": null, "id_on_layer": 7 }, "geometry": { "type": "MultiPolygon", "coordinates": [ [ [ [ 2.476197843933604, 48.90892792543012 ], [ 2.476189956060756, 48.908999674569529 ], [ 2.476382556197911, 48.909008874576053 ], [ 2.476390443796448, 48.908937125423577 ], [ 2.476197843933604, 48.90892792543012 ] ] ] ] } },
{ "type": "Feature", "properties": { "osm_id": "25415621", "name": "Rue François Martin", "highway": "residential", "waterway": null, "aerialway": null, "barrier": null, "man_made": null, "railway": null, "z_order": 3, "other_tags": "\"lit\"=>\"yes\",\"surface\"=>\"asphalt\"", "access": null, "bicycle": null, "boundary": null, "bridge": null, "covered": null, "cycleway": null, "cycleway:left": null, "cycleway:right": null, "foot": null, "footway": null, "int_ref": null, "lane_markings": null, "lanes": null, "layer": null, "lit": "yes", "maxspeed": null, "nat_ref": null, "oneway": null, "operator": null, "operator:wikidata": null, "political_division": null, "ref": null, "sidewalk": null, "smoothness": null, "source:maxspeed": null, "surface": "asphalt", "toll": null, "turn:lanes": null, "was:name": null, "width": "6", "zone:maxspeed": null, "id_on_layer": 8 }, "geometry": { "type": "MultiPolygon", "coordinates": [ [ [ [ 2.475903014196521, 48.908916097760901 ], [ 2.475896385798737, 48.908987902238771 ], [ 2.476190586008733, 48.908999702247151 ], [ 2.476197213986525, 48.90892789775252 ], [ 2.475903014196521, 48.908916097760901 ] ] ] ] } },
{ "type": "Feature", "properties": { "osm_id": "25415621", "name": "Rue François Martin", "highway": "residential", "waterway": null, "aerialway": null, "barrier": null, "man_made": null, "railway": null, "z_order": 3, "other_tags": "\"lit\"=>\"yes\",\"surface\"=>\"asphalt\"", "access": null, "bicycle": null, "boundary": null, "bridge": null, "covered": null, "cycleway": null, "cycleway:left": null, "cycleway:right": null, "foot": null, "footway": null, "int_ref": null, "lane_markings": null, "lanes": null, "layer": null, "lit": "yes", "maxspeed": null, "nat_ref": null, "oneway": null, "operator": null, "operator:wikidata": null, "political_division": null, "ref": null, "sidewalk": null, "smoothness": null, "source:maxspeed": null, "surface": "asphalt", "toll": null, "turn:lanes": null, "was:name": null, "width": "6", "zone:maxspeed": null, "id_on_layer": 9 }, "geometry": { "type": "MultiPolygon", "coordinates": [ [ [ [ 2.475076251822933, 48.908876525807251 ], [ 2.475068348171415, 48.908948274192397 ], [ 2.47589574876061, 48.9089878742205 ], [ 2.475903651233739, 48.908916125779122 ], [ 2.475076251822933, 48.908876525807251 ] ] ] ] } },
{ "type": "Feature", "properties": { "osm_id": "25415621", "name": "Rue François Martin", "highway": "residential", "waterway": null, "aerialway": null, "barrier": null, "man_made": null, "railway": null, "z_order": 3, "other_tags": "\"lit\"=>\"yes\",\"surface\"=>\"asphalt\"", "access": null, "bicycle": null, "boundary": null, "bridge": null, "covered": null, "cycleway": null, "cycleway:left": null, "cycleway:right": null, "foot": null, "footway": null, "int_ref": null, "lane_markings": null, "lanes": null, "layer": null, "lit": "yes", "maxspeed": null, "nat_ref": null, "oneway": null, "operator": null, "operator:wikidata": null, "political_division": null, "ref": null, "sidewalk": null, "smoothness": null, "source:maxspeed": null, "surface": "asphalt", "toll": null, "turn:lanes": null, "was:name": null, "width": "6", "zone:maxspeed": null, "id_on_layer": 10 }, "geometry": { "type": "MultiPolygon", "coordinates": [ [ [ [ 2.474893862091604, 48.908868216944953 ], [ 2.474886337903014, 48.908939983054701 ], [ 2.475068538032856, 48.908948283060603 ], [ 2.475076061961762, 48.908876516939053 ], [ 2.474893862091604, 48.908868216944953 ] ] ] ] } },
{ "type": "Feature", "properties": { "osm_id": "25415621", "name": "Rue François Martin", "highway": "residential", "waterway": null, "aerialway": null, "barrier": null, "man_made": null, "railway": null, "z_order": 3, "other_tags": "\"lit\"=>\"yes\",\"surface\"=>\"asphalt\"", "access": null, "bicycle": null, "boundary": null, "bridge": null, "covered": null, "cycleway": null, "cycleway:left": null, "cycleway:right": null, "foot": null, "footway": null, "int_ref": null, "lane_markings": null, "lanes": null, "layer": null, "lit": "yes", "maxspeed": null, "nat_ref": null, "oneway": null, "operator": null, "operator:wikidata": null, "political_division": null, "ref": null, "sidewalk": null, "smoothness": null, "source:maxspeed": null, "surface": "asphalt", "toll": null, "turn:lanes": null, "was:name": null, "width": "6", "zone:maxspeed": null, "id_on_layer": 11 }, "geometry": { "type": "MultiPolygon", "coordinates": [ [ [ [ 2.474804603589929, 48.908864214300699 ], [ 2.474797196404773, 48.908935985698953 ], [ 2.474886396468353, 48.908939985701799 ], [ 2.474893803526348, 48.908868214297868 ], [ 2.474804603589929, 48.908864214300699 ] ] ] ] } },
{ "type": "Feature", "properties": { "osm_id": "25415880", "name": "Rue Paul Renaud", "highway": "residential", "waterway": null, "aerialway": null, "barrier": null, "man_made": null, "railway": null, "z_order": 3, "other_tags": "\"lanes\"=>\"1\",\"lit\"=>\"yes\",\"maxspeed\"=>\"50\",\"oneway\"=>\"yes\",\"sidewalk\"=>\"both\",\"smoothness\"=>\"good\",\"source:maxspeed\"=>\"FR:urban\",\"surface\"=>\"asphalt\"", "access": null, "bicycle": null, "boundary": null, "bridge": null, "covered": null, "cycleway": null, "cycleway:left": null, "cycleway:right": null, "foot": null, "footway": null, "int_ref": null, "lane_markings": null, "lanes": "1", "layer": null, "lit": "yes", "maxspeed": "50", "nat_ref": null, "oneway": "yes", "operator": null, "operator:wikidata": null, "political_division": null, "ref": null, "sidewalk": "both", "smoothness": "good", "source:maxspeed": "FR:urban", "surface": "asphalt", "toll": null, "turn:lanes": null, "was:name": null, "width": "6", "zone:maxspeed": null, "id_on_layer": 13 }, "geometry": { "type": "MultiPolygon", "coordinates": [ [ [ [ 2.480112324511118, 48.910298929906354 ], [ 2.479676744556196, 48.910279711678903 ], [ 2.479669455438591, 48.910351488320728 ], [ 2.480109155752094, 48.910370888334526 ], [ 2.480117389813353, 48.910370841173901 ], [ 2.480248589906525, 48.910363541168721 ], [ 2.480239410100049, 48.910291858830881 ], [ 2.480112324511118, 48.910298929906354 ] ] ] ] } },
{ "type": "Feature", "properties": { "osm_id": "25415880", "name": "Rue Paul Renaud", "highway": "residential", "waterway": null, "aerialway": null, "barrier": null, "man_made": null, "railway": null, "z_order": 3, "other_tags": "\"lanes\"=>\"1\",\"lit\"=>\"yes\",\"maxspeed\"=>\"50\",\"oneway\"=>\"yes\",\"sidewalk\"=>\"both\",\"smoothness\"=>\"good\",\"source:maxspeed\"=>\"FR:urban\",\"surface\"=>\"asphalt\"", "access": null, "bicycle": null, "boundary": null, "bridge": null, "covered": null, "cycleway": null, "cycleway:left": null, "cycleway:right": null, "foot": null, "footway": null, "int_ref": null, "lane_markings": null, "lanes": "1", "layer": null, "lit": "yes", "maxspeed": "50", "nat_ref": null, "oneway": "yes", "operator": null, "operator:wikidata": null, "political_division": null, "ref": null, "sidewalk": "both", "smoothness": "good", "source:maxspeed": "FR:urban", "surface": "asphalt", "toll": null, "turn:lanes": null, "was:name": null, "width": "6", "zone:maxspeed": null, "id_on_layer": 14 }, "geometry": { "type": "MultiPolygon", "coordinates": [ [ [ [ 2.479547774339375, 48.910273817507736 ], [ 2.479547637708269, 48.910273811377017 ], [ 2.47902313808224, 48.910250711393417 ], [ 2.479015861912556, 48.910322488606234 ], [ 2.47954029396603, 48.910345585613818 ], [ 2.47966932574723, 48.91035148249609 ], [ 2.479676874247373, 48.910279717503542 ], [ 2.479547774339375, 48.910273817507736 ] ] ] ] } },
{ "type": "Feature", "properties": { "osm_id": "45260805", "name": "Rue Jean-Jacques Rousseau", "highway": "residential", "waterway": null, "aerialway": null, "barrier": null, "man_made": null, "railway": null, "z_order": 3, "other_tags": "\"oneway\"=>\"yes\"", "access": null, "bicycle": null, "boundary": null, "bridge": null, "covered": null, "cycleway": null, "cycleway:left": null, "cycleway:right": null, "foot": null, "footway": null, "int_ref": null, "lane_markings": null, "lanes": null, "layer": null, "lit": null, "maxspeed": null, "nat_ref": null, "oneway": "yes", "operator": null, "operator:wikidata": null, "political_division": null, "ref": null, "sidewalk": null, "smoothness": null, "source:maxspeed": null, "surface": null, "toll": null, "turn:lanes": null, "was:name": null, "width": "6", "zone:maxspeed": null, "id_on_layer": 19 }, "geometry": { "type": "MultiPolygon", "coordinates": [ [ [ [ 2.47555392483419, 48.910548094688004 ], [ 2.475895424928851, 48.910407954882153 ], [ 2.476003602137062, 48.910401523200534 ], [ 2.475993797869953, 48.910329876799032 ], [ 2.475872697955824, 48.910337076793937 ], [ 2.475848760027258, 48.910342365347169 ], [ 2.475495660159035, 48.910487265259661 ], [ 2.475494499626068, 48.910487755008532 ], [ 2.475421199650981, 48.910519554989612 ], [ 2.475481200385001, 48.910579645002414 ], [ 2.47555392483419, 48.910548094688004 ] ] ] ] } },
{ "type": "Feature", "properties": { "osm_id": "45260833", "name": "Avenue des Mesarmes", "highway": "unclassified", "waterway": null, "aerialway": null, "barrier": null, "man_made": null, "railway": null, "z_order": 3, "other_tags": null, "access": null, "bicycle": null, "boundary": null, "bridge": null, "covered": null, "cycleway": null, "cycleway:left": null, "cycleway:right": null, "foot": null, "footway": null, "int_ref": null, "lane_markings": null, "lanes": null, "layer": null, "lit": null, "maxspeed": null, "nat_ref": null, "oneway": null, "operator": null, "operator:wikidata": null, "political_division": null, "ref": null, "sidewalk": null, "smoothness": null, "source:maxspeed": null, "surface": null, "toll": null, "turn:lanes": null, "was:name": null, "width": "4", "zone:maxspeed": null, "id_on_layer": 21 }, "geometry": { "type": "MultiPolygon", "coordinates": [ [ [ [ 2.483000252059612, 48.90960634107703 ], [ 2.483081947943099, 48.909609658908501 ], [ 2.483105847735456, 48.90935395890012 ], [ 2.483024152267255, 48.909350641085403 ], [ 2.483000252059612, 48.90960634107703 ] ] ] ] } },
{ "type": "Feature", "properties": { "osm_id": "132451199", "name": "Allée des Lauriers", "highway": "residential", "waterway": null, "aerialway": null, "barrier": null, "man_made": null, "railway": null, "z_order": 3, "other_tags": "\"lit\"=>\"yes\"", "access": null, "bicycle": null, "boundary": null, "bridge": null, "covered": null, "cycleway": null, "cycleway:left": null, "cycleway:right": null, "foot": null, "footway": null, "int_ref": null, "lane_markings": null, "lanes": null, "layer": null, "lit": "yes", "maxspeed": null, "nat_ref": null, "oneway": null, "operator": null, "operator:wikidata": null, "political_division": null, "ref": null, "sidewalk": null, "smoothness": null, "source:maxspeed": null, "surface": null, "toll": null, "turn:lanes": null, "was:name": null, "width": "6", "zone:maxspeed": null, "id_on_layer": 29 }, "geometry": { "type": "MultiPolygon", "coordinates": [ [ [ [ 2.476271152961828, 48.909574614675144 ], [ 2.476380047043363, 48.909579385299153 ], [ 2.47644094639001, 48.908975385270644 ], [ 2.476332053615181, 48.908970614703641 ], [ 2.476271152961828, 48.909574614675144 ] ] ] ] } },
{ "type": "Feature", "properties": { "osm_id": "132451200", "name": "Allée des Tulipes", "highway": "residential", "waterway": null, "aerialway": null, "barrier": null, "man_made": null, "railway": null, "z_order": 3, "other_tags": "\"lit\"=>\"yes\",\"surface\"=>\"asphalt\"", "access": null, "bicycle": null, "boundary": null, "bridge": null, "covered": null, "cycleway": null, "cycleway:left": null, "cycleway:right": null, "foot": null, "footway": null, "int_ref": null, "lane_markings": null, "lanes": null, "layer": null, "lit": "yes", "maxspeed": null, "nat_ref": null, "oneway": null, "operator": null, "operator:wikidata": null, "political_division": null, "ref": null, "sidewalk": null, "smoothness": null, "source:maxspeed": null, "surface": "asphalt", "toll": null, "turn:lanes": null, "was:name": null, "width": "6", "zone:maxspeed": null, "id_on_layer": 30 }, "geometry": { "type": "MultiPolygon", "coordinates": [ [ [ [ 2.475895523888125, 48.909507904094539 ], [ 2.47578667611754, 48.909502695879773 ], [ 2.475780476056717, 48.909558995876864 ], [ 2.475889323948949, 48.909564204097443 ], [ 2.475895523888125, 48.909507904094539 ] ] ] ] } },
{ "type": "Feature", "properties": { "osm_id": "132451200", "name": "Allée des Tulipes", "highway": "residential", "waterway": null, "aerialway": null, "barrier": null, "man_made": null, "railway": null, "z_order": 3, "other_tags": "\"lit\"=>\"yes\",\"surface\"=>\"asphalt\"", "access": null, "bicycle": null, "boundary": null, "bridge": null, "covered": null, "cycleway": null, "cycleway:left": null, "cycleway:right": null, "foot": null, "footway": null, "int_ref": null, "lane_markings": null, "lanes": null, "layer": null, "lit": "yes", "maxspeed": null, "nat_ref": null, "oneway": null, "operator": null, "operator:wikidata": null, "political_division": null, "ref": null, "sidewalk": null, "smoothness": null, "source:maxspeed": null, "surface": "asphalt", "toll": null, "turn:lanes": null, "was:name": null, "width": "6", "zone:maxspeed": null, "id_on_layer": 31 }, "geometry": { "type": "MultiPolygon", "coordinates": [ [ [ [ 2.475915023900407, 48.909330702234833 ], [ 2.475806176105253, 48.909325497739481 ], [ 2.475786675913816, 48.909502697730353 ], [ 2.475895524091845, 48.909507902243959 ], [ 2.475915023900407, 48.909330702234833 ] ] ] ] } },
{ "type": "Feature", "properties": { "osm_id": "132451200", "name": "Allée des Tulipes", "highway": "residential", "waterway": null, "aerialway": null, "barrier": null, "man_made": null, "railway": null, "z_order": 3, "other_tags": "\"lit\"=>\"yes\",\"surface\"=>\"asphalt\"", "access": null, "bicycle": null, "boundary": null, "bridge": null, "covered": null, "cycleway": null, "cycleway:left": null, "cycleway:right": null, "foot": null, "footway": null, "int_ref": null, "lane_markings": null, "lanes": null, "layer": null, "lit": "yes", "maxspeed": null, "nat_ref": null, "oneway": null, "operator": null, "operator:wikidata": null, "political_division": null, "ref": null, "sidewalk": null, "smoothness": null, "source:maxspeed": null, "surface": "asphalt", "toll": null, "turn:lanes": null, "was:name": null, "width": "6", "zone:maxspeed": null, "id_on_layer": 32 }, "geometry": { "type": "MultiPolygon", "coordinates": [ [ [ [ 2.475954138809642, 48.908954459080171 ], [ 2.475845261195709, 48.90894954089412 ], [ 2.475806160789052, 48.909325640875821 ], [ 2.475915039216299, 48.909330559098478 ], [ 2.475954138809642, 48.908954459080171 ] ] ] ] } },
{ "type": "Feature", "properties": { "osm_id": "132451201", "name": "Rue Henri Mouly", "highway": "residential", "waterway": null, "aerialway": null, "barrier": null, "man_made": null, "railway": null, "z_order": 3, "other_tags": "\"lit\"=>\"yes\",\"surface\"=>\"asphalt\"", "access": null, "bicycle": null, "boundary": null, "bridge": null, "covered": null, "cycleway": null, "cycleway:left": null, "cycleway:right": null, "foot": null, "footway": null, "int_ref": null, "lane_markings": null, "lanes": null, "layer": null, "lit": "yes", "maxspeed": null, "nat_ref": null, "oneway": null, "operator": null, "operator:wikidata": null, "political_division": null, "ref": null, "sidewalk": null, "smoothness": null, "source:maxspeed": null, "surface": "asphalt", "toll": null, "turn:lanes": null, "was:name": null, "width": "6", "zone:maxspeed": null, "id_on_layer": 33 }, "geometry": { "type": "MultiPolygon", "coordinates": [ [ [ [ 2.479678815831492, 48.909706228897619 ], [ 2.479040522702295, 48.909675129232269 ], [ 2.478383911244486, 48.909643228674696 ], [ 2.477758213526215, 48.909612828785498 ], [ 2.477098433779064, 48.909580734635313 ], [ 2.476329851896749, 48.909541140719746 ], [ 2.476321348097172, 48.909612859279875 ], [ 2.477090048643892, 48.909652459307985 ], [ 2.477090283821937, 48.909652471085508 ], [ 2.477750184291744, 48.909684571108279 ], [ 2.47837588891293, 48.909714971332853 ], [ 2.479032483278268, 48.909746871059049 ], [ 2.479670777746374, 48.909777970789435 ], [ 2.479983790836198, 48.909793171426081 ], [ 2.47999180915807, 48.909721428573562 ], [ 2.479678815831492, 48.909706228897619 ] ] ] ] } },
{ "type": "Feature", "properties": { "osm_id": "132451201", "name": "Rue Henri Mouly", "highway": "residential", "waterway": null, "aerialway": null, "barrier": null, "man_made": null, "railway": null, "z_order": 3, "other_tags": "\"lit\"=>\"yes\",\"surface\"=>\"asphalt\"", "access": null, "bicycle": null, "boundary": null, "bridge": null, "covered": null, "cycleway": null, "cycleway:left": null, "cycleway:right": null, "foot": null, "footway": null, "int_ref": null, "lane_markings": null, "lanes": null, "layer": null, "lit": "yes", "maxspeed": null, "nat_ref": null, "oneway": null, "operator": null, "operator:wikidata": null, "political_division": null, "ref": null, "sidewalk": null, "smoothness": null, "source:maxspeed": null, "surface": "asphalt", "toll": null, "turn:lanes": null, "was:name": null, "width": "6", "zone:maxspeed": null, "id_on_layer": 34 }, "geometry": { "type": "MultiPolygon", "coordinates": [ [ [ [ 2.476039405578265, 48.909531972388571 ], [ 2.476034194418006, 48.90960382761115 ], [ 2.47632299462459, 48.909612927617616 ], [ 2.47632820537168, 48.90954107238209 ], [ 2.476039405578265, 48.909531972388571 ] ] ] ] } },
{ "type": "Feature", "properties": { "osm_id": "132451201", "name": "Rue Henri Mouly", "highway": "residential", "waterway": null, "aerialway": null, "barrier": null, "man_made": null, "railway": null, "z_order": 3, "other_tags": "\"lit\"=>\"yes\",\"surface\"=>\"asphalt\"", "access": null, "bicycle": null, "boundary": null, "bridge": null, "covered": null, "cycleway": null, "cycleway:left": null, "cycleway:right": null, "foot": null, "footway": null, "int_ref": null, "lane_markings": null, "lanes": null, "layer": null, "lit": "yes", "maxspeed": null, "nat_ref": null, "oneway": null, "operator": null, "operator:wikidata": null, "political_division": null, "ref": null, "sidewalk": null, "smoothness": null, "source:maxspeed": null, "surface": "asphalt", "toll": null, "turn:lanes": null, "was:name": null, "width": "6", "zone:maxspeed": null, "id_on_layer": 35 }, "geometry": { "type": "MultiPolygon", "coordinates": [ [ [ [ 2.475837480290048, 48.909525671595574 ], [ 2.475832319706259, 48.909597528404156 ], [ 2.476034219850692, 48.909603828408628 ], [ 2.476039380145615, 48.909531971591086 ], [ 2.475837480290048, 48.909525671595574 ] ] ] ] } },
{ "type": "Feature", "properties": { "osm_id": "132451202", "name": null, "highway": "residential", "waterway": null, "aerialway": null, "barrier": null, "man_made": null, "railway": null, "z_order": 3, "other_tags": "\"lit\"=>\"yes\"", "access": null, "bicycle": null, "boundary": null, "bridge": null, "covered": null, "cycleway": null, "cycleway:left": null, "cycleway:right": null, "foot": null, "footway": null, "int_ref": null, "lane_markings": null, "lanes": null, "layer": null, "lit": "yes", "maxspeed": null, "nat_ref": null, "oneway": null, "operator": null, "operator:wikidata": null, "political_division": null, "ref": null, "sidewalk": null, "smoothness": null, "source:maxspeed": null, "surface": null, "toll": null, "turn:lanes": null, "was:name": null, "width": "6", "zone:maxspeed": null, "id_on_layer": 37 }, "geometry": { "type": "MultiPolygon", "coordinates": [ [ [ [ 2.478456066332449, 48.909465017719711 ], [ 2.4785847884755, 48.909430056127412 ], [ 2.4785432115521, 48.909363543868643 ], [ 2.478389311636894, 48.909405343841144 ], [ 2.478375663410795, 48.909410698727392 ], [ 2.478364932772566, 48.909418417509677 ], [ 2.478358028861005, 48.909427846225682 ], [ 2.478350328845824, 48.909444046222227 ], [ 2.478347950341817, 48.909452442134985 ], [ 2.478333150181156, 48.909600942128051 ], [ 2.478442049823975, 48.909605657846228 ], [ 2.478456066332449, 48.909465017719711 ] ] ] ] } },
{ "type": "Feature", "properties": { "osm_id": "132451202", "name": null, "highway": "residential", "waterway": null, "aerialway": null, "barrier": null, "man_made": null, "railway": null, "z_order": 3, "other_tags": "\"lit\"=>\"yes\"", "access": null, "bicycle": null, "boundary": null, "bridge": null, "covered": null, "cycleway": null, "cycleway:left": null, "cycleway:right": null, "foot": null, "footway": null, "int_ref": null, "lane_markings": null, "lanes": null, "layer": null, "lit": "yes", "maxspeed": null, "nat_ref": null, "oneway": null, "operator": null, "operator:wikidata": null, "political_division": null, "ref": null, "sidewalk": null, "smoothness": null, "source:maxspeed": null, "surface": null, "toll": null, "turn:lanes": null, "was:name": null, "width": "6", "zone:maxspeed": null, "id_on_layer": 38 }, "geometry": { "type": "MultiPolygon", "coordinates": [ [ [ [ 2.478640459952536, 48.909176635274022 ], [ 2.47876566414835, 48.909180626653722 ], [ 2.478770935847878, 48.909108773345991 ], [ 2.478592135975765, 48.909103073350039 ], [ 2.47857534142308, 48.909104263270194 ], [ 2.478559903589167, 48.909108781776112 ], [ 2.478547301775916, 48.909116195890469 ], [ 2.478538743530228, 48.909125795169501 ], [ 2.478535048933031, 48.90913665977957 ], [ 2.478509548654096, 48.909394459767618 ], [ 2.478618451350997, 48.909399140206645 ], [ 2.478640459952536, 48.909176635274022 ] ] ] ] } },
{ "type": "Feature", "properties": { "osm_id": "132451202", "name": null, "highway": "residential", "waterway": null, "aerialway": null, "barrier": null, "man_made": null, "railway": null, "z_order": 3, "other_tags": "\"lit\"=>\"yes\"", "access": null, "bicycle": null, "boundary": null, "bridge": null, "covered": null, "cycleway": null, "cycleway:left": null, "cycleway:right": null, "foot": null, "footway": null, "int_ref": null, "lane_markings": null, "lanes": null, "layer": null, "lit": "yes", "maxspeed": null, "nat_ref": null, "oneway": null, "operator": null, "operator:wikidata": null, "political_division": null, "ref": null, "sidewalk": null, "smoothness": null, "source:maxspeed": null, "surface": null, "toll": null, "turn:lanes": null, "was:name": null, "width": "6", "zone:maxspeed": null, "id_on_layer": 39 }, "geometry": { "type": "MultiPolygon", "coordinates": [ [ [ [ 2.478891525050861, 48.909184729353385 ], [ 2.478871331187267, 48.90940634345997 ], [ 2.478980268817427, 48.909410656514289 ], [ 2.479003768538114, 48.909152756503296 ], [ 2.479002084462473, 48.909141482374338 ], [ 2.478995164213702, 48.909131112707414 ], [ 2.478983694277237, 48.909122676164245 ], [ 2.478968812461863, 48.909117009641918 ], [ 2.478951995029851, 48.909114675253868 ], [ 2.478770995159292, 48.90910877525809 ], [ 2.478765604836851, 48.90918062474163 ], [ 2.478891525050861, 48.909184729353385 ] ] ] ] } },
{ "type": "Feature", "properties": { "osm_id": "132451202", "name": null, "highway": "residential", "waterway": null, "aerialway": null, "barrier": null, "man_made": null, "railway": null, "z_order": 3, "other_tags": "\"lit\"=>\"yes\"", "access": null, "bicycle": null, "boundary": null, "bridge": null, "covered": null, "cycleway": null, "cycleway:left": null, "cycleway:right": null, "foot": null, "footway": null, "int_ref": null, "lane_markings": null, "lanes": null, "layer": null, "lit": "yes", "maxspeed": null, "nat_ref": null, "oneway": null, "operator": null, "operator:wikidata": null, "political_division": null, "ref": null, "sidewalk": null, "smoothness": null, "source:maxspeed": null, "surface": null, "toll": null, "turn:lanes": null, "was:name": null, "width": "6", "zone:maxspeed": null, "id_on_layer": 40 }, "geometry": { "type": "MultiPolygon", "coordinates": [ [ [ [ 2.47900881430839, 48.909476673425296 ], [ 2.479010201837728, 48.909479621931133 ], [ 2.478995944139478, 48.909626503266061 ], [ 2.479104855865521, 48.909631096708225 ], [ 2.479119755699394, 48.909477596701244 ], [ 2.479117417232954, 48.909464643605908 ], [ 2.479106217210583, 48.909440843610923 ], [ 2.479100118573038, 48.909432171186218 ], [ 2.479090769849338, 48.909424863870875 ], [ 2.479078831299163, 48.909419437747843 ], [ 2.478950531360031, 48.909376437775109 ], [ 2.478901068608329, 48.909440562219395 ], [ 2.47900881430839, 48.909476673425296 ] ] ] ] } },
{ "type": "Feature", "properties": { "osm_id": "132451205", "name": null, "highway": "residential", "waterway": null, "aerialway": null, "barrier": null, "man_made": null, "railway": null, "z_order": 3, "other_tags": "\"lit\"=>\"yes\"", "access": null, "bicycle": null, "boundary": null, "bridge": null, "covered": null, "cycleway": null, "cycleway:left": null, "cycleway:right": null, "foot": null, "footway": null, "int_ref": null, "lane_markings": null, "lanes": null, "layer": null, "lit": "yes", "maxspeed": null, "nat_ref": null, "oneway": null, "operator": null, "operator:wikidata": null, "political_division": null, "ref": null, "sidewalk": null, "smoothness": null, "source:maxspeed": null, "surface": null, "toll": null, "turn:lanes": null, "was:name": null, "width": "6", "zone:maxspeed": null, "id_on_layer": 43 }, "geometry": { "type": "MultiPolygon", "coordinates": [ [ [ [ 2.477653847969323, 48.909395008582187 ], [ 2.477660152026167, 48.909323191417506 ], [ 2.477251152318265, 48.909307591428586 ], [ 2.477244847677224, 48.909379408571084 ], [ 2.477653847969323, 48.909395008582187 ] ] ] ] } },
{ "type": "Feature", "properties": { "osm_id": "132451206", "name": null, "highway": "residential", "waterway": null, "aerialway": null, "barrier": null, "man_made": null, "railway": null, "z_order": 3, "other_tags": "\"lit\"=>\"yes\"", "access": null, "bicycle": null, "boundary": null, "bridge": null, "covered": null, "cycleway": null, "cycleway:left": null, "cycleway:right": null, "foot": null, "footway": null, "int_ref": null, "lane_markings": null, "lanes": null, "layer": null, "lit": "yes", "maxspeed": null, "nat_ref": null, "oneway": null, "operator": null, "operator:wikidata": null, "political_division": null, "ref": null, "sidewalk": null, "smoothness": null, "source:maxspeed": null, "surface": null, "toll": null, "turn:lanes": null, "was:name": null, "width": "6", "zone:maxspeed": null, "id_on_layer": 44 }, "geometry": { "type": "MultiPolygon", "coordinates": [ [ [ [ 2.478923126314764, 48.909444425437748 ], [ 2.478928473681409, 48.909372574561935 ], [ 2.478566673940165, 48.909360874570247 ], [ 2.478561326056009, 48.90943272542944 ], [ 2.478923126314764, 48.909444425437748 ] ] ] ] } },
{ "type": "Feature", "properties": { "osm_id": "132451207", "name": null, "highway": "residential", "waterway": null, "aerialway": null, "barrier": null, "man_made": null, "railway": null, "z_order": 3, "other_tags": "\"lit\"=>\"yes\"", "access": null, "bicycle": null, "boundary": null, "bridge": null, "covered": null, "cycleway": null, "cycleway:left": null, "cycleway:right": null, "foot": null, "footway": null, "int_ref": null, "lane_markings": null, "lanes": null, "layer": null, "lit": "yes", "maxspeed": null, "nat_ref": null, "oneway": null, "operator": null, "operator:wikidata": null, "political_division": null, "ref": null, "sidewalk": null, "smoothness": null, "source:maxspeed": null, "surface": null, "toll": null, "turn:lanes": null, "was:name": null, "width": "6", "zone:maxspeed": null, "id_on_layer": 45 }, "geometry": { "type": "MultiPolygon", "coordinates": [ [ [ [ 2.477170641388386, 48.909406083062912 ], [ 2.477173666701028, 48.909401296740313 ], [ 2.477184131698872, 48.909397076427965 ], [ 2.47723186068073, 48.909386041341548 ], [ 2.477233249289441, 48.909385706294799 ], [ 2.477267449309039, 48.909377106289099 ], [ 2.477228550717055, 48.909309893707416 ], [ 2.477195041596405, 48.90931831997689 ], [ 2.477142539375342, 48.909330458647162 ], [ 2.477132122673958, 48.909333718046341 ], [ 2.477101622685643, 48.909346018038882 ], [ 2.477088656604567, 48.909353301990549 ], [ 2.477079730087031, 48.909362866591714 ], [ 2.47706633006942, 48.909384066585908 ], [ 2.477062223657255, 48.909395827881049 ], [ 2.477049223496357, 48.909544327874954 ], [ 2.477158176508156, 48.90954847209931 ], [ 2.477170641388386, 48.909406083062912 ] ] ] ] } },
{ "type": "Feature", "properties": { "osm_id": "132451207", "name": null, "highway": "residential", "waterway": null, "aerialway": null, "barrier": null, "man_made": null, "railway": null, "z_order": 3, "other_tags": "\"lit\"=>\"yes\"", "access": null, "bicycle": null, "boundary": null, "bridge": null, "covered": null, "cycleway": null, "cycleway:left": null, "cycleway:right": null, "foot": null, "footway": null, "int_ref": null, "lane_markings": null, "lanes": null, "layer": null, "lit": "yes", "maxspeed": null, "nat_ref": null, "oneway": null, "operator": null, "operator:wikidata": null, "political_division": null, "ref": null, "sidewalk": null, "smoothness": null, "source:maxspeed": null, "surface": null, "toll": null, "turn:lanes": null, "was:name": null, "width": "6", "zone:maxspeed": null, "id_on_layer": 46 }, "geometry": { "type": "MultiPolygon", "coordinates": [ [ [ [ 2.47731026817148, 48.90935695398862 ], [ 2.477323805243578, 48.909346628352061 ], [ 2.477330532445629, 48.909333721826052 ], [ 2.477334532425868, 48.909315021824206 ], [ 2.477334956002817, 48.909312291719374 ], [ 2.477353561602444, 48.909120194073573 ], [ 2.477354798503606, 48.909117933526289 ], [ 2.477489073658947, 48.909119760979458 ], [ 2.477491326339443, 48.909047839020275 ], [ 2.477337026450124, 48.909045739021792 ], [ 2.477321722426026, 48.909046966639558 ], [ 2.477307550132406, 48.909050966865443 ], [ 2.477282850141953, 48.909060866859448 ], [ 2.477268953487623, 48.909068834803278 ], [ 2.477259870042513, 48.909079396423564 ], [ 2.477248270023623, 48.909100596418433 ], [ 2.477245144215594, 48.909110508263851 ], [ 2.477226176733874, 48.90930633787297 ], [ 2.477225525774475, 48.909309381093614 ], [ 2.477214231872702, 48.909315245993078 ], [ 2.477281768165384, 48.909371753996886 ], [ 2.47731026817148, 48.90935695398862 ] ] ] ] } },
{ "type": "Feature", "properties": { "osm_id": "132451207", "name": null, "highway": "residential", "waterway": null, "aerialway": null, "barrier": null, "man_made": null, "railway": null, "z_order": 3, "other_tags": "\"lit\"=>\"yes\"", "access": null, "bicycle": null, "boundary": null, "bridge": null, "covered": null, "cycleway": null, "cycleway:left": null, "cycleway:right": null, "foot": null, "footway": null, "int_ref": null, "lane_markings": null, "lanes": null, "layer": null, "lit": "yes", "maxspeed": null, "nat_ref": null, "oneway": null, "operator": null, "operator:wikidata": null, "political_division": null, "ref": null, "sidewalk": null, "smoothness": null, "source:maxspeed": null, "surface": null, "toll": null, "turn:lanes": null, "was:name": null, "width": "6", "zone:maxspeed": null, "id_on_layer": 47 }, "geometry": { "type": "MultiPolygon", "coordinates": [ [ [ [ 2.477587933206877, 48.909126062741116 ], [ 2.477603483018292, 48.909127921570857 ], [ 2.4776030679796, 48.909131874278152 ], [ 2.477582072348038, 48.909325232112735 ], [ 2.477582313186252, 48.909332037934583 ], [ 2.477585913164931, 48.909352037936266 ], [ 2.477590922266007, 48.909363386158724 ], [ 2.477601241044974, 48.909373051559037 ], [ 2.477618141044728, 48.90938435156469 ], [ 2.477695858916117, 48.909333848422101 ], [ 2.477692084035967, 48.909331324391772 ], [ 2.477691297973728, 48.90932695740478 ], [ 2.477711927448566, 48.90913696785173 ], [ 2.477711936452911, 48.90913688353367 ], [ 2.477714036431288, 48.90911688353269 ], [ 2.477712051202368, 48.909104481948631 ], [ 2.477703761189126, 48.909093272544418 ], [ 2.477683061181286, 48.909074472552277 ], [ 2.477667939846345, 48.909065148064251 ], [ 2.477648636813506, 48.909060208618584 ], [ 2.477605136843217, 48.909055008622211 ], [ 2.477600570073953, 48.909054593169174 ], [ 2.477495370148441, 48.909047993173843 ], [ 2.477485029844177, 48.909119606825676 ], [ 2.477587933206877, 48.909126062741116 ] ] ] ] } },
{ "type": "Feature", "properties": { "osm_id": "132451207", "name": null, "highway": "residential", "waterway": null, "aerialway": null, "barrier": null, "man_made": null, "railway": null, "z_order": 3, "other_tags": "\"lit\"=>\"yes\"", "access": null, "bicycle": null, "boundary": null, "bridge": null, "covered": null, "cycleway": null, "cycleway:left": null, "cycleway:right": null, "foot": null, "footway": null, "int_ref": null, "lane_markings": null, "lanes": null, "layer": null, "lit": "yes", "maxspeed": null, "nat_ref": null, "oneway": null, "operator": null, "operator:wikidata": null, "political_division": null, "ref": null, "sidewalk": null, "smoothness": null, "source:maxspeed": null, "surface": null, "toll": null, "turn:lanes": null, "was:name": null, "width": "6", "zone:maxspeed": null, "id_on_layer": 48 }, "geometry": { "type": "MultiPolygon", "coordinates": [ [ [ [ 2.47771603393164, 48.909423179612979 ], [ 2.477717625032656, 48.909424601248787 ], [ 2.477718970627787, 48.909432039443139 ], [ 2.477708201031127, 48.909573902361807 ], [ 2.477817198972791, 48.909577497612432 ], [ 2.477828198815597, 48.909432597607278 ], [ 2.477827883127699, 48.909426541046976 ], [ 2.477824283106487, 48.909406641048648 ], [ 2.477820831945042, 48.909397653825643 ], [ 2.477814010587716, 48.909389546566146 ], [ 2.477797110581685, 48.909374446572528 ], [ 2.477780533264327, 48.909364669214639 ], [ 2.477684333304071, 48.909327969237246 ], [ 2.477629666661976, 48.909390230756102 ], [ 2.47771603393164, 48.909423179612979 ] ] ] ] } },
{ "type": "Feature", "properties": { "osm_id": "132451208", "name": null, "highway": "residential", "waterway": null, "aerialway": null, "barrier": null, "man_made": null, "railway": null, "z_order": 3, "other_tags": "\"lit\"=>\"yes\",\"surface\"=>\"asphalt\"", "access": null, "bicycle": null, "boundary": null, "bridge": null, "covered": null, "cycleway": null, "cycleway:left": null, "cycleway:right": null, "foot": null, "footway": null, "int_ref": null, "lane_markings": null, "lanes": null, "layer": null, "lit": "yes", "maxspeed": null, "nat_ref": null, "oneway": null, "operator": null, "operator:wikidata": null, "political_division": null, "ref": null, "sidewalk": null, "smoothness": null, "source:maxspeed": null, "surface": "asphalt", "toll": null, "turn:lanes": null, "was:name": null, "width": "6", "zone:maxspeed": null, "id_on_layer": 49 }, "geometry": { "type": "MultiPolygon", "coordinates": [ [ [ [ 2.479757809861361, 48.909516212822744 ], [ 2.479846584957069, 48.909488891300313 ], [ 2.479852536712096, 48.909486753326171 ], [ 2.479873536719817, 48.90947805332091 ], [ 2.479890262446133, 48.909467191263403 ], [ 2.479903662438951, 48.909453591258128 ], [ 2.479909630075411, 48.909445446677076 ], [ 2.479912326638903, 48.909436578283746 ], [ 2.47994602630492, 48.909127478267997 ], [ 2.479837173700687, 48.90912232170632 ], [ 2.479804536177908, 48.909421673628394 ], [ 2.479797338280207, 48.909424655613442 ], [ 2.47968831512998, 48.909458208672625 ], [ 2.479674989368469, 48.909464009791122 ], [ 2.47966478217768, 48.909472105493933 ], [ 2.479658567805423, 48.909481802383937 ], [ 2.479650767785844, 48.909501702380396 ], [ 2.479649104546124, 48.909508857551643 ], [ 2.479639004405337, 48.909638657546907 ], [ 2.479747995598677, 48.909642342427325 ], [ 2.479757809861361, 48.909516212822744 ] ] ] ] } },
{ "type": "Feature", "properties": { "osm_id": "132451778", "name": null, "highway": "residential", "waterway": null, "aerialway": null, "barrier": null, "man_made": null, "railway": null, "z_order": 3, "other_tags": "\"lit\"=>\"yes\"", "access": null, "bicycle": null, "boundary": null, "bridge": null, "covered": null, "cycleway": null, "cycleway:left": null, "cycleway:right": null, "foot": null, "footway": null, "int_ref": null, "lane_markings": null, "lanes": null, "layer": null, "lit": "yes", "maxspeed": null, "nat_ref": null, "oneway": null, "operator": null, "operator:wikidata": null, "political_division": null, "ref": null, "sidewalk": null, "smoothness": null, "source:maxspeed": null, "surface": null, "toll": null, "turn:lanes": null, "was:name": null, "width": "6", "zone:maxspeed": null, "id_on_layer": 52 }, "geometry": { "type": "MultiPolygon", "coordinates": [ [ [ [ 2.477435889025062, 48.9090803223324 ], [ 2.477544510982484, 48.909087277641994 ], [ 2.477552910921291, 48.909030277638088 ], [ 2.477444289086255, 48.909023322336338 ], [ 2.477435889025062, 48.9090803223324 ] ] ] ] } },
{ "type": "Feature", "properties": { "osm_id": "132451779", "name": null, "highway": "residential", "waterway": null, "aerialway": null, "barrier": null, "man_made": null, "railway": null, "z_order": 3, "other_tags": "\"lit\"=>\"yes\"", "access": null, "bicycle": null, "boundary": null, "bridge": null, "covered": null, "cycleway": null, "cycleway:left": null, "cycleway:right": null, "foot": null, "footway": null, "int_ref": null, "lane_markings": null, "lanes": null, "layer": null, "lit": "yes", "maxspeed": null, "nat_ref": null, "oneway": null, "operator": null, "operator:wikidata": null, "political_division": null, "ref": null, "sidewalk": null, "smoothness": null, "source:maxspeed": null, "surface": null, "toll": null, "turn:lanes": null, "was:name": null, "width": "6", "zone:maxspeed": null, "id_on_layer": 53 }, "geometry": { "type": "MultiPolygon", "coordinates": [ [ [ [ 2.478713927242537, 48.909141670195346 ], [ 2.478822672764045, 48.909147729779022 ], [ 2.478831072693484, 48.90908222977508 ], [ 2.478722327313098, 48.909076170199256 ], [ 2.478713927242537, 48.909141670195346 ] ] ] ] } },
{ "type": "Feature", "properties": { "osm_id": "134576761", "name": "Allée des Azalées", "highway": "residential", "waterway": null, "aerialway": null, "barrier": null, "man_made": null, "railway": null, "z_order": 3, "other_tags": "\"surface\"=>\"asphalt\"", "access": null, "bicycle": null, "boundary": null, "bridge": null, "covered": null, "cycleway": null, "cycleway:left": null, "cycleway:right": null, "foot": null, "footway": null, "int_ref": null, "lane_markings": null, "lanes": null, "layer": null, "lit": null, "maxspeed": null, "nat_ref": null, "oneway": null, "operator": null, "operator:wikidata": null, "political_division": null, "ref": null, "sidewalk": null, "smoothness": null, "source:maxspeed": null, "surface": "asphalt", "toll": null, "turn:lanes": null, "was:name": null, "width": "6", "zone:maxspeed": null, "id_on_layer": 55 }, "geometry": { "type": "MultiPolygon", "coordinates": [ [ [ [ 2.47512676920937, 48.908914546270367 ], [ 2.475017830795304, 48.908910253703915 ], [ 2.47499193048598, 48.909195853691784 ], [ 2.475100869518695, 48.909200146282508 ], [ 2.47512676920937, 48.908914546270367 ] ] ] ] } },
{ "type": "Feature", "properties": { "osm_id": "134577036", "name": null, "highway": "residential", "waterway": null, "aerialway": null, "barrier": null, "man_made": null, "railway": null, "z_order": 3, "other_tags": null, "access": null, "bicycle": null, "boundary": null, "bridge": null, "covered": null, "cycleway": null, "cycleway:left": null, "cycleway:right": null, "foot": null, "footway": null, "int_ref": null, "lane_markings": null, "lanes": null, "layer": null, "lit": null, "maxspeed": null, "nat_ref": null, "oneway": null, "operator": null, "operator:wikidata": null, "political_division": null, "ref": null, "sidewalk": null, "smoothness": null, "source:maxspeed": null, "surface": null, "toll": null, "turn:lanes": null, "was:name": null, "width": "6", "zone:maxspeed": null, "id_on_layer": 56 }, "geometry": { "type": "MultiPolygon", "coordinates": [ [ [ [ 2.475120618363964, 48.909442090140992 ], [ 2.475114381631573, 48.909513909858696 ], [ 2.475837982148409, 48.9095412098781 ], [ 2.475844217847128, 48.909469390121593 ], [ 2.475120618363964, 48.909442090140992 ] ] ] ] } },
{ "type": "Feature", "properties": { "osm_id": "134577038", "name": null, "highway": "residential", "waterway": null, "aerialway": null, "barrier": null, "man_made": null, "railway": null, "z_order": 3, "other_tags": null, "access": null, "bicycle": null, "boundary": null, "bridge": null, "covered": null, "cycleway": null, "cycleway:left": null, "cycleway:right": null, "foot": null, "footway": null, "int_ref": null, "lane_markings": null, "lanes": null, "layer": null, "lit": null, "maxspeed": null, "nat_ref": null, "oneway": null, "operator": null, "operator:wikidata": null, "political_division": null, "ref": null, "sidewalk": null, "smoothness": null, "source:maxspeed": null, "surface": null, "toll": null, "turn:lanes": null, "was:name": null, "width": "6", "zone:maxspeed": null, "id_on_layer": 57 }, "geometry": { "type": "MultiPolygon", "coordinates": [ [ [ [ 2.474981622261122, 48.909262079499896 ], [ 2.474975977734839, 48.909333920499797 ], [ 2.475857778365228, 48.909364020521195 ], [ 2.475863421630732, 48.909292179478506 ], [ 2.474981622261122, 48.909262079499896 ] ] ] ] } },
{ "type": "Feature", "properties": { "osm_id": "134577039", "name": null, "highway": "residential", "waterway": null, "aerialway": null, "barrier": null, "man_made": null, "railway": null, "z_order": 3, "other_tags": "\"surface\"=>\"asphalt\"", "access": null, "bicycle": null, "boundary": null, "bridge": null, "covered": null, "cycleway": null, "cycleway:left": null, "cycleway:right": null, "foot": null, "footway": null, "int_ref": null, "lane_markings": null, "lanes": null, "layer": null, "lit": null, "maxspeed": null, "nat_ref": null, "oneway": null, "operator": null, "operator:wikidata": null, "political_division": null, "ref": null, "sidewalk": null, "smoothness": null, "source:maxspeed": null, "surface": "asphalt", "toll": null, "turn:lanes": null, "was:name": null, "width": "6", "zone:maxspeed": null, "id_on_layer": 59 }, "geometry": { "type": "MultiPolygon", "coordinates": [ [ [ [ 2.475027450921676, 48.909281711396822 ], [ 2.474930149046705, 48.9093142885826 ], [ 2.475068848917029, 48.909494288640609 ], [ 2.475166151051351, 48.909461711338821 ], [ 2.475027450921676, 48.909281711396822 ] ] ] ] } },
{ "type": "Feature", "properties": { "osm_id": "134577039", "name": null, "highway": "residential", "waterway": null, "aerialway": null, "barrier": null, "man_made": null, "railway": null, "z_order": 3, "other_tags": "\"surface\"=>\"asphalt\"", "access": null, "bicycle": null, "boundary": null, "bridge": null, "covered": null, "cycleway": null, "cycleway:left": null, "cycleway:right": null, "foot": null, "footway": null, "int_ref": null, "lane_markings": null, "lanes": null, "layer": null, "lit": null, "maxspeed": null, "nat_ref": null, "oneway": null, "operator": null, "operator:wikidata": null, "political_division": null, "ref": null, "sidewalk": null, "smoothness": null, "source:maxspeed": null, "surface": "asphalt", "toll": null, "turn:lanes": null, "was:name": null, "width": "6", "zone:maxspeed": null, "id_on_layer": 60 }, "geometry": { "type": "MultiPolygon", "coordinates": [ [ [ [ 2.474848284445257, 48.909049229948423 ], [ 2.47485543873941, 48.908901245663301 ], [ 2.474746361263092, 48.908898954310892 ], [ 2.474738761092178, 48.909056154307343 ], [ 2.474740037706991, 48.909065117264298 ], [ 2.474744650782446, 48.909073590532486 ], [ 2.474930150609065, 48.909314290610027 ], [ 2.475027449359313, 48.909281709369388 ], [ 2.474848284445257, 48.909049229948423 ] ] ] ] } },
{ "type": "Feature", "properties": { "osm_id": "166156592", "name": "Avenue Jean Moulin", "highway": "tertiary", "waterway": null, "aerialway": null, "barrier": null, "man_made": null, "railway": null, "z_order": 4, "other_tags": null, "access": null, "bicycle": null, "boundary": null, "bridge": null, "covered": null, "cycleway": null, "cycleway:left": null, "cycleway:right": null, "foot": null, "footway": null, "int_ref": null, "lane_markings": null, "lanes": null, "layer": null, "lit": null, "maxspeed": null, "nat_ref": null, "oneway": null, "operator": null, "operator:wikidata": null, "political_division": null, "ref": null, "sidewalk": null, "smoothness": null, "source:maxspeed": null, "surface": null, "toll": null, "turn:lanes": null, "was:name": null, "width": "8", "zone:maxspeed": null, "id_on_layer": 66 }, "geometry": { "type": "MultiPolygon", "coordinates": [ [ [ [ 2.481127825464992, 48.912167549222119 ], [ 2.481126219228265, 48.912167752769236 ], [ 2.480923628647802, 48.912195089575093 ], [ 2.480626448060487, 48.912227855126893 ], [ 2.480439549764522, 48.912248454938748 ], [ 2.480100316569431, 48.912285958602361 ], [ 2.480000094201308, 48.91229706107756 ], [ 2.479998777943232, 48.912297215647371 ], [ 2.479509939490901, 48.912357883187006 ], [ 2.478815701590171, 48.912440352049522 ], [ 2.478814888728717, 48.912440451963683 ], [ 2.478425311592654, 48.912489949057544 ], [ 2.478283934227453, 48.91250784619173 ], [ 2.478309665795229, 48.912596153806504 ], [ 2.478451065915237, 48.912578253790876 ], [ 2.478840305321503, 48.912528799615451 ], [ 2.479534399024588, 48.912446347876639 ], [ 2.479534921663032, 48.91244628440397 ], [ 2.480023365097966, 48.912385665887371 ], [ 2.480122894699782, 48.912374640152564 ], [ 2.480462066978282, 48.912337143216661 ], [ 2.480648950416185, 48.912316545041733 ], [ 2.480947353959603, 48.91228364465055 ], [ 2.480949780624151, 48.912283347252767 ], [ 2.4811527795275, 48.912255955349664 ], [ 2.481204274601038, 48.912249850770849 ], [ 2.481180125420298, 48.912161349227546 ], [ 2.481127825464992, 48.912167549222119 ] ] ] ] } },
{ "type": "Feature", "properties": { "osm_id": "884293836", "name": "Rue Henri Mouly", "highway": "residential", "waterway": null, "aerialway": null, "barrier": null, "man_made": null, "railway": null, "z_order": 3, "other_tags": "\"lit\"=>\"yes\"", "access": null, "bicycle": null, "boundary": null, "bridge": null, "covered": null, "cycleway": null, "cycleway:left": null, "cycleway:right": null, "foot": null, "footway": null, "int_ref": null, "lane_markings": null, "lanes": null, "layer": null, "lit": "yes", "maxspeed": null, "nat_ref": null, "oneway": null, "operator": null, "operator:wikidata": null, "political_division": null, "ref": null, "sidewalk": null, "smoothness": null, "source:maxspeed": null, "surface": null, "toll": null, "turn:lanes": null, "was:name": null, "width": "6", "zone:maxspeed": null, "id_on_layer": 71 }, "geometry": { "type": "MultiPolygon", "coordinates": [ [ [ [ 2.479991050585684, 48.909721395237028 ], [ 2.479984549409666, 48.909793204762657 ], [ 2.480098949491343, 48.909797704765843 ], [ 2.480105450504007, 48.909725895233819 ], [ 2.479991050585684, 48.909721395237028 ] ] ] ] } },
{ "type": "Feature", "properties": { "osm_id": "884293837", "name": "Rue François Martin", "highway": "residential", "waterway": null, "aerialway": null, "barrier": null, "man_made": null, "railway": null, "z_order": 3, "other_tags": "\"lit\"=>\"yes\"", "access": null, "bicycle": null, "boundary": null, "bridge": null, "covered": null, "cycleway": null, "cycleway:left": null, "cycleway:right": null, "foot": null, "footway": null, "int_ref": null, "lane_markings": null, "lanes": null, "layer": null, "lit": "yes", "maxspeed": null, "nat_ref": null, "oneway": null, "operator": null, "operator:wikidata": null, "political_division": null, "ref": null, "sidewalk": null, "smoothness": null, "source:maxspeed": null, "surface": null, "toll": null, "turn:lanes": null, "was:name": null, "width": "6", "zone:maxspeed": null, "id_on_layer": 72 }, "geometry": { "type": "MultiPolygon", "coordinates": [ [ [ [ 2.479978784086048, 48.909092400594446 ], [ 2.479972015909111, 48.909164199405204 ], [ 2.480101416001454, 48.909169499408968 ], [ 2.480108183993706, 48.909097700590685 ], [ 2.479978784086048, 48.909092400594446 ] ] ] ] } },
{ "type": "Feature", "properties": { "osm_id": "1455500554", "name": "Route d'Aulnay", "highway": "tertiary", "waterway": null, "aerialway": null, "barrier": null, "man_made": null, "railway": null, "z_order": 4, "other_tags": "\"cycleway:right\"=>\"lane\",\"surface\"=>\"asphalt\"", "access": null, "bicycle": null, "boundary": null, "bridge": null, "covered": null, "cycleway": null, "cycleway:left": null, "cycleway:right": "lane", "foot": null, "footway": null, "int_ref": null, "lane_markings": null, "lanes": null, "layer": null, "lit": null, "maxspeed": null, "nat_ref": null, "oneway": null, "operator": null, "operator:wikidata": null, "political_division": null, "ref": null, "sidewalk": null, "smoothness": null, "source:maxspeed": null, "surface": "asphalt", "toll": null, "turn:lanes": null, "was:name": null, "width": "8", "zone:maxspeed": null, "id_on_layer": 76 }, "geometry": { "type": "MultiPolygon", "coordinates": [ [ [ [ 2.48018109415242, 48.909042799193323 ], [ 2.480212993519655, 48.908679900782147 ], [ 2.48021310718352, 48.908677479778703 ], [ 2.480213707048911, 48.90857857977835 ], [ 2.480077292951584, 48.908578220181312 ], [ 2.480076700168556, 48.908675908669785 ], [ 2.480044905995955, 48.909037599158978 ], [ 2.480036705586118, 48.909131002379496 ], [ 2.480172894420947, 48.909136197580288 ], [ 2.48018109415242, 48.909042799193323 ] ] ] ] } },
{ "type": "Feature", "properties": { "osm_id": "1455500555", "name": "Route d'Aulnay", "highway": "tertiary", "waterway": null, "aerialway": null, "barrier": null, "man_made": null, "railway": null, "z_order": 4, "other_tags": "\"surface\"=>\"asphalt\"", "access": null, "bicycle": null, "boundary": null, "bridge": null, "covered": null, "cycleway": null, "cycleway:left": null, "cycleway:right": null, "foot": null, "footway": null, "int_ref": null, "lane_markings": null, "lanes": null, "layer": null, "lit": null, "maxspeed": null, "nat_ref": null, "oneway": null, "operator": null, "operator:wikidata": null, "political_division": null, "ref": null, "sidewalk": null, "smoothness": null, "source:maxspeed": null, "surface": "asphalt", "toll": null, "turn:lanes": null, "was:name": null, "width": "8", "zone:maxspeed": null, "id_on_layer": 77 }, "geometry": { "type": "MultiPolygon", "coordinates": [ [ [ [ 2.480210667936812, 48.909979238307912 ], [ 2.480186044921055, 48.909878264640881 ], [ 2.480051355059772, 48.90989253531977 ], [ 2.480076154926627, 48.909994235334146 ], [ 2.480076545111086, 48.909995683763675 ], [ 2.480177044673206, 48.910336283821522 ], [ 2.48031095530386, 48.910319116139611 ], [ 2.480210667936812, 48.909979238307912 ] ] ] ] } },
{ "type": "Feature", "properties": { "osm_id": "1455500555", "name": "Route d'Aulnay", "highway": "tertiary", "waterway": null, "aerialway": null, "barrier": null, "man_made": null, "railway": null, "z_order": 4, "other_tags": "\"surface\"=>\"asphalt\"", "access": null, "bicycle": null, "boundary": null, "bridge": null, "covered": null, "cycleway": null, "cycleway:left": null, "cycleway:right": null, "foot": null, "footway": null, "int_ref": null, "lane_markings": null, "lanes": null, "layer": null, "lit": null, "maxspeed": null, "nat_ref": null, "oneway": null, "operator": null, "operator:wikidata": null, "political_division": null, "ref": null, "sidewalk": null, "smoothness": null, "source:maxspeed": null, "surface": "asphalt", "toll": null, "turn:lanes": null, "was:name": null, "width": "8", "zone:maxspeed": null, "id_on_layer": 78 }, "geometry": { "type": "MultiPolygon", "coordinates": [ [ [ [ 2.480170146650289, 48.90975785890646 ], [ 2.480034253339029, 48.909765741053498 ], [ 2.480050753172733, 48.909889341063135 ], [ 2.480186646816585, 48.909881458896812 ], [ 2.480170146650289, 48.90975785890646 ] ] ] ] } },
{ "type": "Feature", "properties": { "osm_id": "1455500555", "name": "Route d'Aulnay", "highway": "tertiary", "waterway": null, "aerialway": null, "barrier": null, "man_made": null, "railway": null, "z_order": 4, "other_tags": "\"surface\"=>\"asphalt\"", "access": null, "bicycle": null, "boundary": null, "bridge": null, "covered": null, "cycleway": null, "cycleway:left": null, "cycleway:right": null, "foot": null, "footway": null, "int_ref": null, "lane_markings": null, "lanes": null, "layer": null, "lit": null, "maxspeed": null, "nat_ref": null, "oneway": null, "operator": null, "operator:wikidata": null, "political_division": null, "ref": null, "sidewalk": null, "smoothness": null, "source:maxspeed": null, "surface": "asphalt", "toll": null, "turn:lanes": null, "was:name": null, "width": "8", "zone:maxspeed": null, "id_on_layer": 79 }, "geometry": { "type": "MultiPolygon", "coordinates": [ [ [ [ 2.480167395944708, 48.909660118114594 ], [ 2.480167377368567, 48.909659629452101 ], [ 2.480154676995451, 48.909385129459537 ], [ 2.480018323000826, 48.90938787050014 ], [ 2.480031011325306, 48.909662126209618 ], [ 2.480034003915772, 48.909762681846829 ], [ 2.480170396081835, 48.909760918112831 ], [ 2.480167395944708, 48.909660118114594 ] ] ] ] } },
{ "type": "Feature", "properties": { "osm_id": "1455500555", "name": "Route d'Aulnay", "highway": "tertiary", "waterway": null, "aerialway": null, "barrier": null, "man_made": null, "railway": null, "z_order": 4, "other_tags": "\"surface\"=>\"asphalt\"", "access": null, "bicycle": null, "boundary": null, "bridge": null, "covered": null, "cycleway": null, "cycleway:left": null, "cycleway:right": null, "foot": null, "footway": null, "int_ref": null, "lane_markings": null, "lanes": null, "layer": null, "lit": null, "maxspeed": null, "nat_ref": null, "oneway": null, "operator": null, "operator:wikidata": null, "political_division": null, "ref": null, "sidewalk": null, "smoothness": null, "source:maxspeed": null, "surface": "asphalt", "toll": null, "turn:lanes": null, "was:name": null, "width": "8", "zone:maxspeed": null, "id_on_layer": 80 }, "geometry": { "type": "MultiPolygon", "coordinates": [ [ [ [ 2.4801593330435, 48.909321116422632 ], [ 2.48017292875601, 48.909135771435928 ], [ 2.4800366712499, 48.909131428523814 ], [ 2.480023070998429, 48.909316828515848 ], [ 2.480023063130647, 48.909316938564587 ], [ 2.48001836303906, 48.909384438561823 ], [ 2.480154636966551, 48.90938856139789 ], [ 2.4801593330435, 48.909321116422632 ] ] ] ] } }
]
}
