{"type": "FeatureCollection", "name": "alt_crossings_ends4326", "crs": {"type": "name", "properties": {"name": "urn:ogc:def:crs:OGC:1.3:CRS84"}}, "xy_coordinate_resolution": 1e-15, "features": [{"type": "Feature", "properties": {"highway": "footway", "footway": "sidewalk"}, "geometry": {"type": "LineString", "coordinates": [[2.476324816302181, 48.909042393631196], [2.476341150240377, 48.909043109223795]]}}, {"type": "Feature", "properties": {"highway": "footway", "footway": "sidewalk"}, "geometry": {"type": "LineString", "coordinates": [[2.476417375291458, 48.909046448625446], [2.476433709232297, 48.90904716420496]]}}, {"type": "Feature", "properties": {"highway": "footway", "footway": "sidewalk"}, "geometry": {"type": "LineString", "coordinates": [[2.476387242252058, 48.909508023946465], [2.476370920792535, 48.90950718308895]]}}, {"type": "Feature", "properties": {"highway": "footway", "footway": "sidewalk"}, "geometry": {"type": "LineString", "coordinates": [[2.476294753988673, 48.90950325905667], [2.476278432532254, 48.90950241818605]]}}, {"type": "Feature", "properties": {"highway": "footway", "footway": "sidewalk"}, "geometry": {"type": "LineString", "coordinates": [[2.47592250040848, 48.909258790133215], [2.47590616866631, 48.909258052407424]]}}, {"type": "Feature", "properties": {"highway": "footway", "footway": "sidewalk"}, "geometry": {"type": "LineString", "coordinates": [[2.475829953875878, 48.909254609656436], [2.475813622136434, 48.90925387191754]]}}, {"type": "Feature", "properties": {"highway": "footway", "footway": "sidewalk"}, "geometry": {"type": "LineString", "coordinates": [[2.475837815062265, 48.90902116438923], [2.47585414218925, 48.90902194576543]]}}, {"type": "Feature", "properties": {"highway": "footway", "footway": "sidewalk"}, "geometry": {"type": "LineString", "coordinates": [[2.475930335455247, 48.909025592157214], [2.475946662585117, 48.90902637352035]]}}, {"type": "Feature", "properties": {"highway": "footway", "footway": "sidewalk"}, "geometry": {"type": "LineString", "coordinates": [[2.478467050475596, 48.90938422962534], [2.478465864180181, 48.90939622254186]]}}, {"type": "Feature", "properties": {"highway": "footway", "footway": "sidewalk"}, "geometry": {"type": "LineString", "coordinates": [[2.478459757698622, 48.909457956250144], [2.478458326930081, 48.90947242063715]]}}, {"type": "Feature", "properties": {"highway": "footway", "footway": "sidewalk"}, "geometry": {"type": "LineString", "coordinates": [[2.478625551819387, 48.909327355343116], [2.478609216436856, 48.90932665328481]]}}, {"type": "Feature", "properties": {"highway": "footway", "footway": "sidewalk"}, "geometry": {"type": "LineString", "coordinates": [[2.478532984657764, 48.90932337698215], [2.478516649277827, 48.90932267491074]]}}, {"type": "Feature", "properties": {"highway": "footway", "footway": "sidewalk"}, "geometry": {"type": "LineString", "coordinates": [[2.478877838560841, 48.9093349296156], [2.478894189952153, 48.90933545837262]]}}, {"type": "Feature", "properties": {"highway": "footway", "footway": "sidewalk"}, "geometry": {"type": "LineString", "coordinates": [[2.478970496449509, 48.909337925874624], [2.478986847842777, 48.90933845461849]]}}, {"type": "Feature", "properties": {"highway": "footway", "footway": "sidewalk"}, "geometry": {"type": "LineString", "coordinates": [[2.478997223677507, 48.909474626560424], [2.479004980995696, 48.9094645698145]]}}, {"type": "Feature", "properties": {"highway": "footway", "footway": "sidewalk"}, "geometry": {"type": "LineString", "coordinates": [[2.47904039331571, 48.90941866050064], [2.479047812706547, 48.90940904182641]]}}, {"type": "Feature", "properties": {"highway": "footway", "footway": "sidewalk"}, "geometry": {"type": "LineString", "coordinates": [[2.477353799319612, 48.90938356432652], [2.477354744993578, 48.909372791754336]]}}, {"type": "Feature", "properties": {"highway": "footway", "footway": "sidewalk"}, "geometry": {"type": "LineString", "coordinates": [[2.477359310771778, 48.909320780977865], [2.477360321859802, 48.90930926321726]]}}, {"type": "Feature", "properties": {"highway": "footway", "footway": "sidewalk"}, "geometry": {"type": "LineString", "coordinates": [[2.477395572616894, 48.909313100046866], [2.477412715544055, 48.90932456255915]]}}, {"type": "Feature", "properties": {"highway": "footway", "footway": "sidewalk"}, "geometry": {"type": "LineString", "coordinates": [[2.477492715974493, 48.90937805424916], [2.477509858946092, 48.90938951674688]]}}, {"type": "Feature", "properties": {"highway": "footway", "footway": "sidewalk"}, "geometry": {"type": "LineString", "coordinates": [[2.478670328964655, 48.909436250519164], [2.478671131124869, 48.909425472889595]]}}, {"type": "Feature", "properties": {"highway": "footway", "footway": "sidewalk"}, "geometry": {"type": "LineString", "coordinates": [[2.478674874534636, 48.90937517728465], [2.478675676692894, 48.90936439965494]]}}, {"type": "Feature", "properties": {"highway": "footway", "footway": "sidewalk"}, "geometry": {"type": "LineString", "coordinates": [[2.478820069010918, 48.90936906905792], [2.478819087448261, 48.909379840886075]]}}, {"type": "Feature", "properties": {"highway": "footway", "footway": "sidewalk"}, "geometry": {"type": "LineString", "coordinates": [[2.478814506816948, 48.9094301094172], [2.478813525251899, 48.90944088124522]]}}, {"type": "Feature", "properties": {"highway": "footway", "footway": "sidewalk"}, "geometry": {"type": "LineString", "coordinates": [[2.477189990801065, 48.90939652134638], [2.47716877646433, 48.90939571214353]]}}, {"type": "Feature", "properties": {"highway": "footway", "footway": "sidewalk"}, "geometry": {"type": "LineString", "coordinates": [[2.47708034767833, 48.90939233906028], [2.477063663963487, 48.90939170265852]]}}, {"type": "Feature", "properties": {"highway": "footway", "footway": "sidewalk"}, "geometry": {"type": "LineString", "coordinates": [[2.477340880585929, 48.909295008486346], [2.477323571628155, 48.909290793838444]]}}, {"type": "Feature", "properties": {"highway": "footway", "footway": "sidewalk"}, "geometry": {"type": "LineString", "coordinates": [[2.477245929734891, 48.90927175483818], [2.477229906913596, 48.90926782578478]]}}, {"type": "Feature", "properties": {"highway": "footway", "footway": "sidewalk"}, "geometry": {"type": "LineString", "coordinates": [[2.477585910549768, 48.90928988456834], [2.477602254793971, 48.909290507948015]]}}, {"type": "Feature", "properties": {"highway": "footway", "footway": "sidewalk"}, "geometry": {"type": "LineString", "coordinates": [[2.477678527938958, 48.90929341702253], [2.477694872185466, 48.909294040389085]]}}, {"type": "Feature", "properties": {"highway": "footway", "footway": "sidewalk"}, "geometry": {"type": "LineString", "coordinates": [[2.47771696657233, 48.9094344144398], [2.477727313140323, 48.90942263040869]]}}, {"type": "Feature", "properties": {"highway": "footway", "footway": "sidewalk"}, "geometry": {"type": "LineString", "coordinates": [[2.477770585298543, 48.90937334631881], [2.477778783944234, 48.909364008597706]]}}, {"type": "Feature", "properties": {"highway": "footway", "footway": "sidewalk"}, "geometry": {"type": "LineString", "coordinates": [[2.479829313057746, 48.909194419988204], [2.47984565228903, 48.90919508966412]]}}, {"type": "Feature", "properties": {"highway": "footway", "footway": "sidewalk"}, "geometry": {"type": "LineString", "coordinates": [[2.479921902040791, 48.90919821478773], [2.479938241274549, 48.90919888445051]]}}, {"type": "Feature", "properties": {"highway": "footway", "footway": "sidewalk"}, "geometry": {"type": "LineString", "coordinates": [[2.475120215603369, 48.908986814236656], [2.475103887300155, 48.90898603269914]]}}, {"type": "Feature", "properties": {"highway": "footway", "footway": "sidewalk"}, "geometry": {"type": "LineString", "coordinates": [[2.475027688558562, 48.90898238549351], [2.475011360258236, 48.908981603942884]]}}, {"type": "Feature", "properties": {"highway": "footway", "footway": "sidewalk"}, "geometry": {"type": "LineString", "coordinates": [[2.475754433936782, 48.90928845958072], [2.475753587424613, 48.90929923573641]]}}, {"type": "Feature", "properties": {"highway": "footway", "footway": "sidewalk"}, "geometry": {"type": "LineString", "coordinates": [[2.475749637029676, 48.90934952446258], [2.475748790515443, 48.90936030061812]]}}, {"type": "Feature", "properties": {"highway": "footway", "footway": "sidewalk"}, "geometry": {"type": "LineString", "coordinates": [[2.475119490516763, 48.90934286347123], [2.475109979653396, 48.90933052062003]]}}, {"type": "Feature", "properties": {"highway": "footway", "footway": "sidewalk"}, "geometry": {"type": "LineString", "coordinates": [[2.475067835756501, 48.90927582772658], [2.475059284948274, 48.909264730766544]]}}, {"type": "Feature", "properties": {"highway": "footway", "footway": "crossing"}, "geometry": {"type": "LineString", "coordinates": [[2.476341150240377, 48.909043109223795], [2.476379262764648, 48.90904477893093], [2.476417375291458, 48.909046448625446]]}}, {"type": "Feature", "properties": {"highway": "footway", "footway": "crossing"}, "geometry": {"type": "LineString", "coordinates": [[2.476370920792535, 48.90950718308895], [2.476332837389112, 48.909505221079094], [2.476294753988673, 48.90950325905667]]}}, {"type": "Feature", "properties": {"highway": "footway", "footway": "crossing"}, "geometry": {"type": "LineString", "coordinates": [[2.47590616866631, 48.909258052407424], [2.475868061269785, 48.90925633103822], [2.475829953875878, 48.909254609656436]]}}, {"type": "Feature", "properties": {"highway": "footway", "footway": "crossing"}, "geometry": {"type": "LineString", "coordinates": [[2.47585414218925, 48.90902194576543], [2.475892238820862, 48.90902376896763], [2.475930335455247, 48.909025592157214]]}}, {"type": "Feature", "properties": {"highway": "footway", "footway": "crossing"}, "geometry": {"type": "LineString", "coordinates": [[2.478465864180181, 48.90939622254186], [2.478463096155337, 48.90942420601358], [2.478459757698622, 48.909457956250144]]}}, {"type": "Feature", "properties": {"highway": "footway", "footway": "crossing"}, "geometry": {"type": "LineString", "coordinates": [[2.478609216436856, 48.90932665328481], [2.478571100546064, 48.909325015139785], [2.478532984657764, 48.90932337698215]]}}, {"type": "Feature", "properties": {"highway": "footway", "footway": "crossing"}, "geometry": {"type": "LineString", "coordinates": [[2.478894189952153, 48.90933545837262], [2.478932343199892, 48.90933669212994], [2.478970496449509, 48.909337925874624]]}}, {"type": "Feature", "properties": {"highway": "footway", "footway": "crossing"}, "geometry": {"type": "LineString", "coordinates": [[2.479004980995696, 48.9094645698145], [2.479023081392679, 48.909441104071966], [2.47904039331571, 48.90941866050064]]}}, {"type": "Feature", "properties": {"highway": "footway", "footway": "crossing"}, "geometry": {"type": "LineString", "coordinates": [[2.477354744993578, 48.909372791754336], [2.477356951564583, 48.90934765575247], [2.477359310771778, 48.909320780977865]]}}, {"type": "Feature", "properties": {"highway": "footway", "footway": "crossing"}, "geometry": {"type": "LineString", "coordinates": [[2.477412715544055, 48.90932456255915], [2.477452715737928, 48.90935130841115], [2.477492715974493, 48.90937805424916]]}}, {"type": "Feature", "properties": {"highway": "footway", "footway": "crossing"}, "geometry": {"type": "LineString", "coordinates": [[2.478671131124869, 48.909425472889595], [2.478673002830691, 48.9094003250872], [2.478674874534636, 48.90937517728465]]}}, {"type": "Feature", "properties": {"highway": "footway", "footway": "crossing"}, "geometry": {"type": "LineString", "coordinates": [[2.478819087448261, 48.909379840886075], [2.478816797133752, 48.909404975151716], [2.478814506816948, 48.9094301094172]]}}, {"type": "Feature", "properties": {"highway": "footway", "footway": "crossing"}, "geometry": {"type": "LineString", "coordinates": [[2.47716877646433, 48.90939571214353], [2.477119276347946, 48.90939382398835], [2.47708034767833, 48.90939233906028]]}}, {"type": "Feature", "properties": {"highway": "footway", "footway": "crossing"}, "geometry": {"type": "LineString", "coordinates": [[2.477323571628155, 48.909290793838444], [2.477283316327684, 48.90928092262078], [2.477245929734891, 48.90927175483818]]}}, {"type": "Feature", "properties": {"highway": "footway", "footway": "crossing"}, "geometry": {"type": "LineString", "coordinates": [[2.477602254793971, 48.909290507948015], [2.477640391365358, 48.90929196249158], [2.477678527938958, 48.90929341702253]]}}, {"type": "Feature", "properties": {"highway": "footway", "footway": "crossing"}, "geometry": {"type": "LineString", "coordinates": [[2.477727313140323, 48.90942263040869], [2.477751455113382, 48.9093951343324], [2.477770585298543, 48.90937334631881]]}}, {"type": "Feature", "properties": {"highway": "footway", "footway": "crossing"}, "geometry": {"type": "LineString", "coordinates": [[2.47984565228903, 48.90919508966412], [2.479883777163723, 48.90919665223221], [2.479921902040791, 48.90919821478773]]}}, {"type": "Feature", "properties": {"highway": "footway", "footway": "crossing"}, "geometry": {"type": "LineString", "coordinates": [[2.475103887300155, 48.90898603269914], [2.475065787927972, 48.90898420910261], [2.475027688558562, 48.90898238549351]]}}, {"type": "Feature", "properties": {"highway": "footway", "footway": "crossing"}, "geometry": {"type": "LineString", "coordinates": [[2.475753587424613, 48.90929923573641], [2.475751612228136, 48.90932438009956], [2.475749637029676, 48.90934952446258]]}}, {"type": "Feature", "properties": {"highway": "footway", "footway": "crossing"}, "geometry": {"type": "LineString", "coordinates": [[2.475109979653396, 48.90933052062003], [2.475087787657093, 48.90930172063076], [2.475067835756501, 48.90927582772658]]}}, {"type": "Feature", "properties": {"barrier": "kerb"}, "geometry": {"type": "Point", "coordinates": [2.476341150240377, 48.909043109223795]}}, {"type": "Feature", "properties": {"barrier": "kerb"}, "geometry": {"type": "Point", "coordinates": [2.476417375291458, 48.909046448625446]}}, {"type": "Feature", "properties": {"barrier": "kerb"}, "geometry": {"type": "Point", "coordinates": [2.476370920792535, 48.90950718308895]}}, {"type": "Feature", "properties": {"barrier": "kerb"}, "geometry": {"type": "Point", "coordinates": [2.476294753988673, 48.90950325905667]}}, {"type": "Feature", "properties": {"barrier": "kerb"}, "geometry": {"type": "Point", "coordinates": [2.47590616866631, 48.909258052407424]}}, {"type": "Feature", "properties": {"barrier": "kerb"}, "geometry": {"type": "Point", "coordinates": [2.475829953875878, 48.909254609656436]}}, {"type": "Feature", "properties": {"barrier": "kerb"}, "geometry": {"type": "Point", "coordinates": [2.47585414218925, 48.90902194576543]}}, {"type": "Feature", "properties": {"barrier": "kerb"}, "geometry": {"type": "Point", "coordinates": [2.475930335455247, 48.909025592157214]}}, {"type": "Feature", "properties": {"barrier": "kerb"}, "geometry": {"type": "Point", "coordinates": [2.478465864180181, 48.90939622254186]}}, {"type": "Feature", "properties": {"barrier": "kerb"}, "geometry": {"type": "Point", "coordinates": [2.478459757698622, 48.909457956250144]}}, {"type": "Feature", "properties": {"barrier": "kerb"}, "geometry": {"type": "Point", "coordinates": [2.478609216436856, 48.90932665328481]}}, {"type": "Feature", "properties": {"barrier": "kerb"}, "geometry": {"type": "Point", "coordinates": [2.478532984657764, 48.90932337698215]}}, {"type": "Feature", "properties": {"barrier": "kerb"}, "geometry": {"type": "Point", "coordinates": [2.478894189952153, 48.90933545837262]}}, {"type": "Feature", "properties": {"barrier": "kerb"}, "geometry": {"type": "Point", "coordinates": [2.478970496449509, 48.909337925874624]}}, {"type": "Feature", "properties": {"barrier": "kerb"}, "geometry": {"type": "Point", "coordinates": [2.479004980995696, 48.9094645698145]}}, {"type": "Feature", "properties": {"barrier": "kerb"}, "geometry": {"type": "Point", "coordinates": [2.47904039331571, 48.90941866050064]}}, {"type": "Feature", "properties": {"barrier": "kerb"}, "geometry": {"type": "Point", "coordinates": [2.477354744993578, 48.909372791754336]}}, {"type": "Feature", "properties": {"barrier": "kerb"}, "geometry": {"type": "Point", "coordinates": [2.477359310771778, 48.909320780977865]}}, {"type": "Feature", "properties": {"barrier": "kerb"}, "geometry": {"type": "Point", "coordinates": [2.477412715544055, 48.90932456255915]}}, {"type": "Feature", "properties": {"barrier": "kerb"}, "geometry": {"type": "Point", "coordinates": [2.477492715974493, 48.90937805424916]}}, {"type": "Feature", "properties": {"barrier": "kerb"}, "geometry": {"type": "Point", "coordinates": [2.478671131124869, 48.909425472889595]}}, {"type": "Feature", "properties": {"barrier": "kerb"}, "geometry": {"type": "Point", "coordinates": [2.478674874534636, 48.90937517728465]}}, {"type": "Feature", "properties": {"barrier": "kerb"}, "geometry": {"type": "Point", "coordinates": [2.478819087448261, 48.909379840886075]}}, {"type": "Feature", "properties": {"barrier": "kerb"}, "geometry": {"type": "Point", "coordinates": [2.478814506816948, 48.9094301094172]}}, {"type": "Feature", "properties": {"barrier": "kerb"}, "geometry": {"type": "Point", "coordinates": [2.47716877646433, 48.90939571214353]}}, {"type": "Feature", "properties": {"barrier": "kerb"}, "geometry": {"type": "Point", "coordinates": [2.47708034767833, 48.90939233906028]}}, {"type": "Feature", "properties": {"barrier": "kerb"}, "geometry": {"type": "Point", "coordinates": [2.477323571628155, 48.909290793838444]}}, {"type": "Feature", "properties": {"barrier": "kerb"}, "geometry": {"type": "Point", "coordinates": [2.477245929734891, 48.90927175483818]}}, {"type": "Feature", "properties": {"barrier": "kerb"}, "geometry": {"type": "Point", "coordinates": [2.477602254793971, 48.909290507948015]}}, {"type": "Feature", "properties": {"barrier": "kerb"}, "geometry": {"type": "Point", "coordinates": [2.477678527938958, 48.90929341702253]}}, {"type": "Feature", "properties": {"barrier": "kerb"}, "geometry": {"type": "Point", "coordinates": [2.477727313140323, 48.90942263040869]}}, {"type": "Feature", "properties": {"barrier": "kerb"}, "geometry": {"type": "Point", "coordinates": [2.477770585298543, 48.90937334631881]}}, {"type": "Feature", "properties": {"barrier": "kerb"}, "geometry": {"type": "Point", "coordinates": [2.47984565228903, 48.90919508966412]}}, {"type": "Feature", "properties": {"barrier": "kerb"}, "geometry": {"type": "Point", "coordinates": [2.479921902040791, 48.90919821478773]}}, {"type": "Feature", "properties": {"barrier": "kerb"}, "geometry": {"type": "Point", "coordinates": [2.475103887300155, 48.90898603269914]}}, {"type": "Feature", "properties": {"barrier": "kerb"}, "geometry": {"type": "Point", "coordinates": [2.475027688558562, 48.90898238549351]}}, {"type": "Feature", "properties": {"barrier": "kerb"}, "geometry": {"type": "Point", "coordinates": [2.475753587424613, 48.90929923573641]}}, {"type": "Feature", "properties": {"barrier": "kerb"}, "geometry": {"type": "Point", "coordinates": [2.475749637029676, 48.90934952446258]}}, {"type": "Feature", "properties": {"barrier": "kerb"}, "geometry": {"type": "Point", "coordinates": [2.475109979653396, 48.90933052062003]}}, {"type": "Feature", "properties": {"barrier": "kerb"}, "geometry": {"type": "Point", "coordinates": [2.475067835756501, 48.90927582772658]}}, {"type": "Feature", "properties": {"highway": "footway", "footway": "sidewalk"}, "geometry": {"type": "LineString", "coordinates": [[2.477720241205324, 48.909083367927565], [2.47771381670567, 48.909090808637], [2.477711252788636, 48.90909920159101], [2.477712216638628, 48.90910447044174], [2.477713849252658, 48.90911571424134], [2.477713913266866, 48.9091180563932], [2.477711924028132, 48.90913699935275], [2.477709555256797, 48.90915881490215]]}}, {"type": "Feature", "properties": {"highway": "footway", "footway": "sidewalk"}, "geometry": {"type": "LineString", "coordinates": [[2.477709555256797, 48.90915881490215], [2.477700475941895, 48.90924243201632], [2.477699831751691, 48.90924836475789]]}}, {"type": "Feature", "properties": {"highway": "footway", "footway": "sidewalk"}, "geometry": {"type": "LineString", "coordinates": [[2.477699831751691, 48.90924836475789], [2.477694872185466, 48.909294040389085], [2.477694446816644, 48.90929795786275], [2.477692742315597, 48.90931365561722], [2.47769351954511, 48.90932115082935], [2.477697402434212, 48.909328214100526], [2.477704089838289, 48.9093342976235], [2.477713063102007, 48.9093389295774], [2.477778783944234, 48.909364008597706], [2.477782099730486, 48.909365593121954], [2.477797629771657, 48.90937503363742]]}}, {"type": "Feature", "properties": {"highway": "footway", "footway": "sidewalk"}, "geometry": {"type": "LineString", "coordinates": [[2.477797629771657, 48.90937503363742], [2.477813225365585, 48.90938884497795], [2.477814652096602, 48.90939030900676], [2.477819547585437, 48.909396127350114], [2.477821481746965, 48.90939934598515], [2.477823958544792, 48.90940579585265], [2.477824439719828, 48.909407506767565], [2.477827780935193, 48.90942597615311], [2.477827912762945, 48.909427109607506], [2.477828169180344, 48.90943202904675]]}}, {"type": "Feature", "properties": {"highway": "footway", "footway": "sidewalk"}, "geometry": {"type": "LineString", "coordinates": [[2.477828169180344, 48.90943202904675], [2.477827427189785, 48.90944276219677], [2.477822481147471, 48.90950791607433]]}}, {"type": "Feature", "properties": {"highway": "footway", "footway": "sidewalk"}, "geometry": {"type": "LineString", "coordinates": [[2.477822481147471, 48.90950791607433], [2.477820536554007, 48.90953353202453]]}}, {"type": "Feature", "properties": {"highway": "footway", "footway": "sidewalk"}, "geometry": {"type": "LineString", "coordinates": [[2.477820536554007, 48.90953353202453], [2.477818265426575, 48.90956344934321], [2.477817359943074, 48.90957537717049], [2.477816537780339, 48.909577956740776], [2.477812372808808, 48.90958540756629], [2.477812145036719, 48.90959443871839], [2.477816452710752, 48.90960301319995], [2.477824812909008, 48.90961016974438], [2.477836288388791, 48.909615106046594], [2.477849592658548, 48.90961726870802], [2.478293304886165, 48.909638826724326], [2.478305215755869, 48.90963825369626], [2.478316368525966, 48.9096354385069], [2.47832581348597, 48.90963062088282], [2.478332746354004, 48.909624211067204], [2.478336576765206, 48.909616754885626], [2.478336978543823, 48.9096088872663], [2.478333917478146, 48.909601278173], [2.478333361323599, 48.90959882359976], [2.478334741090465, 48.90958497950454]]}}, {"type": "Feature", "properties": {"highway": "footway", "footway": "sidewalk"}, "geometry": {"type": "LineString", "coordinates": [[2.478334741090465, 48.90958497950454], [2.47833735699504, 48.90955873241742]]}}, {"type": "Feature", "properties": {"highway": "footway", "footway": "sidewalk"}, "geometry": {"type": "LineString", "coordinates": [[2.47833735699504, 48.90955873241742], [2.478342491448869, 48.909507214992495]]}}, {"type": "Feature", "properties": {"highway": "footway", "footway": "sidewalk"}, "geometry": {"type": "LineString", "coordinates": [[2.478342491448869, 48.909507214992495], [2.478344824657704, 48.909483804305424]]}}, {"type": "Feature", "properties": {"highway": "footway", "footway": "sidewalk"}, "geometry": {"type": "LineString", "coordinates": [[2.478344824657704, 48.909483804305424], [2.478347184861418, 48.90946012273778], [2.478347870498311, 48.9094532432611], [2.478348173919812, 48.909451652924176], [2.478350105267897, 48.909444835433035], [2.478350692995342, 48.90944328009139], [2.478357581890133, 48.9094287866042], [2.478358678698561, 48.909426958738564], [2.478363631361188, 48.90942019485578], [2.478366955535808, 48.90941696249217], [2.478373640648072, 48.90941215374502], [2.478378236149536, 48.90940968931267], [2.478388026984367, 48.90940584787514], [2.478390693896921, 48.90940496841377], [2.478411991949833, 48.90939918377412]]}}, {"type": "Feature", "properties": {"highway": "footway", "footway": "sidewalk"}, "geometry": {"type": "LineString", "coordinates": [[2.478411991949833, 48.90939918377412], [2.478467050475596, 48.90938422962534], [2.478488174452197, 48.9093784922468], [2.47849798288656, 48.90937470232439], [2.478505831022711, 48.90936927992183], [2.478511113158662, 48.909362643528844], [2.478513421631442, 48.90935530532812], [2.47851398955356, 48.90934956382998], [2.478516649277827, 48.90932267491074], [2.478519725240943, 48.909291577920285]]}}, {"type": "Feature", "properties": {"highway": "footway", "footway": "sidewalk"}, "geometry": {"type": "LineString", "coordinates": [[2.478519725240943, 48.909291577920285], [2.478521577692792, 48.90927285021357], [2.478528292399663, 48.909204966516725]]}}, {"type": "Feature", "properties": {"highway": "footway", "footway": "sidewalk"}, "geometry": {"type": "LineString", "coordinates": [[2.478528292399663, 48.909204966516725], [2.478534944546466, 48.90913771510112], [2.478535631408986, 48.90913458113066], [2.47853533876934, 48.90912570983288], [2.478530695390194, 48.90911738103835], [2.478522203665723, 48.90911049588423], [2.478510782362292, 48.90910579931214], [2.478497667211922, 48.90910379946908], [2.477754686794167, 48.909073338440336], [2.477741759946456, 48.90907416959589], [2.477729879202688, 48.90907762889999], [2.477720241205324, 48.909083367927565]]}}, {"type": "Feature", "properties": {"highway": "footway", "footway": "sidewalk"}, "geometry": {"type": "LineString", "coordinates": [[2.477177763395443, 48.90940334858007], [2.477172031650737, 48.90941028803816], [2.477169596024473, 48.90941802451339], [2.477165770099575, 48.909461728950795]]}}, {"type": "Feature", "properties": {"highway": "footway", "footway": "sidewalk"}, "geometry": {"type": "LineString", "coordinates": [[2.477165770099575, 48.909461728950795], [2.47716103555918, 48.90951581260994]]}}, {"type": "Feature", "properties": {"highway": "footway", "footway": "sidewalk"}, "geometry": {"type": "LineString", "coordinates": [[2.47716103555918, 48.90951581260994], [2.477159046214143, 48.90953853728519]]}}, {"type": "Feature", "properties": {"highway": "footway", "footway": "sidewalk"}, "geometry": {"type": "LineString", "coordinates": [[2.477159046214143, 48.90953853728519], [2.477158370245852, 48.90954625899772], [2.477156233807925, 48.90955250899023], [2.477155537705916, 48.90956172515611], [2.477159079558098, 48.90956943592136], [2.47716792928821, 48.90957797055063], [2.47717956709573, 48.90958309898237], [2.477193146155011, 48.90958534203345], [2.477666020036961, 48.909608344379315], [2.477678020485366, 48.90960775882447], [2.477689243834652, 48.90960489800551], [2.477698719786112, 48.90960000925055], [2.477705629110455, 48.9095935152099], [2.477709374473153, 48.90958597731642], [2.4777096320759, 48.90957804724751], [2.477709229610598, 48.909577102263384], [2.477708362006012, 48.90957178192001], [2.477708919171017, 48.90956444266211]]}}, {"type": "Feature", "properties": {"highway": "footway", "footway": "sidewalk"}, "geometry": {"type": "LineString", "coordinates": [[2.477708919171017, 48.90956444266211], [2.477712089510473, 48.909522681313966]]}}, {"type": "Feature", "properties": {"highway": "footway", "footway": "sidewalk"}, "geometry": {"type": "LineString", "coordinates": [[2.477712089510473, 48.909522681313966], [2.477712826178931, 48.90951297752666]]}}, {"type": "Feature", "properties": {"highway": "footway", "footway": "sidewalk"}, "geometry": {"type": "LineString", "coordinates": [[2.477712826178931, 48.90951297752666], [2.477717018854035, 48.909457749316495]]}}, {"type": "Feature", "properties": {"highway": "footway", "footway": "sidewalk"}, "geometry": {"type": "LineString", "coordinates": [[2.477717018854035, 48.909457749316495], [2.477718293032531, 48.909440965116026], [2.47771696657233, 48.9094344144398], [2.477716325663609, 48.90943124933439], [2.477709221658746, 48.909422638272424], [2.477697918921264, 48.90941626879929], [2.47768814557604, 48.90941254029997]]}}, {"type": "Feature", "properties": {"highway": "footway", "footway": "sidewalk"}, "geometry": {"type": "LineString", "coordinates": [[2.47768814557604, 48.90941254029997], [2.477649317350841, 48.90939772744505], [2.477642315896657, 48.909396344073976], [2.477631181369234, 48.90939414407526], [2.477535881902471, 48.909390509292805]]}}, {"type": "Feature", "properties": {"highway": "footway", "footway": "sidewalk"}, "geometry": {"type": "LineString", "coordinates": [[2.477535881902471, 48.909390509292805], [2.477509858946092, 48.90938951674688], [2.477353799319612, 48.90938356432652], [2.477265279086708, 48.909380187896666], [2.477248327861942, 48.90938191460827], [2.477233378818291, 48.90938567372326], [2.477231990867846, 48.90938600992969], [2.477223147765262, 48.90938805579606], [2.477196907791511, 48.90939412255873], [2.477189990801065, 48.90939652134638], [2.477186299542278, 48.90939780146152], [2.477177763395443, 48.90940334858007]]}}, {"type": "Feature", "properties": {"highway": "footway", "footway": "sidewalk"}, "geometry": {"type": "LineString", "coordinates": [[2.478575390845089, 48.90943424058727], [2.478565050973096, 48.90943541694649], [2.478479640861308, 48.90945861477153], [2.478469836333433, 48.90946240264509], [2.478461990091813, 48.90946782173278], [2.478458326930081, 48.90947242063715], [2.478455368227664, 48.90947870122489]]}}, {"type": "Feature", "properties": {"highway": "footway", "footway": "sidewalk"}, "geometry": {"type": "LineString", "coordinates": [[2.478455368227664, 48.90947870122489], [2.478453911684544, 48.909486637274895]]}}, {"type": "Feature", "properties": {"highway": "footway", "footway": "sidewalk"}, "geometry": {"type": "LineString", "coordinates": [[2.478453911684544, 48.909486637274895], [2.478450306246437, 48.90952281389449]]}}, {"type": "Feature", "properties": {"highway": "footway", "footway": "sidewalk"}, "geometry": {"type": "LineString", "coordinates": [[2.478450306246437, 48.90952281389449], [2.478446825692399, 48.909557737389456]]}}, {"type": "Feature", "properties": {"highway": "footway", "footway": "sidewalk"}, "geometry": {"type": "LineString", "coordinates": [[2.478446825692399, 48.909557737389456], [2.478443030899035, 48.909595813871306], [2.478442260961834, 48.909603539317736], [2.478441576029182, 48.9096055331939], [2.478440399834713, 48.909606835917465], [2.478435441075789, 48.90961533029788], [2.478435050040343, 48.909624428208765], [2.478439271242803, 48.90963309402413], [2.47844762418065, 48.90964034130351], [2.478459158029727, 48.909645345079774], [2.47847255987738, 48.90964753576641], [2.478963068312813, 48.909671366415296], [2.478975094000381, 48.90967077637994], [2.478986336758614, 48.909667901740654], [2.478995820461417, 48.90966299208129], [2.479002721709178, 48.90965647367149], [2.479004908733824, 48.909652027892285]]}}, {"type": "Feature", "properties": {"highway": "footway", "footway": "sidewalk"}, "geometry": {"type": "LineString", "coordinates": [[2.479004908733824, 48.909652027892285], [2.4790066563449, 48.90964096492111], [2.479003348120707, 48.909633321090055], [2.478996803875804, 48.90962664462013], [2.478996149807278, 48.90962438450378], [2.478998313044052, 48.909602099115816]]}}, {"type": "Feature", "properties": {"highway": "footway", "footway": "sidewalk"}, "geometry": {"type": "LineString", "coordinates": [[2.478998313044052, 48.909602099115816], [2.478998934752749, 48.90959569434881], [2.479005646609787, 48.90952654951314]]}}, {"type": "Feature", "properties": {"highway": "footway", "footway": "sidewalk"}, "geometry": {"type": "LineString", "coordinates": [[2.479005646609787, 48.90952654951314], [2.479008715137267, 48.90949493780621], [2.479007747097453, 48.909487139315196], [2.479003424499056, 48.90947985198968], [2.478997223677507, 48.909474626560424], [2.478996111001421, 48.909473688908676]]}}, {"type": "Feature", "properties": {"highway": "footway", "footway": "sidewalk"}, "geometry": {"type": "LineString", "coordinates": [[2.478996111001421, 48.909473688908676], [2.478986421886096, 48.90946916856881], [2.478947126482934, 48.909455998635046], [2.478919272402292, 48.909446663271304], [2.478902729121629, 48.90944376585738], [2.478813525251899, 48.90944088124522], [2.478670328964655, 48.909436250519164], [2.478582647788747, 48.90943341496984], [2.478575390845089, 48.90943424058727]]}}, {"type": "Feature", "properties": {"highway": "footway", "footway": "sidewalk"}, "geometry": {"type": "LineString", "coordinates": [[2.478882592021463, 48.9091957109119], [2.478882592021463, 48.9091957109119]]}}, {"type": "Feature", "properties": {"highway": "footway", "footway": "sidewalk"}, "geometry": {"type": "LineString", "coordinates": [[2.478882592021463, 48.9091957109119], [2.478873989571877, 48.9091893834963], [2.478862828204477, 48.909185133594164], [2.478850215116878, 48.90918338279179], [2.478765656737258, 48.90918062643345], [2.478680656903987, 48.90917791672597], [2.478668060972312, 48.90917880917596], [2.478656482586184, 48.90918219806486], [2.478648826144493, 48.909186702638905]]}}, {"type": "Feature", "properties": {"highway": "footway", "footway": "sidewalk"}, "geometry": {"type": "LineString", "coordinates": [[2.478648826144493, 48.909186702638905], [2.47864061254467, 48.909194958123386], [2.478638911751907, 48.9091999596274], [2.478630179481467, 48.90928057013631]]}}, {"type": "Feature", "properties": {"highway": "footway", "footway": "sidewalk"}, "geometry": {"type": "LineString", "coordinates": [[2.478630179481467, 48.90928057013631], [2.478629444778405, 48.90928799791761]]}}, {"type": "Feature", "properties": {"highway": "footway", "footway": "sidewalk"}, "geometry": {"type": "LineString", "coordinates": [[2.478629444778405, 48.90928799791761], [2.478625551819387, 48.909327355343116], [2.478624843598664, 48.909334515376955]]}}, {"type": "Feature", "properties": {"highway": "footway", "footway": "sidewalk"}, "geometry": {"type": "LineString", "coordinates": [[2.478624843598664, 48.909334515376955], [2.478625973641027, 48.909343798343606], [2.478632906633387, 48.9093529193853], [2.478639750083578, 48.90935797697313], [2.47865094184079, 48.90936225085786], [2.478663598080579, 48.90936400904485], [2.478675676692894, 48.90936439965494], [2.478820069010918, 48.90936906905792], [2.478834137203695, 48.909369523989724], [2.478846780033479, 48.909368629172654], [2.478858395967606, 48.909365219686485], [2.478865990584465, 48.90936073157782]]}}, {"type": "Feature", "properties": {"highway": "footway", "footway": "sidewalk"}, "geometry": {"type": "LineString", "coordinates": [[2.478865990584465, 48.90936073157782], [2.478874269144257, 48.909352384229805], [2.47887699406883, 48.90934419733254], [2.478877838560841, 48.9093349296156], [2.478878922737328, 48.90932303152192]]}}, {"type": "Feature", "properties": {"highway": "footway", "footway": "sidewalk"}, "geometry": {"type": "LineString", "coordinates": [[2.478878922737328, 48.90932303152192], [2.478881045514016, 48.909299735486584]]}}, {"type": "Feature", "properties": {"highway": "footway", "footway": "sidewalk"}, "geometry": {"type": "LineString", "coordinates": [[2.478881045514016, 48.909299735486584], [2.478885106957236, 48.909255163839354]]}}, {"type": "Feature", "properties": {"highway": "footway", "footway": "sidewalk"}, "geometry": {"type": "LineString", "coordinates": [[2.478885106957236, 48.909255163839354], [2.478889045235929, 48.90921194376499], [2.478887782196993, 48.90920348816711], [2.478882592021463, 48.9091957109119]]}}, {"type": "Feature", "properties": {"highway": "footway", "footway": "sidewalk"}, "geometry": {"type": "LineString", "coordinates": [[2.47594766007869, 48.90901677855676], [2.475947087051874, 48.90902229054404], [2.475946662585117, 48.90902637352035], [2.47592250040848, 48.909258790133215], [2.475915039216299, 48.90933055909848], [2.475896911130608, 48.909495297891084]]}}, {"type": "Feature", "properties": {"highway": "footway", "footway": "sidewalk"}, "geometry": {"type": "LineString", "coordinates": [[2.475896911130608, 48.909495297891084], [2.47589754531472, 48.90950836698999], [2.475902686424619, 48.90951624251782], [2.475911316880017, 48.90952265693557], [2.475922564918054, 48.90952696232167], [2.475935294372361, 48.90952872378809], [2.476039400847775, 48.90953197456548], [2.476234579732009, 48.90953812234629], [2.476247160619891, 48.90953722779904], [2.476258725572985, 48.909533842734454], [2.476268168969542, 48.909528290768435], [2.476274588011671, 48.90952110267475], [2.476277369033758, 48.909512965642584], [2.476277895739337, 48.909507741936466]]}}, {"type": "Feature", "properties": {"highway": "footway", "footway": "sidewalk"}, "geometry": {"type": "LineString", "coordinates": [[2.476277895739337, 48.909507741936466], [2.476278432532254, 48.90950241818605], [2.476324816302181, 48.909042393631196], [2.476325234662481, 48.90903824438231]]}}, {"type": "Feature", "properties": {"highway": "footway", "footway": "sidewalk"}, "geometry": {"type": "LineString", "coordinates": [[2.476325234662481, 48.90903824438231], [2.47632575868508, 48.90903304718604], [2.476324610720863, 48.90902467303714], [2.476319607181726, 48.909016938636285], [2.47631123416242, 48.90901059537948], [2.476300305101361, 48.90900625951297], [2.476287881755057, 48.9090043522653], [2.476190507051595, 48.90899970088938], [2.475990974843393, 48.908991696171405], [2.475978290650342, 48.90899249744006], [2.475966595147878, 48.90899583140946], [2.475957022143498, 48.90900137487174], [2.475950499682305, 48.9090085904221], [2.47594766007869, 48.90901677855676]]}}, {"type": "Feature", "properties": {"highway": "footway", "footway": "sidewalk"}, "geometry": {"type": "LineString", "coordinates": [[2.475641891900135, 48.90897572507396], [2.475164813715006, 48.90895289141636], [2.475151953858437, 48.90895362114271], [2.47514007838637, 48.908956954659544], [2.475130368583758, 48.90896256037312], [2.475123790311484, 48.90896988066813], [2.475120997929587, 48.90897818737498], [2.475120215603369, 48.908986814236656], [2.475117520498815, 48.90901653365007]]}}, {"type": "Feature", "properties": {"highway": "footway", "footway": "sidewalk"}, "geometry": {"type": "LineString", "coordinates": [[2.475117520498815, 48.90901653365007], [2.475116839627733, 48.90902404173505], [2.475110479245203, 48.90909417868079]]}}, {"type": "Feature", "properties": {"highway": "footway", "footway": "sidewalk"}, "geometry": {"type": "LineString", "coordinates": [[2.475110479245203, 48.90909417868079], [2.475101061710001, 48.909198026970444], [2.475100456195674, 48.90919983918998], [2.475097654385509, 48.90920001959615], [2.475031585003045, 48.90919741623474], [2.475019400276215, 48.90919814373321], [2.475008086269543, 48.909201212858285], [2.474998654137134, 48.909206349316534], [2.474991946847125, 48.90921309405302], [2.474988563844057, 48.90922084427768], [2.474988807475085, 48.90922890733784], [2.474992655968116, 48.909236562621714], [2.475002426595742, 48.9092492406726], [2.475010984738281, 48.90925674098128], [2.475022923152331, 48.90926185475662], [2.475036796913326, 48.909263963070266], [2.475059284948274, 48.909264730766544], [2.475067945838374, 48.90926502643075]]}}, {"type": "Feature", "properties": {"highway": "footway", "footway": "sidewalk"}, "geometry": {"type": "LineString", "coordinates": [[2.475067945838374, 48.90926502643075], [2.475730489387082, 48.90928764230689], [2.475754433936782, 48.90928845958072], [2.475774231018223, 48.90928866327695]]}}, {"type": "Feature", "properties": {"highway": "footway", "footway": "sidewalk"}, "geometry": {"type": "LineString", "coordinates": [[2.475774231018223, 48.90928866327695], [2.4757822370259, 48.90928811417439], [2.475793833439659, 48.90928475090381], [2.475803313687853, 48.90927921095348], [2.475809769233454, 48.909272025243496], [2.475812581412048, 48.909263882414834], [2.475813622136434, 48.90925387191754], [2.475837815062265, 48.90902116438923], [2.475838759009345, 48.90901208468301], [2.475837633368952, 48.90900369894499], [2.475832641143494, 48.908995950250635], [2.47582426850975, 48.908989593217854], [2.475813330849622, 48.9089852469353]]}}, {"type": "Feature", "properties": {"highway": "footway", "footway": "sidewalk"}, "geometry": {"type": "LineString", "coordinates": [[2.475813330849622, 48.9089852469353], [2.475800893342832, 48.90898333467174], [2.475641891900135, 48.90897572507396]]}}, {"type": "Feature", "properties": {"highway": "footway", "footway": "sidewalk"}, "geometry": {"type": "LineString", "coordinates": [[2.477594860857273, 48.90913736101744], [2.477588192674122, 48.90913216606358], [2.477576018939855, 48.90912660259411], [2.477563795277116, 48.90912454839245], [2.477488560581972, 48.909119828337424], [2.477485527720885, 48.909119712722095], [2.477425289298287, 48.90911889290888]]}}, {"type": "Feature", "properties": {"highway": "footway", "footway": "sidewalk"}, "geometry": {"type": "LineString", "coordinates": [[2.477425289298287, 48.90911889290888], [2.47739297113579, 48.90911845306272], [2.477374595865997, 48.909121394071924]]}}, {"type": "Feature", "properties": {"highway": "footway", "footway": "sidewalk"}, "geometry": {"type": "LineString", "coordinates": [[2.477374595865997, 48.909121394071924], [2.477358978157959, 48.909129937195196]]}}, {"type": "Feature", "properties": {"highway": "footway", "footway": "sidewalk"}, "geometry": {"type": "LineString", "coordinates": [[2.477358978157959, 48.909129937195196], [2.477353960370644, 48.909135686454874], [2.477351284458699, 48.90914370502955], [2.477348286477022, 48.90917465842819]]}}, {"type": "Feature", "properties": {"highway": "footway", "footway": "sidewalk"}, "geometry": {"type": "LineString", "coordinates": [[2.477348286477022, 48.90917465842819], [2.477344758856523, 48.90921108016374]]}}, {"type": "Feature", "properties": {"highway": "footway", "footway": "sidewalk"}, "geometry": {"type": "LineString", "coordinates": [[2.477344758856523, 48.90921108016374], [2.477340142941009, 48.90925873817298]]}}, {"type": "Feature", "properties": {"highway": "footway", "footway": "sidewalk"}, "geometry": {"type": "LineString", "coordinates": [[2.477340142941009, 48.90925873817298], [2.477337724194632, 48.909283711002004], [2.477338899206722, 48.90929193359153], [2.477340880585929, 48.909295008486346], [2.477344043937145, 48.90929991767814], [2.477352563128196, 48.909306260985154], [2.477360321859802, 48.90930926321726], [2.477363646861599, 48.90931054982253], [2.477376202008059, 48.90931236120499], [2.477395572616894, 48.909313100046866], [2.477542312391827, 48.90931869695038], [2.477554945390527, 48.90931787896406], [2.477566590455105, 48.90931454870352], [2.477576127258043, 48.90930902656059], [2.477581328441561, 48.90930328879178]]}}, {"type": "Feature", "properties": {"highway": "footway", "footway": "sidewalk"}, "geometry": {"type": "LineString", "coordinates": [[2.477581328441561, 48.90930328879178], [2.477585497181358, 48.9092936914468], [2.477585910549768, 48.90928988456834], [2.47758790800997, 48.9092714891336]]}}, {"type": "Feature", "properties": {"highway": "footway", "footway": "sidewalk"}, "geometry": {"type": "LineString", "coordinates": [[2.47758790800997, 48.9092714891336], [2.47759052286381, 48.90924740784569]]}}, {"type": "Feature", "properties": {"highway": "footway", "footway": "sidewalk"}, "geometry": {"type": "LineString", "coordinates": [[2.47759052286381, 48.90924740784569], [2.477592854412384, 48.90922593561538], [2.477600738293223, 48.909153329439796], [2.477599921394993, 48.90914687878048]]}}, {"type": "Feature", "properties": {"highway": "footway", "footway": "sidewalk"}, "geometry": {"type": "LineString", "coordinates": [[2.477599921394993, 48.90914687878048]]}}, {"type": "Feature", "properties": {"highway": "footway", "footway": "sidewalk"}, "geometry": {"type": "LineString", "coordinates": [[2.477599921394993, 48.90914687878048], [2.477594860857273, 48.90913736101744]]}}, {"type": "Feature", "properties": {"highway": "footway", "footway": "sidewalk"}, "geometry": {"type": "LineString", "coordinates": [[2.476453741964199, 48.909017528553825], [2.476437428288393, 48.90903036199934], [2.476434570017743, 48.90903862685011], [2.476433709232297, 48.90904716420496], [2.476387242252058, 48.909508023946465], [2.476386306440773, 48.909517305239795], [2.476387443141927, 48.90952564976655], [2.476393774547493, 48.90953440247197]]}}, {"type": "Feature", "properties": {"highway": "footway", "footway": "sidewalk"}, "geometry": {"type": "LineString", "coordinates": [[2.476393774547493, 48.90953440247197], [2.476400724830236, 48.90953969801315], [2.476411588746674, 48.909544046722], [2.476423952807959, 48.909545988658124], [2.476516779226886, 48.90955077086041]]}}, {"type": "Feature", "properties": {"highway": "footway", "footway": "sidewalk"}, "geometry": {"type": "LineString", "coordinates": [[2.476516779226886, 48.90955077086041], [2.476614792633994, 48.90955582020226], [2.476695011643883, 48.909559952770095]]}}, {"type": "Feature", "properties": {"highway": "footway", "footway": "sidewalk"}, "geometry": {"type": "LineString", "coordinates": [[2.476695011643883, 48.909559952770095], [2.47692104427181, 48.90957159677817]]}}, {"type": "Feature", "properties": {"highway": "footway", "footway": "sidewalk"}, "geometry": {"type": "LineString", "coordinates": [[2.47692104427181, 48.90957159677817], [2.477006132866896, 48.90957597997733], [2.477017987970958, 48.90957545017021], [2.477033340259922, 48.90957057742941], [2.477045559374427, 48.90956162165647], [2.477049495278602, 48.909554231440545], [2.477049617819438, 48.909543587643746]]}}, {"type": "Feature", "properties": {"highway": "footway", "footway": "sidewalk"}, "geometry": {"type": "LineString", "coordinates": [[2.477049617819438, 48.909543587643746], [2.477051014367, 48.90952387092846]]}}, {"type": "Feature", "properties": {"highway": "footway", "footway": "sidewalk"}, "geometry": {"type": "LineString", "coordinates": [[2.477051014367, 48.90952387092846], [2.477055125504254, 48.90947690973169], [2.47706212424299, 48.9093969634871], [2.477062610691803, 48.90939471936433], [2.477063663963487, 48.90939170265852], [2.477065943035037, 48.90938517510265], [2.477066993752779, 48.909383016581536], [2.477079112997317, 48.909363842881774], [2.477080570815124, 48.90936196576705], [2.477086972560336, 48.90935510641364], [2.4770911027388, 48.90935192782669], [2.47710040149884, 48.909346704064795], [2.477102991365135, 48.90934546608003], [2.477121913942347, 48.90933783501089]]}}, {"type": "Feature", "properties": {"highway": "footway", "footway": "sidewalk"}, "geometry": {"type": "LineString", "coordinates": [[2.477121913942347, 48.90933783501089], [2.477135684073277, 48.9093326036801], [2.477143561600165, 48.90933022230601], [2.477194518286089, 48.90931844096793], [2.477201185553734, 48.909316775006225], [2.477211368965431, 48.90931304431629], [2.477219544943708, 48.90930757333348], [2.477225050893402, 48.909300805436054], [2.477227440603793, 48.90929328910629], [2.477229906913596, 48.90926782578478], [2.477230305711035, 48.90926370841338]]}}, {"type": "Feature", "properties": {"highway": "footway", "footway": "sidewalk"}, "geometry": {"type": "LineString", "coordinates": [[2.477230305711035, 48.90926370841338], [2.477237972807123, 48.90918454959278], [2.477241107387343, 48.909152186593]]}}, {"type": "Feature", "properties": {"highway": "footway", "footway": "sidewalk"}, "geometry": {"type": "LineString", "coordinates": [[2.477241107387343, 48.909152186593], [2.47724505213185, 48.909111458985414], [2.477245438358349, 48.90910957554598], [2.477247975880978, 48.9091015291363], [2.477248760370605, 48.90909970026914], [2.477251605493374, 48.90909450057331], [2.477256532935404, 48.90908549526507], [2.477258929525668, 48.90907739096441], [2.477257495075808, 48.90906918844829], [2.477252363969858, 48.90906165614547], [2.477244016901775, 48.90905549969739], [2.477233235842585, 48.90905129585243], [2.477221030783622, 48.909049438435055], [2.476778225104071, 48.909028017086335]]}}, {"type": "Feature", "properties": {"highway": "footway", "footway": "sidewalk"}, "geometry": {"type": "LineString", "coordinates": [[2.476778225104071, 48.909028017086335], [2.476610100753382, 48.909019883383856]]}}, {"type": "Feature", "properties": {"highway": "footway", "footway": "sidewalk"}, "geometry": {"type": "LineString", "coordinates": [[2.476610100753382, 48.909019883383856], [2.476566760189407, 48.90901778656681], [2.476478400565515, 48.90901351167604], [2.47646919612032, 48.909014025613075]]}}, {"type": "Feature", "properties": {"highway": "footway", "footway": "sidewalk"}, "geometry": {"type": "LineString", "coordinates": [[2.47646919612032, 48.909014025613075], [2.476453741964199, 48.909017528553825]]}}, {"type": "Feature", "properties": {"highway": "footway", "footway": "sidewalk"}, "geometry": {"type": "LineString", "coordinates": [[2.475141286043572, 48.90942944255137], [2.475149789991235, 48.909436910201144], [2.475161646666977, 48.909442019545], [2.475175435553221, 48.90944415844535], [2.475253055732012, 48.9094470870832]]}}, {"type": "Feature", "properties": {"highway": "footway", "footway": "sidewalk"}, "geometry": {"type": "LineString", "coordinates": [[2.475253055732012, 48.9094470870832], [2.475685722997549, 48.90946341081454]]}}, {"type": "Feature", "properties": {"highway": "footway", "footway": "sidewalk"}, "geometry": {"type": "LineString", "coordinates": [[2.475685722997549, 48.90946341081454], [2.475750323697682, 48.909465847938634], [2.475762943385386, 48.909465026875225], [2.47577457595005, 48.909461698814106], [2.475784104527206, 48.909456183288796], [2.475790614261, 48.9094490098553], [2.475793480141222, 48.90944086724821], [2.475799123042155, 48.90938958970298], [2.475797999371461, 48.909381071568696], [2.475792888044813, 48.909373213092216], [2.47578430254338, 48.90936680372933], [2.475773105360013, 48.90936248735885], [2.475760421353809, 48.909360697599325], [2.475748790515443, 48.90936030061812], [2.475692290991821, 48.90935837217202]]}}, {"type": "Feature", "properties": {"highway": "footway", "footway": "sidewalk"}, "geometry": {"type": "LineString", "coordinates": [[2.475692290991821, 48.90935837217202], [2.475176090383448, 48.90934075188446]]}}, {"type": "Feature", "properties": {"highway": "footway", "footway": "sidewalk"}, "geometry": {"type": "LineString", "coordinates": [[2.475176090383448, 48.90934075188446], [2.475140793771004, 48.909339546964816], [2.475128663680594, 48.909340330825295], [2.475119490516763, 48.90934286347123], [2.475117421737817, 48.9093434346464], [2.475108065049672, 48.90934858313394], [2.475101423510695, 48.90935531964149], [2.475098086195265, 48.90936304667264], [2.475098349109203, 48.909371078875786], [2.475102188934936, 48.909378703831784], [2.475141286043572, 48.90942944255137]]}}, {"type": "Feature", "properties": {"highway": "footway", "footway": "sidewalk"}, "geometry": {"type": "LineString", "coordinates": [[2.47497760195065, 48.9091537991128], [2.474987819610904, 48.90914818482207], [2.474994765949354, 48.90914070704529], [2.474997707106504, 48.90913215578846], [2.475002291909409, 48.909081599758146], [2.475004090597552, 48.90906176582796]]}}, {"type": "Feature", "properties": {"highway": "footway", "footway": "sidewalk"}, "geometry": {"type": "LineString", "coordinates": [[2.475004090597552, 48.90906176582796], [2.475006591673578, 48.90903418671994]]}}, {"type": "Feature", "properties": {"highway": "footway", "footway": "sidewalk"}, "geometry": {"type": "LineString", "coordinates": [[2.475006591673578, 48.90903418671994], [2.475011360258236, 48.908981603942884], [2.475011720898703, 48.90897762718663], [2.475012185362993, 48.9089725055717], [2.475010959637962, 48.9089641539748], [2.47500590040183, 48.908956454597735], [2.47499749709553, 48.90895015229169], [2.474986562670317, 48.9089458567525], [2.474974154941312, 48.90894398353783], [2.474912608805638, 48.90894117982615]]}}, {"type": "Feature", "properties": {"highway": "footway", "footway": "sidewalk"}, "geometry": {"type": "LineString", "coordinates": [[2.474912608805638, 48.90894117982615], [2.474896010830219, 48.908940423705786], [2.474882961698324, 48.90894121550761], [2.474870961202979, 48.90894468545806], [2.474861239760992, 48.90895047778144], [2.474855663780972, 48.90895698386085], [2.474852285149721, 48.90896647676515], [2.474848618596349, 48.90904231815958], [2.474850450744028, 48.9090506469622]]}}, {"type": "Feature", "properties": {"highway": "footway", "footway": "sidewalk"}, "geometry": {"type": "LineString", "coordinates": [[2.474850450744028, 48.9090506469622], [2.474853035891115, 48.90905539532428], [2.474860527836453, 48.90906511671093], [2.47492036810213, 48.90914276399532], [2.474928240012213, 48.909149832077496], [2.474939135018728, 48.909154862645686], [2.474955508640737, 48.909157224520754]]}}, {"type": "Feature", "properties": {"highway": "footway", "footway": "sidewalk"}, "geometry": {"type": "LineString", "coordinates": [[2.474955508640737, 48.909157224520754], [2.474965192435107, 48.90915695678327], [2.47497760195065, 48.9091537991128]]}}, {"type": "Feature", "properties": {"highway": "footway", "footway": "sidewalk"}, "geometry": {"type": "LineString", "coordinates": [[2.479119535095729, 48.90947637474673], [2.479112773087426, 48.90954953258661], [2.479106717071461, 48.90961192237672]]}}, {"type": "Feature", "properties": {"highway": "footway", "footway": "sidewalk"}, "geometry": {"type": "LineString", "coordinates": [[2.479106717071461, 48.90961192237672], [2.479106156112368, 48.90961770143548]]}}, {"type": "Feature", "properties": {"highway": "footway", "footway": "sidewalk"}, "geometry": {"type": "LineString", "coordinates": [[2.479106156112368, 48.90961770143548], [2.479105061528735, 48.90962897794576], [2.479104400140703, 48.90963091862241], [2.479102275126444, 48.909632150883674], [2.479093671840867, 48.90963913930655], [2.47908903480537, 48.90964760425097], [2.47909093265199, 48.90966063404825], [2.47909322504107, 48.90966513557153], [2.479101585935017, 48.90967225067687], [2.479113032231433, 48.909677156942756], [2.479126289934169, 48.909679308291494], [2.479421255649308, 48.90969368017818]]}}, {"type": "Feature", "properties": {"highway": "footway", "footway": "sidewalk"}, "geometry": {"type": "LineString", "coordinates": [[2.479421255649308, 48.90969368017818], [2.47967882064247, 48.90970622913125], [2.479737907706579, 48.90970909860076]]}}, {"type": "Feature", "properties": {"highway": "footway", "footway": "sidewalk"}, "geometry": {"type": "LineString", "coordinates": [[2.479737907706579, 48.90970909860076], [2.479758933707462, 48.90971011968773], [2.479891254395198, 48.90971654549658]]}}, {"type": "Feature", "properties": {"highway": "footway", "footway": "sidewalk"}, "geometry": {"type": "LineString", "coordinates": [[2.479891254395198, 48.90971654549658], [2.479988029859667, 48.909721245047244], [2.480001528273683, 48.90972041645868], [2.480013875442129, 48.9097167266452], [2.480024864040736, 48.90970912603253]]}}, {"type": "Feature", "properties": {"highway": "footway", "footway": "sidewalk"}, "geometry": {"type": "LineString", "coordinates": [[2.480024864040736, 48.90970912603253], [2.480029971585451, 48.909702652423356], [2.480031954321946, 48.90969381238924], [2.480031015688749, 48.909662272828314], [2.480018421178745, 48.90938999260867], [2.480018618821377, 48.909382955793596], [2.480023073416971, 48.909316795546175], [2.480032131222456, 48.9091933187866], [2.480030770740337, 48.909185000110064], [2.480026965136546, 48.90917936466237], [2.48001714227654, 48.90917112272049], [2.479999411838072, 48.90916591100981]]}}, {"type": "Feature", "properties": {"highway": "footway", "footway": "sidewalk"}, "geometry": {"type": "LineString", "coordinates": [[2.479999411838072, 48.90916591100981], [2.479982608725676, 48.90916463327414], [2.479969939096919, 48.909165421081624], [2.479958249122685, 48.90916873614062], [2.47994866914586, 48.90917425790703], [2.479941328229969, 48.9091837188335]]}}, {"type": "Feature", "properties": {"highway": "footway", "footway": "sidewalk"}, "geometry": {"type": "LineString", "coordinates": [[2.479941328229969, 48.9091837188335], [2.479939250877274, 48.90918962414155], [2.479938241274549, 48.90919888445051], [2.479934438133862, 48.909233767702744], [2.479912419124505, 48.90943572999273], [2.47991207308131, 48.909437412178015], [2.479910137695289, 48.909443777229235], [2.479908506686297, 48.90944697986951], [2.479904223575368, 48.90945282542389], [2.479902959677621, 48.909454304509325], [2.479891472026464, 48.909465963628875], [2.479888680503877, 48.90946821861208], [2.479875118662739, 48.90947702597242], [2.479871656506154, 48.90947883226704], [2.479853075116238, 48.90948653027305], [2.479847143338544, 48.909488690719975], [2.47978010727259, 48.90950935055585], [2.47976812782214, 48.909514955414814], [2.479759922782806, 48.90952298762422], [2.479758287011649, 48.90952755763213]]}}, {"type": "Feature", "properties": {"highway": "footway", "footway": "sidewalk"}, "geometry": {"type": "LineString", "coordinates": [[2.479758287011649, 48.90952755763213], [2.479756549372527, 48.909532412237226], [2.479748160582232, 48.90964022211942], [2.479747578345098, 48.90964203765094], [2.479744778926064, 48.90964223367641], [2.479642221077512, 48.90963876630077], [2.479639466775469, 48.909638382509684], [2.479639169393491, 48.90963653723916], [2.479649051708999, 48.90950953657943], [2.47964926077228, 48.90950818547489], [2.479650611559731, 48.90950237445715], [2.479651025815104, 48.90950104407701], [2.479658191771277, 48.9094827617509], [2.479659152765215, 48.90948088961441], [2.47966361067793, 48.909473933499356], [2.479670368353583, 48.909467674890415]]}}, {"type": "Feature", "properties": {"highway": "footway", "footway": "sidewalk"}, "geometry": {"type": "LineString", "coordinates": [[2.479670368353583, 48.909467674890415], [2.479677501469378, 48.90946291619567], [2.479687060774401, 48.90945875473275], [2.479689677205222, 48.909457789480086], [2.479782666665156, 48.909429170971045], [2.47979445012204, 48.909423697611416], [2.479802623568763, 48.90941587067629], [2.479806172947591, 48.90940666123439], [2.479817528680639, 48.909302506600596]]}}, {"type": "Feature", "properties": {"highway": "footway", "footway": "sidewalk"}, "geometry": {"type": "LineString", "coordinates": [[2.479817528680639, 48.909302506600596], [2.47982664636948, 48.90921887896324], [2.479829313057746, 48.909194419988204], [2.479830262307945, 48.909185713420335], [2.479829151951846, 48.909177253523474], [2.479825453182622, 48.90917152504041]]}}, {"type": "Feature", "properties": {"highway": "footway", "footway": "sidewalk"}, "geometry": {"type": "LineString", "coordinates": [[2.479825453182622, 48.90917152504041], [2.47981562755049, 48.90916304777982], [2.47980455354179, 48.90915870947613], [2.479791982295174, 48.90915685519625], [2.479686571938753, 48.90915253477847]]}}, {"type": "Feature", "properties": {"highway": "footway", "footway": "sidewalk"}, "geometry": {"type": "LineString", "coordinates": [[2.479686571938753, 48.90915253477847], [2.479047127526172, 48.90912632401093], [2.479033738916754, 48.909127237051216], [2.479021523810419, 48.909130963813126], [2.479011803545142, 48.90913710116378], [2.479005629586886, 48.90914498521095], [2.479003669789866, 48.909153763117594], [2.479000960685417, 48.90918357170117], [2.478995439209792, 48.90924416784707]]}}, {"type": "Feature", "properties": {"highway": "footway", "footway": "sidewalk"}, "geometry": {"type": "LineString", "coordinates": [[2.478995439209792, 48.90924416784707], [2.47899174525035, 48.909284707598744]]}}, {"type": "Feature", "properties": {"highway": "footway", "footway": "sidewalk"}, "geometry": {"type": "LineString", "coordinates": [[2.47899174525035, 48.909284707598744], [2.478986847842777, 48.90933845461849], [2.478984021459385, 48.90936947295284], [2.478985026570649, 48.90937724324127], [2.478989361646956, 48.909384499331495], [2.478996664407731, 48.90939063483272], [2.479006324562677, 48.909395137001525], [2.479047812706547, 48.90940904182641], [2.479077615394448, 48.909419030236045], [2.479079954273809, 48.90941994814481], [2.479088521401887, 48.90942384194191], [2.479092530541319, 48.909426240094426], [2.479098357880645, 48.9094307949628], [2.47910126715998, 48.909433804507636], [2.479105584818512, 48.90943994433275]]}}, {"type": "Feature", "properties": {"highway": "footway", "footway": "sidewalk"}, "geometry": {"type": "LineString", "coordinates": [[2.479105584818512, 48.90943994433275], [2.479109814339428, 48.90944848749544]]}}, {"type": "Feature", "properties": {"highway": "footway", "footway": "sidewalk"}, "geometry": {"type": "LineString", "coordinates": [[2.479109814339428, 48.90944848749544], [2.47911686413552, 48.909463468277], [2.479117637836515, 48.90946586556043], [2.479119535095729, 48.90947637474673]]}}]}