{
"type": "FeatureCollection",
"name": "enveloppeParEtudiant",
"crs": { "type": "name", "properties": { "name": "urn:ogc:def:crs:OGC:1.3:CRS84" } },
"features": [
{ "type": "Feature", "properties": { "CLUSTER_ID": 6, "CLUSTER_SIZE": 47, "anomalieEtudiant_prénom": "ELISE", "anomalieEtudiant_anomalie : géocodage": "Pas de numéro (points) au 23 bis rue Jean Jaurès ", "anomalieEtudiant_anomalie : typologie": "NA" }, "geometry": { "type": "Polygon", "coordinates": [ [ [ 2.475782806751193, 48.900417835933304 ], [ 2.47552128222956, 48.90078457763326 ], [ 2.475085889810226, 48.901939778909053 ], [ 2.475097656340895, 48.901999765557058 ], [ 2.475493332384075, 48.902717337847172 ], [ 2.47574632862464, 48.903169920909406 ], [ 2.47621967139959, 48.903228842012481 ], [ 2.477755752406105, 48.902839805582403 ], [ 2.477744091080681, 48.902761973411486 ], [ 2.477664278835774, 48.9025766619366 ], [ 2.477068405297319, 48.901293912600238 ], [ 2.475782806751193, 48.900417835933304 ] ] ] } },
{ "type": "Feature", "properties": { "CLUSTER_ID": 15, "CLUSTER_SIZE": 47, "anomalieEtudiant_prénom": "Paloma", "anomalieEtudiant_anomalie : géocodage": "Pas de point au : 37, 39, 41, 41bis, 45, 45bis, 47, 47bis, 49, 51 rue de la liberté et au 14 avenue Denise. Pas de prescription surfacique au 16 Avenue Denise", "anomalieEtudiant_anomalie : typologie": null }, "geometry": { "type": "Polygon", "coordinates": [ [ [ 2.48311543984117, 48.892495732268664 ], [ 2.481274456744616, 48.894676486896479 ], [ 2.481287899936113, 48.895933682396837 ], [ 2.482054727765733, 48.897376882351409 ], [ 2.483728520106982, 48.898967152214297 ], [ 2.48398930046966, 48.898767100104358 ], [ 2.485415374128864, 48.896354739959342 ], [ 2.485517445883863, 48.895602314303119 ], [ 2.48311543984117, 48.892495732268664 ] ] ] } },
{ "type": "Feature", "properties": { "CLUSTER_ID": 5, "CLUSTER_SIZE": 47, "anomalieEtudiant_prénom": "Wendy", "anomalieEtudiant_anomalie : géocodage": "98 avenue de la République = géocodage présent et abscence d'agrégation", "anomalieEtudiant_anomalie : typologie": null }, "geometry": { "type": "Polygon", "coordinates": [ [ [ 2.479505289008124, 48.896621593479395 ], [ 2.477869682096395, 48.897509401579271 ], [ 2.477468989514129, 48.899268054370907 ], [ 2.4782870313673, 48.900851518376406 ], [ 2.479414401391923, 48.90157261524385 ], [ 2.480364817428807, 48.90155126470119 ], [ 2.480931514855698, 48.901444827178999 ], [ 2.481402872823042, 48.901329761393974 ], [ 2.482228616926511, 48.900951359452776 ], [ 2.481544993979699, 48.897708981170233 ], [ 2.479505289008124, 48.896621593479395 ] ] ] } },
{ "type": "Feature", "properties": { "CLUSTER_ID": 14, "CLUSTER_SIZE": 59, "anomalieEtudiant_prénom": "Mihai", "anomalieEtudiant_anomalie : géocodage": "RAS", "anomalieEtudiant_anomalie : typologie": null }, "geometry": { "type": "Polygon", "coordinates": [ [ [ 2.481136161582736, 48.894701890216453 ], [ 2.481022693551781, 48.894702541481017 ], [ 2.480552534982227, 48.89475955034824 ], [ 2.479305283171012, 48.894958810249342 ], [ 2.479265359545126, 48.895600737243093 ], [ 2.479276686199323, 48.895661602924797 ], [ 2.47947477207348, 48.896416368981569 ], [ 2.480088281826336, 48.896471177607765 ], [ 2.480809770304399, 48.896238486547844 ], [ 2.481109353877628, 48.895840269766097 ], [ 2.481136161582736, 48.894701890216453 ] ] ] } },
{ "type": "Feature", "properties": { "CLUSTER_ID": 4, "CLUSTER_SIZE": 47, "anomalieEtudiant_prénom": "Anoé", "anomalieEtudiant_anomalie : géocodage": "57 rue Michelet = point mais pas de bâtiment agrégé", "anomalieEtudiant_anomalie : typologie": null }, "geometry": { "type": "Polygon", "coordinates": [ [ [ 2.473237413396234, 48.898546099398374 ], [ 2.473021216520168, 48.898666191502578 ], [ 2.473148078825511, 48.900737290478467 ], [ 2.473295972191307, 48.901051102107374 ], [ 2.473391972919958, 48.901217897046948 ], [ 2.473786518888501, 48.901862986610993 ], [ 2.474237908379675, 48.901804058943156 ], [ 2.474692938160362, 48.901516047657275 ], [ 2.475139482714225, 48.901214379326397 ], [ 2.475689999657063, 48.900483934259213 ], [ 2.475542207109299, 48.899588854365035 ], [ 2.473237413396234, 48.898546099398374 ] ] ] } },
{ "type": "Feature", "properties": { "CLUSTER_ID": 13, "CLUSTER_SIZE": 47, "anomalieEtudiant_prénom": "Sarah", "anomalieEtudiant_anomalie : géocodage": "Confusion d'adresse : indique Villa Jeanette en latéral contre informations officielles qui donnent sur la rue Louis Auguste Blanqui", "anomalieEtudiant_anomalie : typologie": "Ecole elementaire indiquée \"Allé de la Villa Jeanette\" > 136 rue Louis Auguste Blanqui" }, "geometry": { "type": "Polygon", "coordinates": [ [ [ 2.490166354208002, 48.889154705882483 ], [ 2.485131859731546, 48.89003740425153 ], [ 2.485192664312041, 48.893756132498957 ], [ 2.485874661770455, 48.898640111665458 ], [ 2.489927361880795, 48.897551077229267 ], [ 2.493563865453249, 48.894861932139499 ], [ 2.494129404273254, 48.894423403520662 ], [ 2.493794368258373, 48.893718857136399 ], [ 2.492319266110862, 48.891064848256512 ], [ 2.490166354208002, 48.889154705882483 ] ] ] } },
{ "type": "Feature", "properties": { "CLUSTER_ID": 3, "CLUSTER_SIZE": 47, "anomalieEtudiant_prénom": "Jade", "anomalieEtudiant_anomalie : géocodage": "4 Allée Rulhiere : Point dont le géocodage est pas bon", "anomalieEtudiant_anomalie : typologie": null }, "geometry": { "type": "Polygon", "coordinates": [ [ [ 2.471843685024048, 48.898992517215703 ], [ 2.471444116349372, 48.899071651569187 ], [ 2.471358288601882, 48.899090220572788 ], [ 2.470767981253901, 48.899279734328111 ], [ 2.470607438233555, 48.901325029913068 ], [ 2.471127376020132, 48.902191620100673 ], [ 2.47253187807791, 48.902568352688625 ], [ 2.472972338090376, 48.902054525494037 ], [ 2.473186151329409, 48.901696228113821 ], [ 2.473121453764844, 48.900655271992498 ], [ 2.472988923726253, 48.900385578057609 ], [ 2.472890145864142, 48.900225897395707 ], [ 2.47279630361136, 48.900079216440247 ], [ 2.471843685024048, 48.898992517215703 ] ] ] } },
{ "type": "Feature", "properties": { "CLUSTER_ID": 2, "CLUSTER_SIZE": 47, "anomalieEtudiant_prénom": "Thileni", "anomalieEtudiant_anomalie : géocodage": "Point ayant aucun 4 allées des courts sillons", "anomalieEtudiant_anomalie : typologie": null }, "geometry": { "type": "Polygon", "coordinates": [ [ [ 2.497661131413303, 48.892669958565882 ], [ 2.49714128683604, 48.89280234233707 ], [ 2.495902992733845, 48.894183193225857 ], [ 2.496852685457735, 48.895578209441609 ], [ 2.497914806223612, 48.895786248056503 ], [ 2.499046614806358, 48.895841639874163 ], [ 2.499203321828974, 48.895811011076802 ], [ 2.499733422061962, 48.895704507707499 ], [ 2.499703974560652, 48.895419415909828 ], [ 2.497661131413303, 48.892669958565882 ] ] ] } },
{ "type": "Feature", "properties": { "CLUSTER_ID": 12, "CLUSTER_SIZE": 47, "anomalieEtudiant_prénom": "cylia", "anomalieEtudiant_anomalie : géocodage": "-53 bis Avenue des Sciences, pas de numero ni de batiment pour cette adresse,   -15 Av. des sciences pas de point de geocodage", "anomalieEtudiant_anomalie : typologie": null }, "geometry": { "type": "Polygon", "coordinates": [ [ [ 2.496393065044515, 48.889617417275637 ], [ 2.494424551601532, 48.88975174671107 ], [ 2.493483936535571, 48.89013782284129 ], [ 2.493317107362518, 48.89090972001673 ], [ 2.494702509366264, 48.894576984326363 ], [ 2.49555788751083, 48.894383868133339 ], [ 2.496158378143226, 48.89384972995903 ], [ 2.496795679446211, 48.893004093074573 ], [ 2.497640002632766, 48.890896330618197 ], [ 2.497432502336923, 48.890362367069706 ], [ 2.496393065044515, 48.889617417275637 ] ] ] } },
{ "type": "Feature", "properties": { "CLUSTER_ID": 1, "CLUSTER_SIZE": 49, "anomalieEtudiant_prénom": "Béatrice", "anomalieEtudiant_anomalie : géocodage": null, "anomalieEtudiant_anomalie : typologie": null }, "geometry": { "type": "Polygon", "coordinates": [ [ [ 2.476682954281966, 48.899218714067779 ], [ 2.476322533438932, 48.899256512382543 ], [ 2.47590640824723, 48.899519725337669 ], [ 2.476194004578251, 48.900391906742634 ], [ 2.476527077103648, 48.900886061317941 ], [ 2.477056156659436, 48.901176517391619 ], [ 2.477575125150525, 48.901408008752171 ], [ 2.477736054539751, 48.901409809967028 ], [ 2.477999304604221, 48.901381348564179 ], [ 2.478113858582852, 48.901354714993325 ], [ 2.478256268631654, 48.901304919181072 ], [ 2.477510666427464, 48.899518516018595 ], [ 2.476682954281966, 48.899218714067779 ] ] ] } },
{ "type": "Feature", "properties": { "CLUSTER_ID": 11, "CLUSTER_SIZE": 47, "anomalieEtudiant_prénom": "Ali", "anomalieEtudiant_anomalie : géocodage": "abscence de numéro d'adressage au 13 Place Nicole Neuburger", "anomalieEtudiant_anomalie : typologie": "immeuble indiqué comme'une cités-jardins, cités-jardins indiqué comme un immeuble ( place Nicole Neuburger" }, "geometry": { "type": "Polygon", "coordinates": [ [ [ 2.494372457113199, 48.89464849555975 ], [ 2.493422877953007, 48.895258243934634 ], [ 2.490835160672954, 48.897709498152452 ], [ 2.48971897233656, 48.904756603213897 ], [ 2.490422180164565, 48.905792216287644 ], [ 2.490824131378945, 48.90617430498498 ], [ 2.491929798801293, 48.906619220503764 ], [ 2.49877593185271, 48.903878638490696 ], [ 2.498907045289916, 48.901445633378415 ], [ 2.494372457113199, 48.89464849555975 ] ] ] } },
{ "type": "Feature", "properties": { "CLUSTER_ID": 10, "CLUSTER_SIZE": 47, "anomalieEtudiant_prénom": "Colin", "anomalieEtudiant_anomalie : géocodage": "137 rue Baudin : result_score=0,758 mais positionnement cohérent avec l'adresse de la BAN (non certifiée) - --121 rue du Vieux Moulin : bâtiment (école) non géocodé possiblement car large complexe s'étendant jusqu'à la rue parallèle (rue Salengro)", "anomalieEtudiant_anomalie : typologie": "116 rue Baudin classée injustement \"Maison de bourg\" -> \"Lotissement/maison pavillonaire" }, "geometry": { "type": "Polygon", "coordinates": [ [ [ 2.474927960351079, 48.895978969132862 ], [ 2.4743243105714, 48.898590043330671 ], [ 2.474594543653784, 48.898747062326969 ], [ 2.475237368100125, 48.89910623180932 ], [ 2.4757079114186, 48.899362241787848 ], [ 2.475974415085391, 48.899185947675527 ], [ 2.476827396684908, 48.898578328721477 ], [ 2.477301867258535, 48.897951026460113 ], [ 2.477016485460906, 48.897284692378683 ], [ 2.475712391766285, 48.896317975513234 ], [ 2.474927960351079, 48.895978969132862 ] ] ] } },
{ "type": "Feature", "properties": { "CLUSTER_ID": 9, "CLUSTER_SIZE": 47, "anomalieEtudiant_prénom": "GUILHERME", "anomalieEtudiant_anomalie : géocodage": "Autre erreur au 15 Rue des peupliers : la géométrie ne correspond pas avec OSM. Il semble que l'ancien bâtiment a été démoli et il y a désormais un pavillon", "anomalieEtudiant_anomalie : typologie": "Autre anomalie également au 20 Route de Villemomble, géométrie non correspondante avec OSM, qui est plutôt à jour. Il semble qu'une partie du bâtiment a été démolie" }, "geometry": { "type": "Polygon", "coordinates": [ [ [ 2.479222753387039, 48.889214878471705 ], [ 2.478019819948429, 48.89125402713114 ], [ 2.479322529193407, 48.893587298948837 ], [ 2.479683850234633, 48.893541034895449 ], [ 2.482136672437427, 48.893181494603652 ], [ 2.483096153208123, 48.892453321710505 ], [ 2.482399574274607, 48.890490793856173 ], [ 2.479222753387039, 48.889214878471705 ] ] ] } },
{ "type": "Feature", "properties": { "CLUSTER_ID": 8, "CLUSTER_SIZE": 47, "anomalieEtudiant_prénom": "Falle", "anomalieEtudiant_anomalie : géocodage": "NA", "anomalieEtudiant_anomalie : typologie": "immeuble codifié comme bati ou ensemble de bati ou monument historique 120 Rue Solengro IMMEUBLE NIVEAU 2" }, "geometry": { "type": "Polygon", "coordinates": [ [ [ 2.476899244666266, 48.892530146003843 ], [ 2.476655381545126, 48.892587790349879 ], [ 2.475986575385023, 48.896193583775322 ], [ 2.47739953472139, 48.897401406202 ], [ 2.477780667514414, 48.897350880151087 ], [ 2.47793397343132, 48.89732185778179 ], [ 2.47802450929104, 48.897304239248172 ], [ 2.479217052187944, 48.896459110320578 ], [ 2.479225441191811, 48.894969426893681 ], [ 2.477486817635439, 48.893006172643588 ], [ 2.476899244666266, 48.892530146003843 ] ] ] } },
{ "type": "Feature", "properties": { "CLUSTER_ID": 7, "CLUSTER_SIZE": 47, "anomalieEtudiant_prénom": "MAXINE", "anomalieEtudiant_anomalie : géocodage": "Absence d'identification sur le type de bâtit et de l'addresse du bâtiment situé sur les quai Hubertine Auclert", "anomalieEtudiant_anomalie : typologie": null }, "geometry": { "type": "Polygon", "coordinates": [ [ [ 2.482499991771876, 48.901648689059989 ], [ 2.480545018523972, 48.901833003962629 ], [ 2.477951385746319, 48.903339348329055 ], [ 2.476828537269071, 48.904018449040166 ], [ 2.472759285335211, 48.908418821918815 ], [ 2.473228028401656, 48.9091372889159 ], [ 2.480403620940299, 48.916997219210508 ], [ 2.489125196704875, 48.912955446597991 ], [ 2.490560329213324, 48.910268137488082 ], [ 2.483986602200855, 48.903169119083039 ], [ 2.482499991771876, 48.901648689059989 ] ] ] } }
]
}
