{
"type": "FeatureCollection",
"name": "irisSel",
"crs": { "type": "name", "properties": { "name": "urn:ogc:def:crs:OGC:1.3:CRS84" } },
"features": [
{ "type": "Feature", "properties": { "nom_iris": "La Remise à Jorelle", "iris": "0302", "etudiant": null }, "geometry": { "type": "Polygon", "coordinates": [ [ [ 2.497344470644586, 48.891591128763665 ], [ 2.497062977335188, 48.891082735511169 ], [ 2.498208740952033, 48.890924766982202 ], [ 2.498064923384787, 48.890139964667661 ], [ 2.497730322369812, 48.890188923095032 ], [ 2.49664900525403, 48.889607024249919 ], [ 2.495526557559455, 48.889331607589703 ], [ 2.492004576533622, 48.890244808110708 ], [ 2.491103847400463, 48.890866904606071 ], [ 2.489904267772818, 48.888441750007573 ], [ 2.489922112005918, 48.888290741306015 ], [ 2.487411654861914, 48.888409521879311 ], [ 2.487042552797905, 48.886977131770536 ], [ 2.486822730151693, 48.887004068602103 ], [ 2.487321483147922, 48.888426222797165 ], [ 2.487616133285705, 48.889110962376463 ], [ 2.487451700550535, 48.88919029752639 ], [ 2.487803170420291, 48.889645055261994 ], [ 2.488104396100288, 48.89035590100616 ], [ 2.48823715878036, 48.890446399706747 ], [ 2.48899515913465, 48.89200274784168 ], [ 2.486208909487701, 48.892685992826472 ], [ 2.48638900408674, 48.89309415298198 ], [ 2.485032995841334, 48.893264594181304 ], [ 2.485168423735753, 48.893637490817817 ], [ 2.485455351521211, 48.893585664739945 ], [ 2.486422824082942, 48.895334477394307 ], [ 2.488919413765301, 48.8949953271391 ], [ 2.493892186479773, 48.89430149610039 ], [ 2.493225430329408, 48.893020757978938 ], [ 2.492126199078548, 48.89301610107519 ], [ 2.492023797354905, 48.89232859381049 ], [ 2.497344470644586, 48.891591128763665 ] ] ] } }
]
}
