{
"type": "FeatureCollection",
"name": "irisSimplifie",
"crs": { "type": "name", "properties": { "name": "urn:ogc:def:crs:OGC:1.3:CRS84" } },
"features": [
{ "type": "Feature", "properties": { "fid": 1, "code_iris": "930100404", "nom_iris": "La Ferme", "id": "IRIS____0000000930100404", "iris": "0404", "nom_com": "Bondy" }, "geometry": { "type": "Polygon", "coordinates": [ [ [ 2.492326194382521, 48.907613549237283 ], [ 2.49016009654164, 48.907301285871533 ], [ 2.490179653137868, 48.907254605600279 ], [ 2.49034725576742, 48.906856929628212 ], [ 2.493697751435809, 48.907283016905453 ], [ 2.493540653089677, 48.907024254232468 ], [ 2.493407643908212, 48.905131566709997 ], [ 2.490727378210579, 48.904676845915219 ], [ 2.491378959997417, 48.904168811843519 ], [ 2.4899276267951, 48.901927875300004 ], [ 2.489176746126604, 48.902130615476914 ], [ 2.488789975873298, 48.901510244947424 ], [ 2.488465949064458, 48.901585302249934 ], [ 2.487396457950496, 48.901728215457311 ], [ 2.486428663029727, 48.901794215171329 ], [ 2.486329973001488, 48.901842354318454 ], [ 2.486083481096119, 48.901800828288181 ], [ 2.485108640587627, 48.901889269689747 ], [ 2.483400127059686, 48.902093248941711 ], [ 2.482638878159824, 48.902238348113023 ], [ 2.482657149344461, 48.902458756233671 ], [ 2.482741431822964, 48.9026254912472 ], [ 2.483032237773398, 48.903012547525172 ], [ 2.485536040238129, 48.904743691733621 ], [ 2.484275750707639, 48.905135762874444 ], [ 2.483273437588505, 48.905923726580717 ], [ 2.483257928573992, 48.90624920617784 ], [ 2.483946542229033, 48.906418545286613 ], [ 2.49148792745249, 48.907537150444583 ], [ 2.492326194382521, 48.907613549237283 ] ] ] } },
{ "type": "Feature", "properties": { "fid": 2, "code_iris": "930100101", "nom_iris": "La Flamiche", "id": "IRIS____0000000930100101", "iris": "0101", "nom_com": "Bondy" }, "geometry": { "type": "Polygon", "coordinates": [ [ [ 2.472319062081925, 48.908056771559309 ], [ 2.473059548887945, 48.909165268997022 ], [ 2.474290287269882, 48.910636531091903 ], [ 2.47476743405428, 48.911349068189473 ], [ 2.475891025006736, 48.912360300932328 ], [ 2.476209514599066, 48.91297950943985 ], [ 2.476182549123628, 48.913218603867399 ], [ 2.475726313710239, 48.914083527594386 ], [ 2.475485698754686, 48.916432326317718 ], [ 2.475434445651804, 48.917049915196714 ], [ 2.475694071293443, 48.917283968061163 ], [ 2.474369048491921, 48.918373498268117 ], [ 2.476052969607878, 48.918906958638551 ], [ 2.476034993142776, 48.919066054287896 ], [ 2.477028874903231, 48.920239472280038 ], [ 2.479478710790081, 48.919925497107542 ], [ 2.479387411144055, 48.919230849420678 ], [ 2.479442403730318, 48.918371367583873 ], [ 2.482184647137146, 48.918144039632551 ], [ 2.4822603597029, 48.91848879479079 ], [ 2.485338628008913, 48.917811402859996 ], [ 2.485148312164113, 48.917601050611736 ], [ 2.484792990967319, 48.917518587069743 ], [ 2.484816041819458, 48.917395483430127 ], [ 2.479646874794582, 48.917982863218676 ], [ 2.479621073529204, 48.918106853195383 ], [ 2.479471654081007, 48.918175449458104 ], [ 2.479276688089672, 48.91815931432393 ], [ 2.479156357488627, 48.918048178597907 ], [ 2.478612633765325, 48.918112361150911 ], [ 2.477709364190399, 48.914980691057764 ], [ 2.477158647714817, 48.913570894686963 ], [ 2.476376788302325, 48.912084542937571 ], [ 2.475434329900909, 48.910699101226399 ], [ 2.473348297827321, 48.908134144304391 ], [ 2.472319062081925, 48.908056771559309 ] ] ] } },
{ "type": "Feature", "properties": { "fid": 3, "code_iris": "930100203", "nom_iris": "Le Champart", "id": "IRIS____0000000930100203", "iris": "0203", "nom_com": "Bondy" }, "geometry": { "type": "Polygon", "coordinates": [ [ [ 2.481514136670342, 48.899844933013753 ], [ 2.479828636138176, 48.896249391053225 ], [ 2.477117505450973, 48.896616193257266 ], [ 2.477358552017343, 48.897740480522785 ], [ 2.47729970428776, 48.897760008451151 ], [ 2.476046281105214, 48.899377779490543 ], [ 2.47417701319122, 48.899836326872013 ], [ 2.475217477076614, 48.901760905899273 ], [ 2.478786111234208, 48.901064240121791 ], [ 2.478633684157945, 48.900756913913604 ], [ 2.478609002875412, 48.900361112434091 ], [ 2.479955758850722, 48.900181710963736 ], [ 2.481514136670342, 48.899844933013753 ] ] ] } },
{ "type": "Feature", "properties": { "fid": 4, "code_iris": "930100301", "nom_iris": "La Mare à la Veuve", "id": "IRIS____0000000930100301", "iris": "0301", "nom_com": "Bondy" }, "geometry": { "type": "Polygon", "coordinates": [ [ [ 2.486822730151693, 48.887004068602103 ], [ 2.48087614872138, 48.888042324274018 ], [ 2.479556019292056, 48.88845477491774 ], [ 2.477882178875825, 48.889186724290781 ], [ 2.477721845285633, 48.889671654536613 ], [ 2.477596474972409, 48.890749384174264 ], [ 2.477669559911427, 48.891756932817096 ], [ 2.479049525035401, 48.891644235018887 ], [ 2.479565245414994, 48.893671725984994 ], [ 2.479576616029947, 48.894035096666833 ], [ 2.48334376929185, 48.893477649058021 ], [ 2.485032995841334, 48.893264594181304 ], [ 2.48638900408674, 48.89309415298198 ], [ 2.486208909487701, 48.892685992826472 ], [ 2.48899515913465, 48.89200274784168 ], [ 2.48823715878036, 48.890446399706747 ], [ 2.488104396100288, 48.89035590100616 ], [ 2.487803170420291, 48.889645055261994 ], [ 2.487451700550535, 48.88919029752639 ], [ 2.487616133285705, 48.889110962376463 ], [ 2.487321483147922, 48.888426222797165 ], [ 2.486822730151693, 48.887004068602103 ] ] ] } },
{ "type": "Feature", "properties": { "fid": 5, "code_iris": "930100403", "nom_iris": "Les Flèches", "id": "IRIS____0000000930100403", "iris": "0403", "nom_com": "Bondy" }, "geometry": { "type": "Polygon", "coordinates": [ [ [ 2.480312134883917, 48.905748141856321 ], [ 2.480305501601011, 48.906002615012191 ], [ 2.482513489070207, 48.906344016003622 ], [ 2.483032715460667, 48.906398417419986 ], [ 2.483946542229033, 48.906418545286613 ], [ 2.483257928573992, 48.90624920617784 ], [ 2.483273437588505, 48.905923726580717 ], [ 2.484275750707639, 48.905135762874444 ], [ 2.485536040238129, 48.904743691733621 ], [ 2.483032237773398, 48.903012547525172 ], [ 2.482741431822964, 48.9026254912472 ], [ 2.482657149344461, 48.902458756233671 ], [ 2.482638878159824, 48.902238348113023 ], [ 2.482214144143701, 48.901328216323897 ], [ 2.480068095379497, 48.901772168471268 ], [ 2.480494015905549, 48.902833395644045 ], [ 2.480930938571385, 48.902793022725511 ], [ 2.48106415223949, 48.902977057680886 ], [ 2.480287717485985, 48.903138263523608 ], [ 2.480297471920989, 48.903254315849374 ], [ 2.480194806936366, 48.903289842434503 ], [ 2.48034065418287, 48.903711348672282 ], [ 2.480383253366687, 48.904363527169245 ], [ 2.480312134883917, 48.905748141856321 ] ] ] } },
{ "type": "Feature", "properties": { "fid": 6, "code_iris": "930100304", "nom_iris": "Le Saule Blanc", "id": "IRIS____0000000930100304", "iris": "0304", "nom_com": "Bondy" }, "geometry": { "type": "Polygon", "coordinates": [ [ [ 2.486422824082942, 48.895334477394307 ], [ 2.482337632316665, 48.895905935263706 ], [ 2.483978702118783, 48.899046202441774 ], [ 2.487418591864882, 48.898510599278517 ], [ 2.48864812012936, 48.898315310114498 ], [ 2.490409374824368, 48.898142956040793 ], [ 2.489981411615676, 48.896716633025015 ], [ 2.489957292979352, 48.896672464267574 ], [ 2.489751307937389, 48.896675184048981 ], [ 2.488919413765301, 48.8949953271391 ], [ 2.486422824082942, 48.895334477394307 ] ] ] } },
{ "type": "Feature", "properties": { "fid": 7, "code_iris": "930100102", "nom_iris": "La Terre Saint-Blaise", "id": "IRIS____0000000930100102", "iris": "0102", "nom_com": "Bondy" }, "geometry": { "type": "Polygon", "coordinates": [ [ [ 2.479075892858592, 48.91599924384289 ], [ 2.479271509996066, 48.916222219303499 ], [ 2.479597763781908, 48.917435881345057 ], [ 2.479481579582799, 48.917865237474849 ], [ 2.479646874794582, 48.917982863218676 ], [ 2.484816041819458, 48.917395483430127 ], [ 2.484903802661066, 48.917351795548576 ], [ 2.484557112157495, 48.916949220954884 ], [ 2.484141130614493, 48.915415937443917 ], [ 2.479075892858592, 48.91599924384289 ] ] ] } },
{ "type": "Feature", "properties": { "fid": 8, "code_iris": "930100402", "nom_iris": "La Martraye", "id": "IRIS____0000000930100402", "iris": "0402", "nom_com": "Bondy" }, "geometry": { "type": "Polygon", "coordinates": [ [ [ 2.481514136670342, 48.899844933013753 ], [ 2.482214144143701, 48.901328216323897 ], [ 2.482638878159824, 48.902238348113023 ], [ 2.483400127059686, 48.902093248941711 ], [ 2.485108640587627, 48.901889269689747 ], [ 2.486083481096119, 48.901800828288181 ], [ 2.486329973001488, 48.901842354318454 ], [ 2.486428663029727, 48.901794215171329 ], [ 2.487396457950496, 48.901728215457311 ], [ 2.488465949064458, 48.901585302249934 ], [ 2.488789975873298, 48.901510244947424 ], [ 2.48876985097639, 48.90147598553007 ], [ 2.489046338638162, 48.901380040632482 ], [ 2.487418591864882, 48.898510599278517 ], [ 2.483978702118783, 48.899046202441774 ], [ 2.482173162221083, 48.899688607217456 ], [ 2.481514136670342, 48.899844933013753 ] ] ] } },
{ "type": "Feature", "properties": { "fid": 9, "code_iris": "930100104", "nom_iris": "Suzanne Buisson", "id": "IRIS____0000000930100104", "iris": "0104", "nom_com": "Bondy" }, "geometry": { "type": "Polygon", "coordinates": [ [ [ 2.481447547895721, 48.912144370004235 ], [ 2.481142490877712, 48.912224884975217 ], [ 2.478301152060335, 48.912568665796094 ], [ 2.478781811168936, 48.914300100390953 ], [ 2.47873162214377, 48.91440689792087 ], [ 2.478844018331404, 48.914491920470326 ], [ 2.479000491025275, 48.915080738582567 ], [ 2.478817757831536, 48.915479229636013 ], [ 2.478919313917333, 48.915829496038938 ], [ 2.479075892858592, 48.91599924384289 ], [ 2.484141130614493, 48.915415937443917 ], [ 2.484076682182095, 48.915172851062877 ], [ 2.483853145651471, 48.914736630710507 ], [ 2.482402731017414, 48.913503737222278 ], [ 2.481447547895721, 48.912144370004235 ] ] ] } },
{ "type": "Feature", "properties": { "fid": 10, "code_iris": "930100108", "nom_iris": "Le Parc du Château", "id": "IRIS____0000000930100108", "iris": "0108", "nom_com": "Bondy" }, "geometry": { "type": "Polygon", "coordinates": [ [ [ 2.470955241146607, 48.905194578437417 ], [ 2.471584917836308, 48.907670433839357 ], [ 2.472319062081925, 48.908056771559309 ], [ 2.473348297827321, 48.908134144304391 ], [ 2.480174661770657, 48.908449039908916 ], [ 2.480309114916067, 48.906870454863785 ], [ 2.480305501601011, 48.906002615012191 ], [ 2.480312134883917, 48.905748141856321 ], [ 2.477781140130274, 48.905380111694249 ], [ 2.476975037429073, 48.905230907790219 ], [ 2.476812551081188, 48.905517075130525 ], [ 2.475502961540481, 48.905242456867285 ], [ 2.474279690544954, 48.905067126188037 ], [ 2.473527367150161, 48.904997273526369 ], [ 2.471897031551459, 48.905010780456415 ], [ 2.472071089288683, 48.90546929209173 ], [ 2.47133678902882, 48.905370727506408 ], [ 2.470955241146607, 48.905194578437417 ] ] ] } },
{ "type": "Feature", "properties": { "fid": 11, "code_iris": "930100204", "nom_iris": "Le Moulin à Vent", "id": "IRIS____0000000930100204", "iris": "0204", "nom_com": "Bondy" }, "geometry": { "type": "Polygon", "coordinates": [ [ [ 2.477882178875825, 48.889186724290781 ], [ 2.477364744439258, 48.888835533048038 ], [ 2.476592132687217, 48.888771904239995 ], [ 2.471312666039233, 48.889076060820734 ], [ 2.472093606871384, 48.890604742741012 ], [ 2.472697809047157, 48.892755862148277 ], [ 2.473433713685841, 48.893622438975726 ], [ 2.474451278164659, 48.895098180247281 ], [ 2.472855944585023, 48.895457187398883 ], [ 2.472807678881352, 48.895644031243016 ], [ 2.474633260339899, 48.898149432031289 ], [ 2.477151216224462, 48.897741374142257 ], [ 2.47729970428776, 48.897760008451151 ], [ 2.477358552017343, 48.897740480522785 ], [ 2.477117505450973, 48.896616193257266 ], [ 2.479828636138176, 48.896249391053225 ], [ 2.479013220255044, 48.894863609018238 ], [ 2.479746770862112, 48.894750787146279 ], [ 2.479576616029947, 48.894035096666833 ], [ 2.479565245414994, 48.893671725984994 ], [ 2.479049525035401, 48.891644235018887 ], [ 2.477669559911427, 48.891756932817096 ], [ 2.477596474972409, 48.890749384174264 ], [ 2.477721845285633, 48.889671654536613 ], [ 2.477882178875825, 48.889186724290781 ] ] ] } },
{ "type": "Feature", "properties": { "fid": 12, "code_iris": "930100303", "nom_iris": "Le Vieux Château", "id": "IRIS____0000000930100303", "iris": "0303", "nom_com": "Bondy" }, "geometry": { "type": "Polygon", "coordinates": [ [ [ 2.479828636138176, 48.896249391053225 ], [ 2.481514136670342, 48.899844933013753 ], [ 2.482173162221083, 48.899688607217456 ], [ 2.483978702118783, 48.899046202441774 ], [ 2.482337632316665, 48.895905935263706 ], [ 2.486422824082942, 48.895334477394307 ], [ 2.485455351521211, 48.893585664739945 ], [ 2.485168423735753, 48.893637490817817 ], [ 2.485032995841334, 48.893264594181304 ], [ 2.48334376929185, 48.893477649058021 ], [ 2.479576616029947, 48.894035096666833 ], [ 2.479746770862112, 48.894750787146279 ], [ 2.479013220255044, 48.894863609018238 ], [ 2.479828636138176, 48.896249391053225 ] ] ] } },
{ "type": "Feature", "properties": { "fid": 13, "code_iris": "930100401", "nom_iris": "Les Friches", "id": "IRIS____0000000930100401", "iris": "0401", "nom_com": "Bondy" }, "geometry": { "type": "Polygon", "coordinates": [ [ [ 2.499288108396203, 48.902350475509202 ], [ 2.499263252018802, 48.901956477408085 ], [ 2.499520390880391, 48.902026798411448 ], [ 2.498463406300868, 48.899599654871025 ], [ 2.497195431923444, 48.899680671544793 ], [ 2.496569348518841, 48.898410022070323 ], [ 2.495993409579837, 48.898162089380328 ], [ 2.495522660459203, 48.897757218497986 ], [ 2.496116853829924, 48.897527699086204 ], [ 2.495611561562889, 48.896746772901267 ], [ 2.49458882172188, 48.897284742818769 ], [ 2.494016700703156, 48.897488268099139 ], [ 2.490788912032118, 48.898107698834629 ], [ 2.490409374824368, 48.898142956040793 ], [ 2.48864812012936, 48.898315310114498 ], [ 2.487418591864882, 48.898510599278517 ], [ 2.489046338638162, 48.901380040632482 ], [ 2.490608688578149, 48.900774270031739 ], [ 2.490694163603207, 48.900682005265807 ], [ 2.490815340689639, 48.900705003088532 ], [ 2.493070091033648, 48.899870121437488 ], [ 2.493611394514708, 48.899752803903944 ], [ 2.495293888195018, 48.899687961550086 ], [ 2.496243241111694, 48.901804421583435 ], [ 2.496459682190716, 48.902415058512496 ], [ 2.494708877403274, 48.902762909328331 ], [ 2.494750221912798, 48.90342227163071 ], [ 2.496691506023445, 48.903128279668358 ], [ 2.497664755432881, 48.902639548307953 ], [ 2.499288108396203, 48.902350475509202 ] ] ] } },
{ "type": "Feature", "properties": { "fid": 14, "code_iris": "930100405", "nom_iris": "Fosse de la Régale", "id": "IRIS____0000000930100405", "iris": "0405", "nom_com": "Bondy" }, "geometry": { "type": "Polygon", "coordinates": [ [ [ 2.493697751435809, 48.907283016905453 ], [ 2.493687437223707, 48.905678624541899 ], [ 2.497288139939922, 48.905759439359997 ], [ 2.497134320315948, 48.904736290273334 ], [ 2.499294324961783, 48.904682388137324 ], [ 2.4993460032638, 48.904840880891769 ], [ 2.499900623543183, 48.90461927220953 ], [ 2.499288108396203, 48.902350475509202 ], [ 2.497664755432881, 48.902639548307953 ], [ 2.496691506023445, 48.903128279668358 ], [ 2.494750221912798, 48.90342227163071 ], [ 2.494708877403274, 48.902762909328331 ], [ 2.496459682190716, 48.902415058512496 ], [ 2.496243241111694, 48.901804421583435 ], [ 2.495293888195018, 48.899687961550086 ], [ 2.493611394514708, 48.899752803903944 ], [ 2.493070091033648, 48.899870121437488 ], [ 2.490815340689639, 48.900705003088532 ], [ 2.490694163603207, 48.900682005265807 ], [ 2.490608688578149, 48.900774270031739 ], [ 2.489046338638162, 48.901380040632482 ], [ 2.48876985097639, 48.90147598553007 ], [ 2.488789975873298, 48.901510244947424 ], [ 2.489176746126604, 48.902130615476914 ], [ 2.4899276267951, 48.901927875300004 ], [ 2.491378959997417, 48.904168811843519 ], [ 2.490727378210579, 48.904676845915219 ], [ 2.493407643908212, 48.905131566709997 ], [ 2.493540653089677, 48.907024254232468 ], [ 2.493697751435809, 48.907283016905453 ] ] ] } },
{ "type": "Feature", "properties": { "fid": 15, "code_iris": "930100107", "nom_iris": "La Noue Caillet", "id": "IRIS____0000000930100107", "iris": "0107", "nom_com": "Bondy" }, "geometry": { "type": "Polygon", "coordinates": [ [ [ 2.478301152060335, 48.912568665796094 ], [ 2.481142490877712, 48.912224884975217 ], [ 2.481447547895721, 48.912144370004235 ], [ 2.480254018907822, 48.910338807734142 ], [ 2.480119552846677, 48.909868791393734 ], [ 2.483051270119416, 48.909612589137382 ], [ 2.483094336227072, 48.909122658093374 ], [ 2.480090431987673, 48.909369555143265 ], [ 2.480174661770657, 48.908449039908916 ], [ 2.473348297827321, 48.908134144304391 ], [ 2.475434329900909, 48.910699101226399 ], [ 2.476100869084121, 48.910353990316629 ], [ 2.476216444535481, 48.910257371666319 ], [ 2.477592860472088, 48.912450469465341 ], [ 2.477698447022326, 48.912533664983876 ], [ 2.477908038141869, 48.912585838394058 ], [ 2.478301152060335, 48.912568665796094 ] ] ] } },
{ "type": "Feature", "properties": { "fid": 16, "code_iris": "930100201", "nom_iris": "Le Mainguy", "id": "IRIS____0000000930100201", "iris": "0201", "nom_com": "Bondy" }, "geometry": { "type": "Polygon", "coordinates": [ [ [ 2.474633260339899, 48.898149432031289 ], [ 2.474003437843895, 48.898250087810062 ], [ 2.46913441516743, 48.899540692692085 ], [ 2.469654608900299, 48.901232792270989 ], [ 2.470652865154772, 48.903001642762611 ], [ 2.470681476119682, 48.903944238574539 ], [ 2.47015647579119, 48.904996798643388 ], [ 2.470955241146607, 48.905194578437417 ], [ 2.47133678902882, 48.905370727506408 ], [ 2.472071089288683, 48.90546929209173 ], [ 2.471897031551459, 48.905010780456415 ], [ 2.473527367150161, 48.904997273526369 ], [ 2.474279690544954, 48.905067126188037 ], [ 2.475502961540481, 48.905242456867285 ], [ 2.476812551081188, 48.905517075130525 ], [ 2.476975037429073, 48.905230907790219 ], [ 2.477071484218312, 48.903642263045931 ], [ 2.476246634694022, 48.903732186438148 ], [ 2.475217477076614, 48.901760905899273 ], [ 2.47417701319122, 48.899836326872013 ], [ 2.476046281105214, 48.899377779490543 ], [ 2.47729970428776, 48.897760008451151 ], [ 2.477151216224462, 48.897741374142257 ], [ 2.474633260339899, 48.898149432031289 ] ] ] } },
{ "type": "Feature", "properties": { "fid": 17, "code_iris": "930100202", "nom_iris": "Le Centre Ville", "id": "IRIS____0000000930100202", "iris": "0202", "nom_com": "Bondy" }, "geometry": { "type": "Polygon", "coordinates": [ [ [ 2.482214144143701, 48.901328216323897 ], [ 2.481514136670342, 48.899844933013753 ], [ 2.479955758850722, 48.900181710963736 ], [ 2.478609002875412, 48.900361112434091 ], [ 2.478633684157945, 48.900756913913604 ], [ 2.478786111234208, 48.901064240121791 ], [ 2.475217477076614, 48.901760905899273 ], [ 2.476246634694022, 48.903732186438148 ], [ 2.477071484218312, 48.903642263045931 ], [ 2.476975037429073, 48.905230907790219 ], [ 2.477781140130274, 48.905380111694249 ], [ 2.480312134883917, 48.905748141856321 ], [ 2.480383253366687, 48.904363527169245 ], [ 2.48034065418287, 48.903711348672282 ], [ 2.480194806936366, 48.903289842434503 ], [ 2.480297471920989, 48.903254315849374 ], [ 2.480287717485985, 48.903138263523608 ], [ 2.48106415223949, 48.902977057680886 ], [ 2.480930938571385, 48.902793022725511 ], [ 2.480494015905549, 48.902833395644045 ], [ 2.480068095379497, 48.901772168471268 ], [ 2.482214144143701, 48.901328216323897 ] ] ] } },
{ "type": "Feature", "properties": { "fid": 18, "code_iris": "930100105", "nom_iris": "Le Château Gobillon", "id": "IRIS____0000000930100105", "iris": "0105", "nom_com": "Bondy" }, "geometry": { "type": "Polygon", "coordinates": [ [ [ 2.485338628008913, 48.917811402859996 ], [ 2.486122801040502, 48.918683482449289 ], [ 2.488681789153005, 48.918635077593393 ], [ 2.489132626921257, 48.918163075398503 ], [ 2.49026203278392, 48.917509605873533 ], [ 2.491328926865143, 48.917385541863034 ], [ 2.491441780671461, 48.917426488990515 ], [ 2.491872590510554, 48.916905829428387 ], [ 2.492166778683397, 48.915982606115129 ], [ 2.491432479036403, 48.913351759954949 ], [ 2.491198228500263, 48.91065647968508 ], [ 2.491006879223389, 48.909715003423123 ], [ 2.490385539478223, 48.909635022250214 ], [ 2.49017212806649, 48.909554976085829 ], [ 2.488735121502674, 48.909317732347155 ], [ 2.486680594270279, 48.908892571461166 ], [ 2.486025488656082, 48.909746792315254 ], [ 2.487155589195398, 48.910669817052529 ], [ 2.4852163872116, 48.91099513815729 ], [ 2.48509956930311, 48.911080968473833 ], [ 2.481447547895721, 48.912144370004235 ], [ 2.482402731017414, 48.913503737222278 ], [ 2.483853145651471, 48.914736630710507 ], [ 2.484076682182095, 48.915172851062877 ], [ 2.484141130614493, 48.915415937443917 ], [ 2.484557112157495, 48.916949220954884 ], [ 2.484903802661066, 48.917351795548576 ], [ 2.484816041819458, 48.917395483430127 ], [ 2.484792990967319, 48.917518587069743 ], [ 2.485148312164113, 48.917601050611736 ], [ 2.485338628008913, 48.917811402859996 ] ] ] } },
{ "type": "Feature", "properties": { "fid": 19, "code_iris": "930100103", "nom_iris": "Les Confins d'Aulnay", "id": "IRIS____0000000930100103", "iris": "0103", "nom_com": "Bondy" }, "geometry": { "type": "Polygon", "coordinates": [ [ [ 2.479646874794582, 48.917982863218676 ], [ 2.479481579582799, 48.917865237474849 ], [ 2.479597763781908, 48.917435881345057 ], [ 2.479271509996066, 48.916222219303499 ], [ 2.479075892858592, 48.91599924384289 ], [ 2.478919313917333, 48.915829496038938 ], [ 2.478817757831536, 48.915479229636013 ], [ 2.479000491025275, 48.915080738582567 ], [ 2.478844018331404, 48.914491920470326 ], [ 2.47873162214377, 48.91440689792087 ], [ 2.478781811168936, 48.914300100390953 ], [ 2.478301152060335, 48.912568665796094 ], [ 2.477908038141869, 48.912585838394058 ], [ 2.477698447022326, 48.912533664983876 ], [ 2.477592860472088, 48.912450469465341 ], [ 2.476216444535481, 48.910257371666319 ], [ 2.476100869084121, 48.910353990316629 ], [ 2.475434329900909, 48.910699101226399 ], [ 2.476376788302325, 48.912084542937571 ], [ 2.477158647714817, 48.913570894686963 ], [ 2.477709364190399, 48.914980691057764 ], [ 2.478612633765325, 48.918112361150911 ], [ 2.479156357488627, 48.918048178597907 ], [ 2.479276688089672, 48.91815931432393 ], [ 2.479471654081007, 48.918175449458104 ], [ 2.479621073529204, 48.918106853195383 ], [ 2.479646874794582, 48.917982863218676 ] ] ] } },
{ "type": "Feature", "properties": { "fid": 20, "code_iris": "930100302", "nom_iris": "La Remise à Jorelle", "id": "IRIS____0000000930100302", "iris": "0302", "nom_com": "Bondy" }, "geometry": { "type": "Polygon", "coordinates": [ [ [ 2.497344470644586, 48.891591128763665 ], [ 2.497062977335188, 48.891082735511169 ], [ 2.498208740952033, 48.890924766982202 ], [ 2.498064923384787, 48.890139964667661 ], [ 2.497730322369812, 48.890188923095032 ], [ 2.49664900525403, 48.889607024249919 ], [ 2.495526557559455, 48.889331607589703 ], [ 2.492004576533622, 48.890244808110708 ], [ 2.491103847400463, 48.890866904606071 ], [ 2.489904267772818, 48.888441750007573 ], [ 2.489922112005918, 48.888290741306015 ], [ 2.487411654861914, 48.888409521879311 ], [ 2.487042552797905, 48.886977131770536 ], [ 2.486822730151693, 48.887004068602103 ], [ 2.487321483147922, 48.888426222797165 ], [ 2.487616133285705, 48.889110962376463 ], [ 2.487451700550535, 48.88919029752639 ], [ 2.487803170420291, 48.889645055261994 ], [ 2.488104396100288, 48.89035590100616 ], [ 2.48823715878036, 48.890446399706747 ], [ 2.48899515913465, 48.89200274784168 ], [ 2.486208909487701, 48.892685992826472 ], [ 2.48638900408674, 48.89309415298198 ], [ 2.485032995841334, 48.893264594181304 ], [ 2.485168423735753, 48.893637490817817 ], [ 2.485455351521211, 48.893585664739945 ], [ 2.486422824082942, 48.895334477394307 ], [ 2.488919413765301, 48.8949953271391 ], [ 2.493892186479773, 48.89430149610039 ], [ 2.493225430329408, 48.893020757978938 ], [ 2.492126199078548, 48.89301610107519 ], [ 2.492023797354905, 48.89232859381049 ], [ 2.497344470644586, 48.891591128763665 ] ] ] } },
{ "type": "Feature", "properties": { "fid": 21, "code_iris": "930100106", "nom_iris": "Les Merisiers", "id": "IRIS____0000000930100106", "iris": "0106", "nom_com": "Bondy" }, "geometry": { "type": "Polygon", "coordinates": [ [ [ 2.491006879223389, 48.909715003423123 ], [ 2.490450347011028, 48.909007588958815 ], [ 2.492265077933117, 48.907865093555813 ], [ 2.492326194382521, 48.907613549237283 ], [ 2.49148792745249, 48.907537150444583 ], [ 2.483946542229033, 48.906418545286613 ], [ 2.483032715460667, 48.906398417419986 ], [ 2.482513489070207, 48.906344016003622 ], [ 2.480305501601011, 48.906002615012191 ], [ 2.480309114916067, 48.906870454863785 ], [ 2.480174661770657, 48.908449039908916 ], [ 2.480090431987673, 48.909369555143265 ], [ 2.483094336227072, 48.909122658093374 ], [ 2.483051270119416, 48.909612589137382 ], [ 2.480119552846677, 48.909868791393734 ], [ 2.480254018907822, 48.910338807734142 ], [ 2.481447547895721, 48.912144370004235 ], [ 2.48509956930311, 48.911080968473833 ], [ 2.4852163872116, 48.91099513815729 ], [ 2.487155589195398, 48.910669817052529 ], [ 2.486025488656082, 48.909746792315254 ], [ 2.486680594270279, 48.908892571461166 ], [ 2.488735121502674, 48.909317732347155 ], [ 2.49017212806649, 48.909554976085829 ], [ 2.490385539478223, 48.909635022250214 ], [ 2.491006879223389, 48.909715003423123 ] ] ] } },
{ "type": "Feature", "properties": { "fid": 22, "code_iris": "930100305", "nom_iris": "Les Courts Sillons", "id": "IRIS____0000000930100305", "iris": "0305", "nom_com": "Bondy" }, "geometry": { "type": "Polygon", "coordinates": [ [ [ 2.495611561562889, 48.896746772901267 ], [ 2.500152301217381, 48.89574150074823 ], [ 2.498093429911735, 48.893124895777838 ], [ 2.497344470644586, 48.891591128763665 ], [ 2.492023797354905, 48.89232859381049 ], [ 2.492126199078548, 48.89301610107519 ], [ 2.493225430329408, 48.893020757978938 ], [ 2.493892186479773, 48.89430149610039 ], [ 2.488919413765301, 48.8949953271391 ], [ 2.489751307937389, 48.896675184048981 ], [ 2.489957292979352, 48.896672464267574 ], [ 2.489981411615676, 48.896716633025015 ], [ 2.490409374824368, 48.898142956040793 ], [ 2.490788912032118, 48.898107698834629 ], [ 2.494016700703156, 48.897488268099139 ], [ 2.49458882172188, 48.897284742818769 ], [ 2.495611561562889, 48.896746772901267 ] ] ] } }
]
}
