{
  "type": "FeatureCollection",
  "features": [
    {
      "type": "Feature",
      "geometry": {
        "type": "Polygon",
        "coordinates": [
          [
            [
              2.495611561562889,
              48.89674677290127
            ],
            [
              2.500152301217381,
              48.89574150074823
            ],
            [
              2.498093429911735,
              48.89312489577784
            ],
            [
              2.497344470644586,
              48.891591128763665
            ],
            [
              2.492023797354905,
              48.89232859381049
            ],
            [
              2.492126199078548,
              48.89301610107519
            ],
            [
              2.493225430329408,
              48.89302075797894
            ],
            [
              2.493892186479773,
              48.89430149610039
            ],
            [
              2.488919413765301,
              48.8949953271391
            ],
            [
              2.489751307937389,
              48.89667518404898
            ],
            [
              2.489957292979352,
              48.896672464267574
            ],
            [
              2.489981411615676,
              48.896716633025015
            ],
            [
              2.490409374824368,
              48.89814295604079
            ],
            [
              2.490788912032118,
              48.89810769883463
            ],
            [
              2.494016700703156,
              48.89748826809914
            ],
            [
              2.49458882172188,
              48.89728474281877
            ],
            [
              2.495611561562889,
              48.89674677290127
            ]
          ]
        ]
      },
      "properties": {
        "nom_iris": "Les Courts Sillons",
        "iris": "0305",
        "etudiant": "mathias"
      }
    },
    {
      "type": "Feature",
      "geometry": {
        "type": "Polygon",
        "coordinates": [
          [
            [
              2.491006879223389,
              48.90971500342312
            ],
            [
              2.490450347011028,
              48.909007588958815
            ],
            [
              2.492265077933117,
              48.90786509355581
            ],
            [
              2.492326194382521,
              48.90761354923728
            ],
            [
              2.49148792745249,
              48.90753715044458
            ],
            [
              2.483946542229033,
              48.90641854528661
            ],
            [
              2.483032715460667,
              48.906398417419986
            ],
            [
              2.482513489070207,
              48.90634401600362
            ],
            [
              2.480305501601011,
              48.90600261501219
            ],
            [
              2.480309114916067,
              48.906870454863785
            ],
            [
              2.480174661770657,
              48.908449039908916
            ],
            [
              2.480090431987673,
              48.909369555143265
            ],
            [
              2.483094336227072,
              48.909122658093374
            ],
            [
              2.483051270119416,
              48.90961258913738
            ],
            [
              2.480119552846677,
              48.909868791393734
            ],
            [
              2.480254018907822,
              48.91033880773414
            ],
            [
              2.481447547895721,
              48.912144370004235
            ],
            [
              2.48509956930311,
              48.91108096847383
            ],
            [
              2.4852163872116,
              48.91099513815729
            ],
            [
              2.487155589195398,
              48.91066981705253
            ],
            [
              2.486025488656082,
              48.909746792315254
            ],
            [
              2.486680594270279,
              48.908892571461166
            ],
            [
              2.488735121502674,
              48.909317732347155
            ],
            [
              2.49017212806649,
              48.90955497608583
            ],
            [
              2.490385539478223,
              48.909635022250214
            ],
            [
              2.491006879223389,
              48.90971500342312
            ]
          ]
        ]
      },
      "properties": {
        "nom_iris": "Les Merisiers",
        "iris": "0106",
        "etudiant": "yvan"
      }
    },
    {
      "type": "Feature",
      "geometry": {
        "type": "Polygon",
        "coordinates": [
          [
            [
              2.497344470644586,
              48.891591128763665
            ],
            [
              2.497062977335188,
              48.89108273551117
            ],
            [
              2.498208740952033,
              48.8909247669822
            ],
            [
              2.498064923384787,
              48.89013996466766
            ],
            [
              2.497730322369812,
              48.89018892309503
            ],
            [
              2.49664900525403,
              48.88960702424992
            ],
            [
              2.495526557559455,
              48.8893316075897
            ],
            [
              2.492004576533622,
              48.89024480811071
            ],
            [
              2.491103847400463,
              48.89086690460607
            ],
            [
              2.489904267772818,
              48.88844175000757
            ],
            [
              2.489922112005918,
              48.888290741306015
            ],
            [
              2.487411654861914,
              48.88840952187931
            ],
            [
              2.487042552797905,
              48.886977131770536
            ],
            [
              2.486822730151693,
              48.8870040686021
            ],
            [
              2.487321483147922,
              48.888426222797165
            ],
            [
              2.487616133285705,
              48.88911096237646
            ],
            [
              2.487451700550535,
              48.88919029752639
            ],
            [
              2.487803170420291,
              48.889645055261994
            ],
            [
              2.488104396100288,
              48.89035590100616
            ],
            [
              2.48823715878036,
              48.89044639970675
            ],
            [
              2.48899515913465,
              48.89200274784168
            ],
            [
              2.486208909487701,
              48.89268599282647
            ],
            [
              2.48638900408674,
              48.89309415298198
            ],
            [
              2.485032995841334,
              48.8932645941813
            ],
            [
              2.485168423735753,
              48.89363749081782
            ],
            [
              2.485455351521211,
              48.893585664739945
            ],
            [
              2.486422824082942,
              48.89533447739431
            ],
            [
              2.488919413765301,
              48.8949953271391
            ],
            [
              2.493892186479773,
              48.89430149610039
            ],
            [
              2.493225430329408,
              48.89302075797894
            ],
            [
              2.492126199078548,
              48.89301610107519
            ],
            [
              2.492023797354905,
              48.89232859381049
            ],
            [
              2.497344470644586,
              48.891591128763665
            ]
          ]
        ]
      },
      "properties": {
        "nom_iris": "La Remise à Jorelle",
        "iris": "0302"
      }
    },
    {
      "type": "Feature",
      "geometry": {
        "type": "Polygon",
        "coordinates": [
          [
            [
              2.479646874794582,
              48.917982863218676
            ],
            [
              2.479481579582799,
              48.91786523747485
            ],
            [
              2.479597763781908,
              48.91743588134506
            ],
            [
              2.479271509996066,
              48.9162222193035
            ],
            [
              2.479075892858592,
              48.91599924384289
            ],
            [
              2.478919313917333,
              48.91582949603894
            ],
            [
              2.478817757831536,
              48.91547922963601
            ],
            [
              2.479000491025275,
              48.91508073858257
            ],
            [
              2.478844018331404,
              48.914491920470326
            ],
            [
              2.47873162214377,
              48.91440689792087
            ],
            [
              2.478781811168936,
              48.91430010039095
            ],
            [
              2.478301152060335,
              48.912568665796094
            ],
            [
              2.477908038141869,
              48.91258583839406
            ],
            [
              2.477698447022326,
              48.912533664983876
            ],
            [
              2.477592860472088,
              48.91245046946534
            ],
            [
              2.476216444535481,
              48.91025737166632
            ],
            [
              2.476100869084121,
              48.91035399031663
            ],
            [
              2.475434329900909,
              48.9106991012264
            ],
            [
              2.476376788302325,
              48.91208454293757
            ],
            [
              2.477158647714817,
              48.91357089468696
            ],
            [
              2.477709364190399,
              48.914980691057764
            ],
            [
              2.478612633765325,
              48.91811236115091
            ],
            [
              2.479156357488627,
              48.91804817859791
            ],
            [
              2.479276688089672,
              48.91815931432393
            ],
            [
              2.479471654081007,
              48.918175449458104
            ],
            [
              2.479621073529204,
              48.91810685319538
            ],
            [
              2.479646874794582,
              48.917982863218676
            ]
          ]
        ]
      },
      "properties": {
        "nom_iris": "Les Confins d'Aulnay",
        "iris": "0103"
      }
    },
    {
      "type": "Feature",
      "geometry": {
        "type": "Polygon",
        "coordinates": [
          [
            [
              2.485338628008913,
              48.917811402859996
            ],
            [
              2.486122801040502,
              48.91868348244929
            ],
            [
              2.488681789153005,
              48.91863507759339
            ],
            [
              2.489132626921257,
              48.9181630753985
            ],
            [
              2.49026203278392,
              48.91750960587353
            ],
            [
              2.491328926865143,
              48.917385541863034
            ],
            [
              2.491441780671461,
              48.917426488990515
            ],
            [
              2.491872590510554,
              48.91690582942839
            ],
            [
              2.492166778683397,
              48.91598260611513
            ],
            [
              2.491432479036403,
              48.91335175995495
            ],
            [
              2.491198228500263,
              48.91065647968508
            ],
            [
              2.491006879223389,
              48.90971500342312
            ],
            [
              2.490385539478223,
              48.909635022250214
            ],
            [
              2.49017212806649,
              48.90955497608583
            ],
            [
              2.488735121502674,
              48.909317732347155
            ],
            [
              2.486680594270279,
              48.908892571461166
            ],
            [
              2.486025488656082,
              48.909746792315254
            ],
            [
              2.487155589195398,
              48.91066981705253
            ],
            [
              2.4852163872116,
              48.91099513815729
            ],
            [
              2.48509956930311,
              48.91108096847383
            ],
            [
              2.481447547895721,
              48.912144370004235
            ],
            [
              2.482402731017414,
              48.91350373722228
            ],
            [
              2.483853145651471,
              48.91473663071051
            ],
            [
              2.484076682182095,
              48.91517285106288
            ],
            [
              2.484141130614493,
              48.91541593744392
            ],
            [
              2.484557112157495,
              48.91694922095488
            ],
            [
              2.484903802661066,
              48.917351795548576
            ],
            [
              2.484816041819458,
              48.91739548343013
            ],
            [
              2.484792990967319,
              48.91751858706974
            ],
            [
              2.485148312164113,
              48.91760105061174
            ],
            [
              2.485338628008913,
              48.917811402859996
            ]
          ]
        ]
      },
      "properties": {
        "nom_iris": "Le Château Gobillon",
        "iris": "0105",
        "etudiant": "seydina"
      }
    },
    {
      "type": "Feature",
      "geometry": {
        "type": "Polygon",
        "coordinates": [
          [
            [
              2.482214144143701,
              48.9013282163239
            ],
            [
              2.481514136670342,
              48.89984493301375
            ],
            [
              2.479955758850722,
              48.900181710963736
            ],
            [
              2.478609002875412,
              48.90036111243409
            ],
            [
              2.478633684157945,
              48.900756913913604
            ],
            [
              2.478786111234208,
              48.90106424012179
            ],
            [
              2.475217477076614,
              48.90176090589927
            ],
            [
              2.476246634694022,
              48.90373218643815
            ],
            [
              2.477071484218312,
              48.90364226304593
            ],
            [
              2.476975037429073,
              48.90523090779022
            ],
            [
              2.477781140130274,
              48.90538011169425
            ],
            [
              2.480312134883917,
              48.90574814185632
            ],
            [
              2.480383253366687,
              48.904363527169245
            ],
            [
              2.48034065418287,
              48.90371134867228
            ],
            [
              2.480194806936366,
              48.9032898424345
            ],
            [
              2.480297471920989,
              48.903254315849374
            ],
            [
              2.480287717485985,
              48.90313826352361
            ],
            [
              2.48106415223949,
              48.902977057680886
            ],
            [
              2.480930938571385,
              48.90279302272551
            ],
            [
              2.480494015905549,
              48.902833395644045
            ],
            [
              2.480068095379497,
              48.90177216847127
            ],
            [
              2.482214144143701,
              48.9013282163239
            ]
          ]
        ]
      },
      "properties": {
        "nom_iris": "Le Centre Ville",
        "iris": "0202",
        "etudiant": "killian"
      }
    },
    {
      "type": "Feature",
      "geometry": {
        "type": "Polygon",
        "coordinates": [
          [
            [
              2.474633260339899,
              48.89814943203129
            ],
            [
              2.474003437843895,
              48.89825008781006
            ],
            [
              2.46913441516743,
              48.899540692692085
            ],
            [
              2.469654608900299,
              48.90123279227099
            ],
            [
              2.470652865154772,
              48.90300164276261
            ],
            [
              2.470681476119682,
              48.90394423857454
            ],
            [
              2.47015647579119,
              48.90499679864339
            ],
            [
              2.470955241146607,
              48.90519457843742
            ],
            [
              2.47133678902882,
              48.90537072750641
            ],
            [
              2.472071089288683,
              48.90546929209173
            ],
            [
              2.471897031551459,
              48.905010780456415
            ],
            [
              2.473527367150161,
              48.90499727352637
            ],
            [
              2.474279690544954,
              48.90506712618804
            ],
            [
              2.475502961540481,
              48.905242456867285
            ],
            [
              2.476812551081188,
              48.905517075130525
            ],
            [
              2.476975037429073,
              48.90523090779022
            ],
            [
              2.477071484218312,
              48.90364226304593
            ],
            [
              2.476246634694022,
              48.90373218643815
            ],
            [
              2.475217477076614,
              48.90176090589927
            ],
            [
              2.47417701319122,
              48.89983632687201
            ],
            [
              2.476046281105214,
              48.89937777949054
            ],
            [
              2.47729970428776,
              48.89776000845115
            ],
            [
              2.477151216224462,
              48.89774137414226
            ],
            [
              2.474633260339899,
              48.89814943203129
            ]
          ]
        ]
      },
      "properties": {
        "nom_iris": "Le Mainguy",
        "iris": "0201",
        "etudiant": "mariame"
      }
    },
    {
      "type": "Feature",
      "geometry": {
        "type": "Polygon",
        "coordinates": [
          [
            [
              2.478301152060335,
              48.912568665796094
            ],
            [
              2.481142490877712,
              48.91222488497522
            ],
            [
              2.481447547895721,
              48.912144370004235
            ],
            [
              2.480254018907822,
              48.91033880773414
            ],
            [
              2.480119552846677,
              48.909868791393734
            ],
            [
              2.483051270119416,
              48.90961258913738
            ],
            [
              2.483094336227072,
              48.909122658093374
            ],
            [
              2.480090431987673,
              48.909369555143265
            ],
            [
              2.480174661770657,
              48.908449039908916
            ],
            [
              2.473348297827321,
              48.90813414430439
            ],
            [
              2.475434329900909,
              48.9106991012264
            ],
            [
              2.476100869084121,
              48.91035399031663
            ],
            [
              2.476216444535481,
              48.91025737166632
            ],
            [
              2.477592860472088,
              48.91245046946534
            ],
            [
              2.477698447022326,
              48.912533664983876
            ],
            [
              2.477908038141869,
              48.91258583839406
            ],
            [
              2.478301152060335,
              48.912568665796094
            ]
          ]
        ]
      },
      "properties": {
        "nom_iris": "La Noue Caillet",
        "iris": "0107",
        "etudiant": "béa"
      }
    },
    {
      "type": "Feature",
      "geometry": {
        "type": "Polygon",
        "coordinates": [
          [
            [
              2.493697751435809,
              48.90728301690545
            ],
            [
              2.493687437223707,
              48.9056786245419
            ],
            [
              2.497288139939922,
              48.90575943936
            ],
            [
              2.497134320315948,
              48.904736290273334
            ],
            [
              2.499294324961783,
              48.904682388137324
            ],
            [
              2.4993460032638,
              48.90484088089177
            ],
            [
              2.499900623543183,
              48.90461927220953
            ],
            [
              2.499288108396203,
              48.9023504755092
            ],
            [
              2.497664755432881,
              48.90263954830795
            ],
            [
              2.496691506023445,
              48.90312827966836
            ],
            [
              2.494750221912798,
              48.90342227163071
            ],
            [
              2.494708877403274,
              48.90276290932833
            ],
            [
              2.496459682190716,
              48.902415058512496
            ],
            [
              2.496243241111694,
              48.901804421583435
            ],
            [
              2.495293888195018,
              48.899687961550086
            ],
            [
              2.493611394514708,
              48.899752803903944
            ],
            [
              2.493070091033648,
              48.89987012143749
            ],
            [
              2.490815340689639,
              48.90070500308853
            ],
            [
              2.490694163603207,
              48.90068200526581
            ],
            [
              2.490608688578149,
              48.90077427003174
            ],
            [
              2.489046338638162,
              48.90138004063248
            ],
            [
              2.48876985097639,
              48.90147598553007
            ],
            [
              2.488789975873298,
              48.901510244947424
            ],
            [
              2.489176746126604,
              48.90213061547691
            ],
            [
              2.4899276267951,
              48.901927875300004
            ],
            [
              2.491378959997417,
              48.90416881184352
            ],
            [
              2.490727378210579,
              48.90467684591522
            ],
            [
              2.493407643908212,
              48.90513156671
            ],
            [
              2.493540653089677,
              48.90702425423247
            ],
            [
              2.493697751435809,
              48.90728301690545
            ]
          ]
        ]
      },
      "properties": {
        "nom_iris": "Fosse de la Régale: Gaël",
        "iris": "0405"
      }
    },
    {
      "type": "Feature",
      "geometry": {
        "type": "Polygon",
        "coordinates": [
          [
            [
              2.499288108396203,
              48.9023504755092
            ],
            [
              2.499263252018802,
              48.901956477408085
            ],
            [
              2.499520390880391,
              48.90202679841145
            ],
            [
              2.498463406300868,
              48.899599654871025
            ],
            [
              2.497195431923444,
              48.89968067154479
            ],
            [
              2.496569348518841,
              48.89841002207032
            ],
            [
              2.495993409579837,
              48.89816208938033
            ],
            [
              2.495522660459203,
              48.897757218497986
            ],
            [
              2.496116853829924,
              48.897527699086204
            ],
            [
              2.495611561562889,
              48.89674677290127
            ],
            [
              2.49458882172188,
              48.89728474281877
            ],
            [
              2.494016700703156,
              48.89748826809914
            ],
            [
              2.490788912032118,
              48.89810769883463
            ],
            [
              2.490409374824368,
              48.89814295604079
            ],
            [
              2.48864812012936,
              48.8983153101145
            ],
            [
              2.487418591864882,
              48.89851059927852
            ],
            [
              2.489046338638162,
              48.90138004063248
            ],
            [
              2.490608688578149,
              48.90077427003174
            ],
            [
              2.490694163603207,
              48.90068200526581
            ],
            [
              2.490815340689639,
              48.90070500308853
            ],
            [
              2.493070091033648,
              48.89987012143749
            ],
            [
              2.493611394514708,
              48.899752803903944
            ],
            [
              2.495293888195018,
              48.899687961550086
            ],
            [
              2.496243241111694,
              48.901804421583435
            ],
            [
              2.496459682190716,
              48.902415058512496
            ],
            [
              2.494708877403274,
              48.90276290932833
            ],
            [
              2.494750221912798,
              48.90342227163071
            ],
            [
              2.496691506023445,
              48.90312827966836
            ],
            [
              2.497664755432881,
              48.90263954830795
            ],
            [
              2.499288108396203,
              48.9023504755092
            ]
          ]
        ]
      },
      "properties": {
        "nom_iris": "Les Friches",
        "iris": "0401",
        "etudiant": "alexandre"
      }
    },
    {
      "type": "Feature",
      "geometry": {
        "type": "Polygon",
        "coordinates": [
          [
            [
              2.479828636138176,
              48.896249391053225
            ],
            [
              2.481514136670342,
              48.89984493301375
            ],
            [
              2.482173162221083,
              48.899688607217456
            ],
            [
              2.483978702118783,
              48.899046202441774
            ],
            [
              2.482337632316665,
              48.895905935263706
            ],
            [
              2.486422824082942,
              48.89533447739431
            ],
            [
              2.485455351521211,
              48.893585664739945
            ],
            [
              2.485168423735753,
              48.89363749081782
            ],
            [
              2.485032995841334,
              48.8932645941813
            ],
            [
              2.48334376929185,
              48.89347764905802
            ],
            [
              2.479576616029947,
              48.89403509666683
            ],
            [
              2.479746770862112,
              48.89475078714628
            ],
            [
              2.479013220255044,
              48.89486360901824
            ],
            [
              2.479828636138176,
              48.896249391053225
            ]
          ]
        ]
      },
      "properties": {
        "nom_iris": "Le Vieux Château",
        "iris": "0303",
        "etudiant": "quentin"
      }
    },
    {
      "type": "Feature",
      "geometry": {
        "type": "Polygon",
        "coordinates": [
          [
            [
              2.477882178875825,
              48.88918672429078
            ],
            [
              2.477364744439258,
              48.88883553304804
            ],
            [
              2.476592132687217,
              48.888771904239995
            ],
            [
              2.471312666039233,
              48.889076060820734
            ],
            [
              2.472093606871384,
              48.89060474274101
            ],
            [
              2.472697809047157,
              48.89275586214828
            ],
            [
              2.473433713685841,
              48.893622438975726
            ],
            [
              2.474451278164659,
              48.89509818024728
            ],
            [
              2.472855944585023,
              48.89545718739888
            ],
            [
              2.472807678881352,
              48.895644031243016
            ],
            [
              2.474633260339899,
              48.89814943203129
            ],
            [
              2.477151216224462,
              48.89774137414226
            ],
            [
              2.47729970428776,
              48.89776000845115
            ],
            [
              2.477358552017343,
              48.897740480522785
            ],
            [
              2.477117505450973,
              48.896616193257266
            ],
            [
              2.479828636138176,
              48.896249391053225
            ],
            [
              2.479013220255044,
              48.89486360901824
            ],
            [
              2.479746770862112,
              48.89475078714628
            ],
            [
              2.479576616029947,
              48.89403509666683
            ],
            [
              2.479565245414994,
              48.893671725984994
            ],
            [
              2.479049525035401,
              48.89164423501889
            ],
            [
              2.477669559911427,
              48.891756932817096
            ],
            [
              2.477596474972409,
              48.89074938417426
            ],
            [
              2.477721845285633,
              48.88967165453661
            ],
            [
              2.477882178875825,
              48.88918672429078
            ]
          ]
        ]
      },
      "properties": {
        "nom_iris": "Le Moulin à Vent",
        "iris": "0204",
        "etudiant": "tierno"
      }
    },
    {
      "type": "Feature",
      "geometry": {
        "type": "Polygon",
        "coordinates": [
          [
            [
              2.470955241146607,
              48.90519457843742
            ],
            [
              2.471584917836308,
              48.90767043383936
            ],
            [
              2.472319062081925,
              48.90805677155931
            ],
            [
              2.473348297827321,
              48.90813414430439
            ],
            [
              2.480174661770657,
              48.908449039908916
            ],
            [
              2.480309114916067,
              48.906870454863785
            ],
            [
              2.480305501601011,
              48.90600261501219
            ],
            [
              2.480312134883917,
              48.90574814185632
            ],
            [
              2.477781140130274,
              48.90538011169425
            ],
            [
              2.476975037429073,
              48.90523090779022
            ],
            [
              2.476812551081188,
              48.905517075130525
            ],
            [
              2.475502961540481,
              48.905242456867285
            ],
            [
              2.474279690544954,
              48.90506712618804
            ],
            [
              2.473527367150161,
              48.90499727352637
            ],
            [
              2.471897031551459,
              48.905010780456415
            ],
            [
              2.472071089288683,
              48.90546929209173
            ],
            [
              2.47133678902882,
              48.90537072750641
            ],
            [
              2.470955241146607,
              48.90519457843742
            ]
          ]
        ]
      },
      "properties": {
        "nom_iris": "Le Parc du Château",
        "iris": "0108",
        "etudiant": "béa"
      }
    },
    {
      "type": "Feature",
      "geometry": {
        "type": "Polygon",
        "coordinates": [
          [
            [
              2.481514136670342,
              48.89984493301375
            ],
            [
              2.482214144143701,
              48.9013282163239
            ],
            [
              2.482638878159824,
              48.90223834811302
            ],
            [
              2.483400127059686,
              48.90209324894171
            ],
            [
              2.485108640587627,
              48.90188926968975
            ],
            [
              2.486083481096119,
              48.90180082828818
            ],
            [
              2.486329973001488,
              48.901842354318454
            ],
            [
              2.486428663029727,
              48.90179421517133
            ],
            [
              2.487396457950496,
              48.90172821545731
            ],
            [
              2.488465949064458,
              48.901585302249934
            ],
            [
              2.488789975873298,
              48.901510244947424
            ],
            [
              2.48876985097639,
              48.90147598553007
            ],
            [
              2.489046338638162,
              48.90138004063248
            ],
            [
              2.487418591864882,
              48.89851059927852
            ],
            [
              2.483978702118783,
              48.899046202441774
            ],
            [
              2.482173162221083,
              48.899688607217456
            ],
            [
              2.481514136670342,
              48.89984493301375
            ]
          ]
        ]
      },
      "properties": {
        "nom_iris": "La Martraye",
        "iris": "0402",
        "etudiant": "lola"
      }
    },
    {
      "type": "Feature",
      "geometry": {
        "type": "Polygon",
        "coordinates": [
          [
            [
              2.479075892858592,
              48.91599924384289
            ],
            [
              2.479271509996066,
              48.9162222193035
            ],
            [
              2.479597763781908,
              48.91743588134506
            ],
            [
              2.479481579582799,
              48.91786523747485
            ],
            [
              2.479646874794582,
              48.917982863218676
            ],
            [
              2.484816041819458,
              48.91739548343013
            ],
            [
              2.484903802661066,
              48.917351795548576
            ],
            [
              2.484557112157495,
              48.91694922095488
            ],
            [
              2.484141130614493,
              48.91541593744392
            ],
            [
              2.479075892858592,
              48.91599924384289
            ]
          ]
        ]
      },
      "properties": {
        "nom_iris": "La Terre Saint-Blaise",
        "iris": "0102",
        "etudiant": "corentin"
      }
    },
    {
      "type": "Feature",
      "geometry": {
        "type": "Polygon",
        "coordinates": [
          [
            [
              2.486422824082942,
              48.89533447739431
            ],
            [
              2.482337632316665,
              48.895905935263706
            ],
            [
              2.483978702118783,
              48.899046202441774
            ],
            [
              2.487418591864882,
              48.89851059927852
            ],
            [
              2.48864812012936,
              48.8983153101145
            ],
            [
              2.490409374824368,
              48.89814295604079
            ],
            [
              2.489981411615676,
              48.896716633025015
            ],
            [
              2.489957292979352,
              48.896672464267574
            ],
            [
              2.489751307937389,
              48.89667518404898
            ],
            [
              2.488919413765301,
              48.8949953271391
            ],
            [
              2.486422824082942,
              48.89533447739431
            ]
          ]
        ]
      },
      "properties": {
        "nom_iris": "Le Saule Blanc",
        "iris": "0304",
        "etudiant": "edwin"
      }
    },
    {
      "type": "Feature",
      "geometry": {
        "type": "Polygon",
        "coordinates": [
          [
            [
              2.480312134883917,
              48.90574814185632
            ],
            [
              2.480305501601011,
              48.90600261501219
            ],
            [
              2.482513489070207,
              48.90634401600362
            ],
            [
              2.483032715460667,
              48.906398417419986
            ],
            [
              2.483946542229033,
              48.90641854528661
            ],
            [
              2.483257928573992,
              48.90624920617784
            ],
            [
              2.483273437588505,
              48.90592372658072
            ],
            [
              2.484275750707639,
              48.905135762874444
            ],
            [
              2.485536040238129,
              48.90474369173362
            ],
            [
              2.483032237773398,
              48.90301254752517
            ],
            [
              2.482741431822964,
              48.9026254912472
            ],
            [
              2.482657149344461,
              48.90245875623367
            ],
            [
              2.482638878159824,
              48.90223834811302
            ],
            [
              2.482214144143701,
              48.9013282163239
            ],
            [
              2.480068095379497,
              48.90177216847127
            ],
            [
              2.480494015905549,
              48.902833395644045
            ],
            [
              2.480930938571385,
              48.90279302272551
            ],
            [
              2.48106415223949,
              48.902977057680886
            ],
            [
              2.480287717485985,
              48.90313826352361
            ],
            [
              2.480297471920989,
              48.903254315849374
            ],
            [
              2.480194806936366,
              48.9032898424345
            ],
            [
              2.48034065418287,
              48.90371134867228
            ],
            [
              2.480383253366687,
              48.904363527169245
            ],
            [
              2.480312134883917,
              48.90574814185632
            ]
          ]
        ]
      },
      "properties": {
        "nom_iris": "Les Flèches",
        "iris": "0403",
        "etudiant": "maeva"
      }
    },
    {
      "type": "Feature",
      "geometry": {
        "type": "Polygon",
        "coordinates": [
          [
            [
              2.486822730151693,
              48.8870040686021
            ],
            [
              2.48087614872138,
              48.88804232427402
            ],
            [
              2.479556019292056,
              48.88845477491774
            ],
            [
              2.477882178875825,
              48.88918672429078
            ],
            [
              2.477721845285633,
              48.88967165453661
            ],
            [
              2.477596474972409,
              48.89074938417426
            ],
            [
              2.477669559911427,
              48.891756932817096
            ],
            [
              2.479049525035401,
              48.89164423501889
            ],
            [
              2.479565245414994,
              48.893671725984994
            ],
            [
              2.479576616029947,
              48.89403509666683
            ],
            [
              2.48334376929185,
              48.89347764905802
            ],
            [
              2.485032995841334,
              48.8932645941813
            ],
            [
              2.48638900408674,
              48.89309415298198
            ],
            [
              2.486208909487701,
              48.89268599282647
            ],
            [
              2.48899515913465,
              48.89200274784168
            ],
            [
              2.48823715878036,
              48.89044639970675
            ],
            [
              2.488104396100288,
              48.89035590100616
            ],
            [
              2.487803170420291,
              48.889645055261994
            ],
            [
              2.487451700550535,
              48.88919029752639
            ],
            [
              2.487616133285705,
              48.88911096237646
            ],
            [
              2.487321483147922,
              48.888426222797165
            ],
            [
              2.486822730151693,
              48.8870040686021
            ]
          ]
        ]
      },
      "properties": {
        "nom_iris": "La Mare à la Veuve",
        "iris": "0301",
        "etudiant": "furkan"
      }
    },
    {
      "type": "Feature",
      "geometry": {
        "type": "Polygon",
        "coordinates": [
          [
            [
              2.481514136670342,
              48.89984493301375
            ],
            [
              2.479828636138176,
              48.896249391053225
            ],
            [
              2.477117505450973,
              48.896616193257266
            ],
            [
              2.477358552017343,
              48.897740480522785
            ],
            [
              2.47729970428776,
              48.89776000845115
            ],
            [
              2.476046281105214,
              48.89937777949054
            ],
            [
              2.47417701319122,
              48.89983632687201
            ],
            [
              2.475217477076614,
              48.90176090589927
            ],
            [
              2.478786111234208,
              48.90106424012179
            ],
            [
              2.478633684157945,
              48.900756913913604
            ],
            [
              2.478609002875412,
              48.90036111243409
            ],
            [
              2.479955758850722,
              48.900181710963736
            ],
            [
              2.481514136670342,
              48.89984493301375
            ]
          ]
        ]
      },
      "properties": {
        "nom_iris": "Le Champart",
        "iris": "0203",
        "etudiant": "enzo"
      }
    },
    {
      "type": "Feature",
      "geometry": {
        "type": "Polygon",
        "coordinates": [
          [
            [
              2.472319062081925,
              48.90805677155931
            ],
            [
              2.473059548887945,
              48.90916526899702
            ],
            [
              2.474290287269882,
              48.9106365310919
            ],
            [
              2.47476743405428,
              48.91134906818947
            ],
            [
              2.475891025006736,
              48.91236030093233
            ],
            [
              2.476209514599066,
              48.91297950943985
            ],
            [
              2.476182549123628,
              48.9132186038674
            ],
            [
              2.475726313710239,
              48.914083527594386
            ],
            [
              2.475485698754686,
              48.91643232631772
            ],
            [
              2.475434445651804,
              48.91704991519671
            ],
            [
              2.475694071293443,
              48.91728396806116
            ],
            [
              2.474369048491921,
              48.91837349826812
            ],
            [
              2.476052969607878,
              48.91890695863855
            ],
            [
              2.476034993142776,
              48.919066054287896
            ],
            [
              2.477028874903231,
              48.92023947228004
            ],
            [
              2.479478710790081,
              48.91992549710754
            ],
            [
              2.479387411144055,
              48.91923084942068
            ],
            [
              2.479442403730318,
              48.91837136758387
            ],
            [
              2.482184647137146,
              48.91814403963255
            ],
            [
              2.4822603597029,
              48.91848879479079
            ],
            [
              2.485338628008913,
              48.917811402859996
            ],
            [
              2.485148312164113,
              48.91760105061174
            ],
            [
              2.484792990967319,
              48.91751858706974
            ],
            [
              2.484816041819458,
              48.91739548343013
            ],
            [
              2.479646874794582,
              48.917982863218676
            ],
            [
              2.479621073529204,
              48.91810685319538
            ],
            [
              2.479471654081007,
              48.918175449458104
            ],
            [
              2.479276688089672,
              48.91815931432393
            ],
            [
              2.479156357488627,
              48.91804817859791
            ],
            [
              2.478612633765325,
              48.91811236115091
            ],
            [
              2.477709364190399,
              48.914980691057764
            ],
            [
              2.477158647714817,
              48.91357089468696
            ],
            [
              2.476376788302325,
              48.91208454293757
            ],
            [
              2.475434329900909,
              48.9106991012264
            ],
            [
              2.473348297827321,
              48.90813414430439
            ],
            [
              2.472319062081925,
              48.90805677155931
            ]
          ]
        ]
      },
      "properties": {
        "nom_iris": "La Flamiche",
        "iris": "0101",
        "etudiant": "anys"
      }
    },
    {
      "type": "Feature",
      "geometry": {
        "type": "Polygon",
        "coordinates": [
          [
            [
              2.492326194382521,
              48.90761354923728
            ],
            [
              2.49016009654164,
              48.90730128587153
            ],
            [
              2.490179653137868,
              48.90725460560028
            ],
            [
              2.49034725576742,
              48.90685692962821
            ],
            [
              2.493697751435809,
              48.90728301690545
            ],
            [
              2.493540653089677,
              48.90702425423247
            ],
            [
              2.493407643908212,
              48.90513156671
            ],
            [
              2.490727378210579,
              48.90467684591522
            ],
            [
              2.491378959997417,
              48.90416881184352
            ],
            [
              2.4899276267951,
              48.901927875300004
            ],
            [
              2.489176746126604,
              48.90213061547691
            ],
            [
              2.488789975873298,
              48.901510244947424
            ],
            [
              2.488465949064458,
              48.901585302249934
            ],
            [
              2.487396457950496,
              48.90172821545731
            ],
            [
              2.486428663029727,
              48.90179421517133
            ],
            [
              2.486329973001488,
              48.901842354318454
            ],
            [
              2.486083481096119,
              48.90180082828818
            ],
            [
              2.485108640587627,
              48.90188926968975
            ],
            [
              2.483400127059686,
              48.90209324894171
            ],
            [
              2.482638878159824,
              48.90223834811302
            ],
            [
              2.482657149344461,
              48.90245875623367
            ],
            [
              2.482741431822964,
              48.9026254912472
            ],
            [
              2.483032237773398,
              48.90301254752517
            ],
            [
              2.485536040238129,
              48.90474369173362
            ],
            [
              2.484275750707639,
              48.905135762874444
            ],
            [
              2.483273437588505,
              48.90592372658072
            ],
            [
              2.483257928573992,
              48.90624920617784
            ],
            [
              2.483946542229033,
              48.90641854528661
            ],
            [
              2.49148792745249,
              48.90753715044458
            ],
            [
              2.492326194382521,
              48.90761354923728
            ]
          ]
        ]
      },
      "properties": {
        "nom_iris": "La Ferme",
        "iris": "0404",
        "etudiant": "lucie"
      }
    },
    {
      "type": "Feature",
      "geometry": {
        "type": "Polygon",
        "coordinates": [
          [
            [
              2.481447547895721,
              48.912144370004235
            ],
            [
              2.481142490877712,
              48.91222488497522
            ],
            [
              2.478301152060335,
              48.912568665796094
            ],
            [
              2.478781811168936,
              48.91430010039095
            ],
            [
              2.47873162214377,
              48.91440689792087
            ],
            [
              2.478844018331404,
              48.914491920470326
            ],
            [
              2.479000491025275,
              48.91508073858257
            ],
            [
              2.478817757831536,
              48.91547922963601
            ],
            [
              2.478919313917333,
              48.91582949603894
            ],
            [
              2.479075892858592,
              48.91599924384289
            ],
            [
              2.484141130614493,
              48.91541593744392
            ],
            [
              2.484076682182095,
              48.91517285106288
            ],
            [
              2.483853145651471,
              48.91473663071051
            ],
            [
              2.482402731017414,
              48.91350373722228
            ],
            [
              2.481447547895721,
              48.912144370004235
            ]
          ]
        ]
      },
      "properties": {
        "nom_iris": "Suzanne Buisson",
        "iris": "0104",
        "etudiant": "Louis"
      }
    }
  ]
}