{
"type": "FeatureCollection",
"name": "mesIris",
"crs": { "type": "name", "properties": { "name": "urn:ogc:def:crs:OGC:1.3:CRS84" } },
"features": [
{ "type": "Feature", "properties": { "code_iris": "930100108", "nom_iris": "Le Parc du Château" }, "geometry": { "type": "Polygon", "coordinates": [ [ [ 2.470955241146607, 48.905194578437417 ], [ 2.471584917836308, 48.907670433839357 ], [ 2.472319062081925, 48.908056771559309 ], [ 2.473348297827321, 48.908134144304391 ], [ 2.480174661770657, 48.908449039908916 ], [ 2.480309114916067, 48.906870454863785 ], [ 2.480305501601011, 48.906002615012191 ], [ 2.480312134883917, 48.905748141856321 ], [ 2.477781140130274, 48.905380111694249 ], [ 2.476975037429073, 48.905230907790219 ], [ 2.476812551081188, 48.905517075130525 ], [ 2.475502961540481, 48.905242456867285 ], [ 2.474279690544954, 48.905067126188037 ], [ 2.473527367150161, 48.904997273526369 ], [ 2.471897031551459, 48.905010780456415 ], [ 2.472071089288683, 48.90546929209173 ], [ 2.47133678902882, 48.905370727506408 ], [ 2.470955241146607, 48.905194578437417 ] ] ] } },
{ "type": "Feature", "properties": { "code_iris": "930100107", "nom_iris": "La Noue Caillet" }, "geometry": { "type": "Polygon", "coordinates": [ [ [ 2.478301152060335, 48.912568665796094 ], [ 2.481142490877712, 48.912224884975217 ], [ 2.481447547895721, 48.912144370004235 ], [ 2.480254018907822, 48.910338807734142 ], [ 2.480119552846677, 48.909868791393734 ], [ 2.483051270119416, 48.909612589137382 ], [ 2.483094336227072, 48.909122658093374 ], [ 2.480090431987673, 48.909369555143265 ], [ 2.480174661770657, 48.908449039908916 ], [ 2.473348297827321, 48.908134144304391 ], [ 2.475434329900909, 48.910699101226399 ], [ 2.476100869084121, 48.910353990316629 ], [ 2.476216444535481, 48.910257371666319 ], [ 2.477592860472088, 48.912450469465341 ], [ 2.477698447022326, 48.912533664983876 ], [ 2.477908038141869, 48.912585838394058 ], [ 2.478301152060335, 48.912568665796094 ] ] ] } }
]
}
