{
"type": "FeatureCollection",
"name": "zoneSWK3",
"crs": { "type": "name", "properties": { "name": "urn:ogc:def:crs:OGC:1.3:CRS84" } },
"xy_coordinate_resolution": 1e-14,
"features": [
{ "type": "Feature", "properties": { "code_iris": "930100107", "nom_iris": "La Noue Caillet" }, "geometry": { "type": "MultiPolygon", "coordinates": [ [ [ [ 2.47587432219999, 48.91159340605142 ], [ 2.4767458582348, 48.91298205878994 ], [ 2.47697396017714, 48.91323593902231 ], [ 2.47707954672738, 48.91331913454084 ], [ 2.47745688922383, 48.91350405141721 ], [ 2.47766648034337, 48.91355622482739 ], [ 2.47795168003744, 48.91358488563266 ], [ 2.4783447939559, 48.91356771303469 ], [ 2.47842126859709, 48.91356142559464 ], [ 2.48126260741446, 48.91321764477376 ], [ 2.48139768607058, 48.91319177453124 ], [ 2.48170274308859, 48.91311125956025 ], [ 2.48199070187087, 48.91298400311415 ], [ 2.48222482623839, 48.91277352688294 ], [ 2.48238191108008, 48.91250069210532 ], [ 2.48244638701616, 48.91219254065386 ], [ 2.48241186354882, 48.91187961479431 ], [ 2.48228176245301, 48.91159293000532 ], [ 2.48171352581138, 48.91073330560489 ], [ 2.48313832814539, 48.91060879237975 ], [ 2.48347372867553, 48.91051897137925 ], [ 2.48375819704123, 48.91031987573221 ], [ 2.48395743735861, 48.91003550867419 ], [ 2.48404742895046, 48.90970015387528 ], [ 2.48409049505812, 48.90921022283128 ], [ 2.48407392254305, 48.90892163409097 ], [ 2.48397549764754, 48.90864984253624 ], [ 2.48380344456977, 48.90841755855549 ], [ 2.4835721397396, 48.90824419135899 ], [ 2.48330091055131, 48.90814422718188 ], [ 2.48301242040306, 48.9081260188418 ], [ 2.48115209396209, 48.90827892288717 ], [ 2.48114788384513, 48.90821917300447 ], [ 2.48102449337928, 48.90792198560718 ], [ 2.48081310662687, 48.9076793723407 ], [ 2.48053561174674, 48.90751645473063 ], [ 2.48022074210058, 48.90745010217152 ], [ 2.47339437815725, 48.907135206567 ], [ 2.47306960851929, 48.90717376298971 ], [ 2.47277464802353, 48.90731504363743 ], [ 2.47254104620961, 48.90754393686145 ], [ 2.47239378957498, 48.9078359598041 ], [ 2.47234862897136, 48.90815987713206 ], [ 2.47241039486341, 48.90848104202749 ], [ 2.47257248065301, 48.90876510207798 ], [ 2.4746585127266, 48.91133005899999 ], [ 2.47491457226928, 48.91155341498865 ], [ 2.47523064011074, 48.91167813670553 ], [ 2.47557022483208, 48.91168982448124 ], [ 2.47587432219999, 48.91159340605142 ] ] ] ] } }
]
}
