{
"type": "FeatureCollection",
"name": "zoneSWK5",
"crs": { "type": "name", "properties": { "name": "urn:ogc:def:crs:OGC:1.3:CRS84" } },
"features": [
{ "type": "Feature", "properties": { "fid": 15, "typ_iris": "H", "insee_com": 93010, "code_iris": "930100107", "nom_iris": "La Noue Caillet", "dep": "93", "id": "IRIS____0000000930100107", "iris": "0107", "nom_com": "Bondy", "auxiliary_storage_labeling_positionx": null, "auxiliary_storage_labeling_positiony": null, "auxiliary_storage_labeling_lineanchorpercent": null, "auxiliary_storage_labeling_lineanchorclipping": null, "auxiliary_storage_labeling_lineanchortype": null, "auxiliary_storage_labeling_lineanchortextpoint": null }, "geometry": { "type": "Polygon", "coordinates": [ [ [ 2.478305516249892, 48.912668570519955 ], [ 2.47831316371401, 48.91266794177595 ], [ 2.481154502531387, 48.912324160955073 ], [ 2.481168010396999, 48.912321573930818 ], [ 2.481473067415008, 48.912241058959836 ], [ 2.481501863293237, 48.912228333315227 ], [ 2.481525275729988, 48.912207285692105 ], [ 2.481540984214157, 48.912180002214342 ], [ 2.481547431807765, 48.912149187069197 ], [ 2.481543979461031, 48.912117894483238 ], [ 2.48153096935145, 48.912089226004341 ], [ 2.480345928164974, 48.910296504020629 ], [ 2.48024904507221, 48.90995785621373 ], [ 2.483059975922013, 48.909712209461617 ], [ 2.483093515975028, 48.909703227361568 ], [ 2.483121962811598, 48.909683317796862 ], [ 2.483141886843335, 48.909654881091065 ], [ 2.483150886002521, 48.909621345611171 ], [ 2.483193952110177, 48.909131414567163 ], [ 2.48319229485867, 48.909102555693131 ], [ 2.483182452369119, 48.909075376537658 ], [ 2.483165247061341, 48.909052148139587 ], [ 2.483142116578324, 48.909034811419936 ], [ 2.483114993659496, 48.909024815002226 ], [ 2.483086144644671, 48.909022994168218 ], [ 2.480200861414513, 48.909260141514089 ], [ 2.480274245742591, 48.908458152127849 ], [ 2.480271983978104, 48.90842605321847 ], [ 2.48025964493152, 48.908396334478745 ], [ 2.480238506256279, 48.908372073152094 ], [ 2.480210756768265, 48.908355781391087 ], [ 2.480179269803649, 48.90834914613518 ], [ 2.473352905860314, 48.908034250530655 ], [ 2.473320428896518, 48.908038106172924 ], [ 2.473290932846943, 48.908052234237694 ], [ 2.47326757266555, 48.908075123560096 ], [ 2.473252847002087, 48.90810432585436 ], [ 2.473248330941725, 48.908136717587155 ], [ 2.47325450753093, 48.908168834076697 ], [ 2.47327071610989, 48.908197240081748 ], [ 2.475356748183478, 48.910762197003756 ], [ 2.475382354137746, 48.910784532602626 ], [ 2.475413960921893, 48.910797004774309 ], [ 2.475447919394028, 48.910798173551882 ], [ 2.475480308899562, 48.910787903994837 ], [ 2.476146848082774, 48.910442793085068 ], [ 2.476165007238572, 48.91043071252426 ], [ 2.476192662234766, 48.910407593528184 ], [ 2.477508160248358, 48.912503628397801 ], [ 2.477530970442593, 48.91252901642104 ], [ 2.477636556992831, 48.912612211939575 ], [ 2.477674291242476, 48.912630703627208 ], [ 2.477883882362019, 48.91268287703739 ], [ 2.477912402331426, 48.912685743117919 ], [ 2.478305516249892, 48.912668570519955 ] ] ] } }
]
}
