{
"type": "FeatureCollection",
"name": "zoneSWK",
"crs": { "type": "name", "properties": { "name": "urn:ogc:def:crs:OGC:1.3:CRS84" } },
"features": [
{ "type": "Feature", "properties": { "code_iris": "930100107", "nom_iris": "La Noue Caillet" }, "geometry": { "type": "MultiPolygon", "coordinates": [ [ [ [ 2.475874322199992, 48.911593406051423 ], [ 2.476745858234796, 48.912982058789936 ], [ 2.476973960177141, 48.913235939022307 ], [ 2.47707954672738, 48.913319134540842 ], [ 2.477456889223829, 48.913504051417206 ], [ 2.477666480343372, 48.913556224827389 ], [ 2.477951680037436, 48.913584885632659 ], [ 2.478344793955902, 48.913567713034695 ], [ 2.478421268597085, 48.913561425594636 ], [ 2.481262607414462, 48.913217644773759 ], [ 2.481397686070577, 48.913191774531235 ], [ 2.481702743088586, 48.913111259560253 ], [ 2.481990701870874, 48.912984003114154 ], [ 2.482224826238387, 48.912773526882944 ], [ 2.482381911080077, 48.912500692105318 ], [ 2.482446387016158, 48.912192540653855 ], [ 2.482411863548823, 48.911879614794309 ], [ 2.482281762453014, 48.91159293000532 ], [ 2.481713525811384, 48.910733305604893 ], [ 2.483138328145391, 48.910608792379755 ], [ 2.483473728675533, 48.910518971379247 ], [ 2.48375819704123, 48.910319875732206 ], [ 2.483957437358609, 48.910035508674191 ], [ 2.484047428950464, 48.909700153875285 ], [ 2.48409049505812, 48.909210222831277 ], [ 2.484073922543054, 48.908921634090973 ], [ 2.483975497647545, 48.908649842536235 ], [ 2.483803444569766, 48.908417558555492 ], [ 2.483572139739595, 48.908244191358989 ], [ 2.483300910551308, 48.908144227181879 ], [ 2.483012420403061, 48.908126018841799 ], [ 2.48115209396209, 48.90827892288717 ], [ 2.481147883845129, 48.908219173004468 ], [ 2.481024493379283, 48.907921985607182 ], [ 2.480813106626871, 48.907679372340695 ], [ 2.480535611746738, 48.907516454730626 ], [ 2.480220742100582, 48.907450102171524 ], [ 2.473394378157247, 48.907135206566998 ], [ 2.473069608519286, 48.907173762989714 ], [ 2.472774648023534, 48.907315043637432 ], [ 2.472541046209607, 48.907543936861451 ], [ 2.47239378957498, 48.907835959804103 ], [ 2.472348628971359, 48.908159877132064 ], [ 2.472410394863412, 48.908481042027489 ], [ 2.472572480653012, 48.908765102077979 ], [ 2.4746585127266, 48.911330058999987 ], [ 2.474914572269281, 48.911553414988646 ], [ 2.475230640110744, 48.911678136705525 ], [ 2.475570224832082, 48.911689824481236 ], [ 2.475874322199992, 48.911593406051423 ] ] ] ] } }
]
}
