{
"type": "FeatureCollection",
"name": "zoneSWK6",
"crs": { "type": "name", "properties": { "name": "urn:ogc:def:crs:OGC:1.3:CRS84" } },
"features": [
{ "type": "Feature", "properties": { "code_iris": "930100107", "nom_iris": "La Noue Caillet" }, "geometry": { "type": "Polygon", "coordinates": [ [ [ 2.480146156894995, 48.909866466470625 ], [ 2.480117987538823, 48.909367290296004 ], [ 2.480090431987673, 48.909369555143265 ], [ 2.480107555145723, 48.909182422667229 ], [ 2.480174661770657, 48.908449039908916 ], [ 2.473348297827321, 48.908134144304391 ], [ 2.475434329900909, 48.910699101226399 ], [ 2.476100869084121, 48.910353990316629 ], [ 2.476216444535481, 48.910257371666319 ], [ 2.476237094394887, 48.910290273901765 ], [ 2.4764487, 48.9101913 ], [ 2.480251242570887, 48.910329103250241 ], [ 2.480119552846677, 48.909868791393734 ], [ 2.480146156894995, 48.909866466470625 ] ] ] } }
]
}
