{
"type": "FeatureCollection",
"name": "input_polygon",
"crs": { "type": "name", "properties": { "name": "urn:ogc:def:crs:OGC:1.3:CRS84" } },
"xy_coordinate_resolution": 1e-15,
"features": [
{ "type": "Feature", "properties": { }, "geometry": { "type": "Polygon", "coordinates": [ [ [ 2.47587432219999, 48.911593406051423 ], [ 2.4767458582348, 48.912982058789943 ], [ 2.47697396017714, 48.913235939022307 ], [ 2.47707954672738, 48.913319134540842 ], [ 2.47745688922383, 48.913504051417213 ], [ 2.47766648034337, 48.913556224827389 ], [ 2.47795168003744, 48.913584885632659 ], [ 2.4783447939559, 48.913567713034688 ], [ 2.47842126859709, 48.913561425594636 ], [ 2.48126260741446, 48.913217644773759 ], [ 2.48139768607058, 48.913191774531242 ], [ 2.48170274308859, 48.913111259560253 ], [ 2.48199070187087, 48.912984003114147 ], [ 2.48222482623839, 48.912773526882937 ], [ 2.48238191108008, 48.912500692105318 ], [ 2.48244638701616, 48.912192540653862 ], [ 2.48241186354882, 48.911879614794309 ], [ 2.48228176245301, 48.91159293000532 ], [ 2.48171352581138, 48.910733305604893 ], [ 2.48313832814539, 48.910608792379747 ], [ 2.48347372867553, 48.910518971379247 ], [ 2.48375819704123, 48.910319875732213 ], [ 2.48395743735861, 48.910035508674191 ], [ 2.48404742895046, 48.909700153875278 ], [ 2.48409049505812, 48.909210222831277 ], [ 2.48407392254305, 48.908921634090973 ], [ 2.48397549764754, 48.908649842536242 ], [ 2.48380344456977, 48.908417558555492 ], [ 2.4835721397396, 48.908244191358989 ], [ 2.48330091055131, 48.908144227181879 ], [ 2.48301242040306, 48.908126018841799 ], [ 2.48115209396209, 48.90827892288717 ], [ 2.48114788384513, 48.908219173004468 ], [ 2.48102449337928, 48.907921985607182 ], [ 2.48081310662687, 48.907679372340702 ], [ 2.48053561174674, 48.907516454730633 ], [ 2.48022074210058, 48.907450102171516 ], [ 2.47339437815725, 48.907135206566998 ], [ 2.47306960851929, 48.907173762989707 ], [ 2.47277464802353, 48.907315043637432 ], [ 2.47254104620961, 48.907543936861451 ], [ 2.47239378957498, 48.907835959804103 ], [ 2.47234862897136, 48.908159877132057 ], [ 2.47241039486341, 48.908481042027489 ], [ 2.47257248065301, 48.908765102077979 ], [ 2.4746585127266, 48.911330058999987 ], [ 2.47491457226928, 48.911553414988653 ], [ 2.47523064011074, 48.911678136705532 ], [ 2.47557022483208, 48.911689824481243 ], [ 2.47587432219999, 48.911593406051423 ] ] ] } }
]
}
