{
"type": "FeatureCollection",
"name": "protoblocks",
"crs": { "type": "name", "properties": { "name": "urn:ogc:def:crs:OGC:1.3:CRS84" } },
"xy_coordinate_resolution": 1e-15,
"features": [
{ "type": "Feature", "properties": { "osm_id": null, "name": null, "highway": null, "waterway": null, "aerialway": null, "barrier": null, "man_made": null, "railway": null, "z_order": null, "other_tags": null, "access": null, "bicycle": null, "boundary": null, "bridge": null, "covered": null, "cycleway": null, "cycleway:left": null, "cycleway:right": null, "destination": null, "destination:colour": null, "destination:ref": null, "destination:ref:to": null, "destination:symbol:to": null, "destination:to": null, "foot": null, "footway": null, "horse": null, "int_ref": null, "junction:ref": null, "lane_markings": null, "lanes": null, "layer": null, "lit": null, "maxspeed": null, "maxweight:signed": null, "maxweightrating:signed": null, "motor_vehicle": null, "name:etymology:wikidata": null, "nat_ref": null, "oneway": null, "operator": null, "operator:wikidata": null, "political_division": null, "ref": null, "segregated": null, "service": null, "sidewalk": null, "smoothness": null, "source:maxspeed": null, "surface": null, "toll": null, "tunnel": null, "turn:lanes": null, "was:name": null, "width": null, "zone:maxspeed": null, "inc_sidewalk_len": 192.18498428821962, "sidewalks_ratio": 30.521952429307436, "incident": "49" }, "geometry": { "type": "Polygon", "coordinates": [ [ [ 2.48016, 48.9084294 ], [ 2.4800804, 48.9084262 ], [ 2.4789239, 48.908384 ], [ 2.4788528, 48.90838140000001 ], [ 2.4788458, 48.9084541 ], [ 2.4787767, 48.9090792 ], [ 2.4798916, 48.9091249 ], [ 2.4799754, 48.9091283 ], [ 2.4801048, 48.9091336 ], [ 2.480113, 48.9090402 ], [ 2.4801449, 48.9086773 ], [ 2.4801455, 48.9085784 ], [ 2.48016, 48.9084294 ] ] ] } },
{ "type": "Feature", "properties": { "osm_id": null, "name": null, "highway": null, "waterway": null, "aerialway": null, "barrier": null, "man_made": null, "railway": null, "z_order": null, "other_tags": null, "access": null, "bicycle": null, "boundary": null, "bridge": null, "covered": null, "cycleway": null, "cycleway:left": null, "cycleway:right": null, "destination": null, "destination:colour": null, "destination:ref": null, "destination:ref:to": null, "destination:symbol:to": null, "destination:to": null, "foot": null, "footway": null, "horse": null, "int_ref": null, "junction:ref": null, "lane_markings": null, "lanes": null, "layer": null, "lit": null, "maxspeed": null, "maxweight:signed": null, "maxweightrating:signed": null, "motor_vehicle": null, "name:etymology:wikidata": null, "nat_ref": null, "oneway": null, "operator": null, "operator:wikidata": null, "political_division": null, "ref": null, "segregated": null, "service": null, "sidewalk": null, "smoothness": null, "source:maxspeed": null, "surface": null, "toll": null, "tunnel": null, "turn:lanes": null, "was:name": null, "width": null, "zone:maxspeed": null, "inc_sidewalk_len": 191.24454298950445, "sidewalks_ratio": 15.358270615153371, "incident": "53 58" }, "geometry": { "type": "Polygon", "coordinates": [ [ [ 2.4788528, 48.90838140000001 ], [ 2.4781172, 48.9083404 ], [ 2.4776305, 48.908334600000011 ], [ 2.4775737, 48.9083339 ], [ 2.4774984, 48.908329 ], [ 2.4762893, 48.9082497 ], [ 2.476275, 48.9083099 ], [ 2.4762582, 48.9083294 ], [ 2.4761939, 48.9089638 ], [ 2.4763865, 48.908973 ], [ 2.4774986, 48.9090268 ], [ 2.4787767, 48.9090792 ], [ 2.4788458, 48.9084541 ], [ 2.4788528, 48.90838140000001 ] ] ] } },
{ "type": "Feature", "properties": { "osm_id": null, "name": null, "highway": null, "waterway": null, "aerialway": null, "barrier": null, "man_made": null, "railway": null, "z_order": null, "other_tags": null, "access": null, "bicycle": null, "boundary": null, "bridge": null, "covered": null, "cycleway": null, "cycleway:left": null, "cycleway:right": null, "destination": null, "destination:colour": null, "destination:ref": null, "destination:ref:to": null, "destination:symbol:to": null, "destination:to": null, "foot": null, "footway": null, "horse": null, "int_ref": null, "junction:ref": null, "lane_markings": null, "lanes": null, "layer": null, "lit": null, "maxspeed": null, "maxweight:signed": null, "maxweightrating:signed": null, "motor_vehicle": null, "name:etymology:wikidata": null, "nat_ref": null, "oneway": null, "operator": null, "operator:wikidata": null, "political_division": null, "ref": null, "segregated": null, "service": null, "sidewalk": null, "smoothness": null, "source:maxspeed": null, "surface": null, "toll": null, "tunnel": null, "turn:lanes": null, "was:name": null, "width": null, "zone:maxspeed": null, "inc_sidewalk_len": 197.06807792274469, "sidewalks_ratio": 5.0694388497958531, "incident": "48 63" }, "geometry": { "type": "Polygon", "coordinates": [ [ [ 2.4762893, 48.9082497 ], [ 2.4761785, 48.9082433 ], [ 2.4749652, 48.9081829 ], [ 2.4748885, 48.9081791 ], [ 2.473568, 48.9081132 ], [ 2.473316720552511, 48.90810904857392 ], [ 2.4734974, 48.908333 ], [ 2.474488, 48.9094963 ], [ 2.4748963, 48.910001 ], [ 2.4752999, 48.9105473 ], [ 2.475344173377772, 48.910608621563263 ], [ 2.4754512, 48.9105496 ], [ 2.4755245, 48.910517799999987 ], [ 2.4758776, 48.9103729 ], [ 2.4759987, 48.9103657 ], [ 2.4761087, 48.9103156 ], [ 2.4761696, 48.91031430000001 ], [ 2.4762721, 48.9102416 ], [ 2.4762918, 48.9102341 ], [ 2.4763929, 48.9102021 ], [ 2.4764487, 48.9101913 ], [ 2.4765061, 48.9101826 ], [ 2.4765428, 48.9101794 ], [ 2.47658, 48.9101786 ], [ 2.477162, 48.9102044 ], [ 2.4780298, 48.9102428 ], [ 2.4781857, 48.9102497 ], [ 2.4785555, 48.9102661 ], [ 2.4790195, 48.9102866 ], [ 2.479544, 48.9103097 ], [ 2.4796731, 48.9103156 ], [ 2.4801128, 48.910335 ], [ 2.480244, 48.9103277 ], [ 2.4801435, 48.9099871 ], [ 2.4801187, 48.9098854 ], [ 2.4801022, 48.9097618 ], [ 2.4799878, 48.9097573 ], [ 2.4796748, 48.90974210000001 ], [ 2.4790365, 48.909711 ], [ 2.4783799, 48.9096791 ], [ 2.4777542, 48.9096487 ], [ 2.4770943, 48.9096166 ], [ 2.4763256, 48.909577 ], [ 2.4760368, 48.909567899999978 ], [ 2.4758349, 48.909561600000011 ], [ 2.4758411, 48.9095053 ], [ 2.4751175, 48.909478 ], [ 2.4749788, 48.909298 ], [ 2.4747933, 48.9090573 ], [ 2.4748009, 48.9089001 ], [ 2.4748901, 48.9089041 ], [ 2.4750723, 48.9089124 ], [ 2.4758997, 48.908952 ], [ 2.4761939, 48.9089638 ], [ 2.4762582, 48.9083294 ], [ 2.476275, 48.9083099 ], [ 2.4762893, 48.9082497 ] ] ] } },
{ "type": "Feature", "properties": { "osm_id": null, "name": null, "highway": null, "waterway": null, "aerialway": null, "barrier": null, "man_made": null, "railway": null, "z_order": null, "other_tags": null, "access": null, "bicycle": null, "boundary": null, "bridge": null, "covered": null, "cycleway": null, "cycleway:left": null, "cycleway:right": null, "destination": null, "destination:colour": null, "destination:ref": null, "destination:ref:to": null, "destination:symbol:to": null, "destination:to": null, "foot": null, "footway": null, "horse": null, "int_ref": null, "junction:ref": null, "lane_markings": null, "lanes": null, "layer": null, "lit": null, "maxspeed": null, "maxweight:signed": null, "maxweightrating:signed": null, "motor_vehicle": null, "name:etymology:wikidata": null, "nat_ref": null, "oneway": null, "operator": null, "operator:wikidata": null, "political_division": null, "ref": null, "segregated": null, "service": null, "sidewalk": null, "smoothness": null, "source:maxspeed": null, "surface": null, "toll": null, "tunnel": null, "turn:lanes": null, "was:name": null, "width": null, "zone:maxspeed": null, "inc_sidewalk_len": 0.0, "sidewalks_ratio": 0.0, "incident": "54 50 51 56 61" }, "geometry": { "type": "Polygon", "coordinates": [ [ [ 2.4799754, 48.9091283 ], [ 2.4798916, 48.9091249 ], [ 2.4787767, 48.9090792 ], [ 2.4774986, 48.9090268 ], [ 2.4763865, 48.908973 ], [ 2.4763256, 48.909577 ], [ 2.4770943, 48.9096166 ], [ 2.4777542, 48.9096487 ], [ 2.4783799, 48.9096791 ], [ 2.4790365, 48.909711 ], [ 2.4796748, 48.90974210000001 ], [ 2.4799878, 48.9097573 ], [ 2.4801022, 48.9097618 ], [ 2.4800992, 48.909661 ], [ 2.4800865, 48.909386499999989 ], [ 2.4800912, 48.909319 ], [ 2.4801048, 48.9091336 ], [ 2.4799754, 48.9091283 ] ], [ [ 2.478564, 48.9093968 ], [ 2.4785895, 48.909139 ], [ 2.4787683, 48.9091447 ], [ 2.4789493, 48.9091506 ], [ 2.4789258, 48.9094085 ], [ 2.478564, 48.9093968 ] ], [ [ 2.477657, 48.9093591 ], [ 2.477248, 48.9093435 ], [ 2.4772765, 48.909328700000017 ], [ 2.4772805, 48.90931 ], [ 2.4772996, 48.9091128 ], [ 2.4773112, 48.9090916 ], [ 2.4773359, 48.909081699999987 ], [ 2.4774902, 48.9090838 ], [ 2.4775954, 48.9090904 ], [ 2.4776389, 48.9090956 ], [ 2.4776596, 48.9091144 ], [ 2.4776575, 48.9091344 ], [ 2.4776365, 48.9093278 ], [ 2.4776401, 48.9093478 ], [ 2.477657, 48.9093591 ] ] ] } },
{ "type": "Feature", "properties": { "osm_id": null, "name": null, "highway": null, "waterway": null, "aerialway": null, "barrier": null, "man_made": null, "railway": null, "z_order": null, "other_tags": null, "access": null, "bicycle": null, "boundary": null, "bridge": null, "covered": null, "cycleway": null, "cycleway:left": null, "cycleway:right": null, "destination": null, "destination:colour": null, "destination:ref": null, "destination:ref:to": null, "destination:symbol:to": null, "destination:to": null, "foot": null, "footway": null, "horse": null, "int_ref": null, "junction:ref": null, "lane_markings": null, "lanes": null, "layer": null, "lit": null, "maxspeed": null, "maxweight:signed": null, "maxweightrating:signed": null, "motor_vehicle": null, "name:etymology:wikidata": null, "nat_ref": null, "oneway": null, "operator": null, "operator:wikidata": null, "political_division": null, "ref": null, "segregated": null, "service": null, "sidewalk": null, "smoothness": null, "source:maxspeed": null, "surface": null, "toll": null, "tunnel": null, "turn:lanes": null, "was:name": null, "width": null, "zone:maxspeed": null, "inc_sidewalk_len": 0.0, "sidewalks_ratio": 0.0, "incident": "62" }, "geometry": { "type": "Polygon", "coordinates": [ [ [ 2.4763865, 48.908973 ], [ 2.4761939, 48.9089638 ], [ 2.4758997, 48.908952 ], [ 2.4758606, 48.9093281 ], [ 2.4758411, 48.9095053 ], [ 2.4758349, 48.909561600000011 ], [ 2.4760368, 48.909567899999978 ], [ 2.4763256, 48.909577 ], [ 2.4763865, 48.908973 ] ] ] } },
{ "type": "Feature", "properties": { "osm_id": null, "name": null, "highway": null, "waterway": null, "aerialway": null, "barrier": null, "man_made": null, "railway": null, "z_order": null, "other_tags": null, "access": null, "bicycle": null, "boundary": null, "bridge": null, "covered": null, "cycleway": null, "cycleway:left": null, "cycleway:right": null, "destination": null, "destination:colour": null, "destination:ref": null, "destination:ref:to": null, "destination:symbol:to": null, "destination:to": null, "foot": null, "footway": null, "horse": null, "int_ref": null, "junction:ref": null, "lane_markings": null, "lanes": null, "layer": null, "lit": null, "maxspeed": null, "maxweight:signed": null, "maxweightrating:signed": null, "motor_vehicle": null, "name:etymology:wikidata": null, "nat_ref": null, "oneway": null, "operator": null, "operator:wikidata": null, "political_division": null, "ref": null, "segregated": null, "service": null, "sidewalk": null, "smoothness": null, "source:maxspeed": null, "surface": null, "toll": null, "tunnel": null, "turn:lanes": null, "was:name": null, "width": null, "zone:maxspeed": null, "inc_sidewalk_len": 0.0, "sidewalks_ratio": 0.0, "incident": "67 64" }, "geometry": { "type": "Polygon", "coordinates": [ [ [ 2.4758997, 48.908952 ], [ 2.4750723, 48.9089124 ], [ 2.4748901, 48.9089041 ], [ 2.4748009, 48.9089001 ], [ 2.4747933, 48.9090573 ], [ 2.4749788, 48.909298 ], [ 2.4758606, 48.9093281 ], [ 2.4758997, 48.908952 ] ] ] } },
{ "type": "Feature", "properties": { "osm_id": null, "name": null, "highway": null, "waterway": null, "aerialway": null, "barrier": null, "man_made": null, "railway": null, "z_order": null, "other_tags": null, "access": null, "bicycle": null, "boundary": null, "bridge": null, "covered": null, "cycleway": null, "cycleway:left": null, "cycleway:right": null, "destination": null, "destination:colour": null, "destination:ref": null, "destination:ref:to": null, "destination:symbol:to": null, "destination:to": null, "foot": null, "footway": null, "horse": null, "int_ref": null, "junction:ref": null, "lane_markings": null, "lanes": null, "layer": null, "lit": null, "maxspeed": null, "maxweight:signed": null, "maxweightrating:signed": null, "motor_vehicle": null, "name:etymology:wikidata": null, "nat_ref": null, "oneway": null, "operator": null, "operator:wikidata": null, "political_division": null, "ref": null, "segregated": null, "service": null, "sidewalk": null, "smoothness": null, "source:maxspeed": null, "surface": null, "toll": null, "tunnel": null, "turn:lanes": null, "was:name": null, "width": null, "zone:maxspeed": null, "inc_sidewalk_len": 0.0, "sidewalks_ratio": 0.0, "incident": "47" }, "geometry": { "type": "Polygon", "coordinates": [ [ [ 2.480244, 48.9103277 ], [ 2.4801128, 48.910335 ], [ 2.4796731, 48.9103156 ], [ 2.479544, 48.9103097 ], [ 2.4790195, 48.9102866 ], [ 2.4785555, 48.9102661 ], [ 2.4781857, 48.9102497 ], [ 2.4781964, 48.9102894 ], [ 2.4784753, 48.911321 ], [ 2.4784996, 48.9114109 ], [ 2.4785418, 48.9115669 ], [ 2.4785531, 48.911608799999989 ], [ 2.4785867, 48.911733099999985 ], [ 2.4776391, 48.9118535 ], [ 2.4775892, 48.91186 ], [ 2.47724, 48.9118973 ], [ 2.4772975, 48.9119862 ], [ 2.4773531, 48.912072 ], [ 2.4774228, 48.9121796 ], [ 2.4776115, 48.9124709 ], [ 2.4776845, 48.9125238 ], [ 2.4777523, 48.9125635 ], [ 2.4778187, 48.9125789 ], [ 2.4779011, 48.9125886 ], [ 2.4779478, 48.9125864 ], [ 2.4779849, 48.9125846 ], [ 2.4781979, 48.9125623 ], [ 2.4782968, 48.912552 ], [ 2.4784382, 48.9125341 ], [ 2.4788278, 48.912484599999985 ], [ 2.4795223, 48.9124021 ], [ 2.4800114, 48.9123414 ], [ 2.4801116, 48.9123303 ], [ 2.4804508, 48.912292799999989 ], [ 2.4806377, 48.9122722 ], [ 2.4809361, 48.9122393 ], [ 2.4811399, 48.9122118 ], [ 2.4811922, 48.9122056 ], [ 2.4813679, 48.9121766 ], [ 2.4814888, 48.9121457 ], [ 2.4813293, 48.9119518 ], [ 2.4810883, 48.9115944 ], [ 2.4808433, 48.9112262 ], [ 2.4805371, 48.9107645 ], [ 2.480244, 48.9103277 ] ] ] } },
{ "type": "Feature", "properties": { "osm_id": null, "name": null, "highway": null, "waterway": null, "aerialway": null, "barrier": null, "man_made": null, "railway": null, "z_order": null, "other_tags": null, "access": null, "bicycle": null, "boundary": null, "bridge": null, "covered": null, "cycleway": null, "cycleway:left": null, "cycleway:right": null, "destination": null, "destination:colour": null, "destination:ref": null, "destination:ref:to": null, "destination:symbol:to": null, "destination:to": null, "foot": null, "footway": null, "horse": null, "int_ref": null, "junction:ref": null, "lane_markings": null, "lanes": null, "layer": null, "lit": null, "maxspeed": null, "maxweight:signed": null, "maxweightrating:signed": null, "motor_vehicle": null, "name:etymology:wikidata": null, "nat_ref": null, "oneway": null, "operator": null, "operator:wikidata": null, "political_division": null, "ref": null, "segregated": null, "service": null, "sidewalk": null, "smoothness": null, "source:maxspeed": null, "surface": null, "toll": null, "tunnel": null, "turn:lanes": null, "was:name": null, "width": null, "zone:maxspeed": null, "inc_sidewalk_len": 0.0, "sidewalks_ratio": 0.0, "incident": "55" }, "geometry": { "type": "Polygon", "coordinates": [ [ [ 2.4781857, 48.9102497 ], [ 2.4780298, 48.9102428 ], [ 2.477162, 48.9102044 ], [ 2.4771746, 48.9102524 ], [ 2.4772652, 48.9105984 ], [ 2.477343, 48.9108954 ], [ 2.4773575, 48.9109451 ], [ 2.477422, 48.9111999 ], [ 2.4774417, 48.9112778 ], [ 2.477548, 48.9116975 ], [ 2.4775562, 48.911729899999983 ], [ 2.4785531, 48.911608799999989 ], [ 2.4785418, 48.9115669 ], [ 2.4784996, 48.9114109 ], [ 2.4784753, 48.911321 ], [ 2.4781964, 48.9102894 ], [ 2.4781857, 48.9102497 ] ] ] } },
{ "type": "Feature", "properties": { "osm_id": null, "name": null, "highway": null, "waterway": null, "aerialway": null, "barrier": null, "man_made": null, "railway": null, "z_order": null, "other_tags": null, "access": null, "bicycle": null, "boundary": null, "bridge": null, "covered": null, "cycleway": null, "cycleway:left": null, "cycleway:right": null, "destination": null, "destination:colour": null, "destination:ref": null, "destination:ref:to": null, "destination:symbol:to": null, "destination:to": null, "foot": null, "footway": null, "horse": null, "int_ref": null, "junction:ref": null, "lane_markings": null, "lanes": null, "layer": null, "lit": null, "maxspeed": null, "maxweight:signed": null, "maxweightrating:signed": null, "motor_vehicle": null, "name:etymology:wikidata": null, "nat_ref": null, "oneway": null, "operator": null, "operator:wikidata": null, "political_division": null, "ref": null, "segregated": null, "service": null, "sidewalk": null, "smoothness": null, "source:maxspeed": null, "surface": null, "toll": null, "tunnel": null, "turn:lanes": null, "was:name": null, "width": null, "zone:maxspeed": null, "inc_sidewalk_len": 0.0, "sidewalks_ratio": 0.0, "incident": "60" }, "geometry": { "type": "Polygon", "coordinates": [ [ [ 2.477162, 48.9102044 ], [ 2.47658, 48.9101786 ], [ 2.4765428, 48.9101794 ], [ 2.4765061, 48.9101826 ], [ 2.4764487, 48.9101913 ], [ 2.4763929, 48.9102021 ], [ 2.4762918, 48.9102341 ], [ 2.4762721, 48.9102416 ], [ 2.4761696, 48.91031430000001 ], [ 2.4762066, 48.9103189 ], [ 2.4762426, 48.9103265 ], [ 2.4762802, 48.9103457 ], [ 2.4763128, 48.910368699999985 ], [ 2.4763573, 48.9104421 ], [ 2.4766194, 48.9108742 ], [ 2.4767018, 48.91101 ], [ 2.4772553, 48.9109552 ], [ 2.4773575, 48.9109451 ], [ 2.477343, 48.9108954 ], [ 2.4772652, 48.9105984 ], [ 2.4771746, 48.9102524 ], [ 2.477162, 48.9102044 ] ] ] } },
{ "type": "Feature", "properties": { "osm_id": null, "name": null, "highway": null, "waterway": null, "aerialway": null, "barrier": null, "man_made": null, "railway": null, "z_order": null, "other_tags": null, "access": null, "bicycle": null, "boundary": null, "bridge": null, "covered": null, "cycleway": null, "cycleway:left": null, "cycleway:right": null, "destination": null, "destination:colour": null, "destination:ref": null, "destination:ref:to": null, "destination:symbol:to": null, "destination:to": null, "foot": null, "footway": null, "horse": null, "int_ref": null, "junction:ref": null, "lane_markings": null, "lanes": null, "layer": null, "lit": null, "maxspeed": null, "maxweight:signed": null, "maxweightrating:signed": null, "motor_vehicle": null, "name:etymology:wikidata": null, "nat_ref": null, "oneway": null, "operator": null, "operator:wikidata": null, "political_division": null, "ref": null, "segregated": null, "service": null, "sidewalk": null, "smoothness": null, "source:maxspeed": null, "surface": null, "toll": null, "tunnel": null, "turn:lanes": null, "was:name": null, "width": null, "zone:maxspeed": null, "inc_sidewalk_len": 0.0, "sidewalks_ratio": 0.0, "incident": "" }, "geometry": { "type": "Polygon", "coordinates": [ [ [ 2.473316720552511, 48.90810904857392 ], [ 2.473088071351113, 48.90810527054925 ], [ 2.4731578, 48.9082057 ], [ 2.4743384, 48.9096317 ], [ 2.4751473, 48.9106314 ], [ 2.47519255758647, 48.910692232136533 ], [ 2.475344173377772, 48.910608621563263 ], [ 2.4752999, 48.9105473 ], [ 2.4748963, 48.910001 ], [ 2.474488, 48.9094963 ], [ 2.4734974, 48.908333 ], [ 2.473316720552511, 48.90810904857392 ] ] ] } },
{ "type": "Feature", "properties": { "osm_id": null, "name": null, "highway": null, "waterway": null, "aerialway": null, "barrier": null, "man_made": null, "railway": null, "z_order": null, "other_tags": null, "access": null, "bicycle": null, "boundary": null, "bridge": null, "covered": null, "cycleway": null, "cycleway:left": null, "cycleway:right": null, "destination": null, "destination:colour": null, "destination:ref": null, "destination:ref:to": null, "destination:symbol:to": null, "destination:to": null, "foot": null, "footway": null, "horse": null, "int_ref": null, "junction:ref": null, "lane_markings": null, "lanes": null, "layer": null, "lit": null, "maxspeed": null, "maxweight:signed": null, "maxweightrating:signed": null, "motor_vehicle": null, "name:etymology:wikidata": null, "nat_ref": null, "oneway": null, "operator": null, "operator:wikidata": null, "political_division": null, "ref": null, "segregated": null, "service": null, "sidewalk": null, "smoothness": null, "source:maxspeed": null, "surface": null, "toll": null, "tunnel": null, "turn:lanes": null, "was:name": null, "width": null, "zone:maxspeed": null, "inc_sidewalk_len": 133.50609760697955, "sidewalks_ratio": 6.1221349872002246, "incident": "66" }, "geometry": { "type": "Polygon", "coordinates": [ [ [ 2.473088071351113, 48.90810527054925 ], [ 2.4728478, 48.9081013 ], [ 2.4726724, 48.9080922 ], [ 2.4726212, 48.9080895 ], [ 2.4724714, 48.90826269999998 ], [ 2.4726759, 48.9085704 ], [ 2.4730621, 48.909161 ], [ 2.4731334, 48.9092482 ], [ 2.4732123, 48.9093317 ], [ 2.4735636, 48.9097706 ], [ 2.4736098, 48.9098217 ], [ 2.4740482, 48.910306399999989 ], [ 2.4741597, 48.9104297 ], [ 2.4741951, 48.910476 ], [ 2.4742478, 48.9105449 ], [ 2.4742854, 48.9105967 ], [ 2.4744354, 48.9107832 ], [ 2.4745293, 48.9108322 ], [ 2.4746535, 48.9108459 ], [ 2.4747723, 48.9108376 ], [ 2.4750548, 48.9107682 ], [ 2.47519255758647, 48.910692232136533 ], [ 2.4751473, 48.9106314 ], [ 2.4743384, 48.9096317 ], [ 2.4731578, 48.9082057 ], [ 2.473088071351113, 48.90810527054925 ] ] ] } },
{ "type": "Feature", "properties": { "osm_id": null, "name": null, "highway": null, "waterway": null, "aerialway": null, "barrier": null, "man_made": null, "railway": null, "z_order": null, "other_tags": null, "access": null, "bicycle": null, "boundary": null, "bridge": null, "covered": null, "cycleway": null, "cycleway:left": null, "cycleway:right": null, "destination": null, "destination:colour": null, "destination:ref": null, "destination:ref:to": null, "destination:symbol:to": null, "destination:to": null, "foot": null, "footway": null, "horse": null, "int_ref": null, "junction:ref": null, "lane_markings": null, "lanes": null, "layer": null, "lit": null, "maxspeed": null, "maxweight:signed": null, "maxweightrating:signed": null, "motor_vehicle": null, "name:etymology:wikidata": null, "nat_ref": null, "oneway": null, "operator": null, "operator:wikidata": null, "political_division": null, "ref": null, "segregated": null, "service": null, "sidewalk": null, "smoothness": null, "source:maxspeed": null, "surface": null, "toll": null, "tunnel": null, "turn:lanes": null, "was:name": null, "width": null, "zone:maxspeed": null, "inc_sidewalk_len": 0.0, "sidewalks_ratio": 0.0, "incident": "" }, "geometry": { "type": "Polygon", "coordinates": [ [ [ 2.4744888, 48.9109347 ], [ 2.4746707, 48.9109103 ], [ 2.4748694, 48.9108553 ], [ 2.4750548, 48.9107682 ], [ 2.4747723, 48.9108376 ], [ 2.4746535, 48.9108459 ], [ 2.4745293, 48.9108322 ], [ 2.4744354, 48.9107832 ], [ 2.4742854, 48.9105967 ], [ 2.4743792, 48.9107955 ], [ 2.4744888, 48.9109347 ] ] ] } },
{ "type": "Feature", "properties": { "osm_id": null, "name": null, "highway": null, "waterway": null, "aerialway": null, "barrier": null, "man_made": null, "railway": null, "z_order": null, "other_tags": null, "access": null, "bicycle": null, "boundary": null, "bridge": null, "covered": null, "cycleway": null, "cycleway:left": null, "cycleway:right": null, "destination": null, "destination:colour": null, "destination:ref": null, "destination:ref:to": null, "destination:symbol:to": null, "destination:to": null, "foot": null, "footway": null, "horse": null, "int_ref": null, "junction:ref": null, "lane_markings": null, "lanes": null, "layer": null, "lit": null, "maxspeed": null, "maxweight:signed": null, "maxweightrating:signed": null, "motor_vehicle": null, "name:etymology:wikidata": null, "nat_ref": null, "oneway": null, "operator": null, "operator:wikidata": null, "political_division": null, "ref": null, "segregated": null, "service": null, "sidewalk": null, "smoothness": null, "source:maxspeed": null, "surface": null, "toll": null, "tunnel": null, "turn:lanes": null, "was:name": null, "width": null, "zone:maxspeed": null, "inc_sidewalk_len": 0.0, "sidewalks_ratio": 0.0, "incident": "" }, "geometry": { "type": "Polygon", "coordinates": [ [ [ 2.4750548, 48.9107682 ], [ 2.4748694, 48.9108553 ], [ 2.4746707, 48.9109103 ], [ 2.4744888, 48.9109347 ], [ 2.474546, 48.911024 ], [ 2.4746164, 48.9110344 ], [ 2.4746597, 48.911038599999983 ], [ 2.4747884, 48.9110174 ], [ 2.4749577, 48.9109547 ], [ 2.4751368, 48.910853299999985 ], [ 2.475260260406557, 48.910783233303043 ], [ 2.47519255758647, 48.910692232136533 ], [ 2.4750548, 48.9107682 ] ] ] } },
{ "type": "Feature", "properties": { "osm_id": null, "name": null, "highway": null, "waterway": null, "aerialway": null, "barrier": null, "man_made": null, "railway": null, "z_order": null, "other_tags": null, "access": null, "bicycle": null, "boundary": null, "bridge": null, "covered": null, "cycleway": null, "cycleway:left": null, "cycleway:right": null, "destination": null, "destination:colour": null, "destination:ref": null, "destination:ref:to": null, "destination:symbol:to": null, "destination:to": null, "foot": null, "footway": null, "horse": null, "int_ref": null, "junction:ref": null, "lane_markings": null, "lanes": null, "layer": null, "lit": null, "maxspeed": null, "maxweight:signed": null, "maxweightrating:signed": null, "motor_vehicle": null, "name:etymology:wikidata": null, "nat_ref": null, "oneway": null, "operator": null, "operator:wikidata": null, "political_division": null, "ref": null, "segregated": null, "service": null, "sidewalk": null, "smoothness": null, "source:maxspeed": null, "surface": null, "toll": null, "tunnel": null, "turn:lanes": null, "was:name": null, "width": null, "zone:maxspeed": null, "inc_sidewalk_len": 0.0, "sidewalks_ratio": 0.0, "incident": "" }, "geometry": { "type": "Polygon", "coordinates": [ [ [ 2.4759987, 48.9103657 ], [ 2.4758776, 48.9103729 ], [ 2.4755245, 48.910517799999987 ], [ 2.4754512, 48.9105496 ], [ 2.475344173377772, 48.910608621563263 ], [ 2.475409209569894, 48.910698700696699 ], [ 2.4755322, 48.9106289 ], [ 2.4759346, 48.910421499999984 ], [ 2.4759987, 48.9103657 ] ] ] } },
{ "type": "Feature", "properties": { "osm_id": null, "name": null, "highway": null, "waterway": null, "aerialway": null, "barrier": null, "man_made": null, "railway": null, "z_order": null, "other_tags": null, "access": null, "bicycle": null, "boundary": null, "bridge": null, "covered": null, "cycleway": null, "cycleway:left": null, "cycleway:right": null, "destination": null, "destination:colour": null, "destination:ref": null, "destination:ref:to": null, "destination:symbol:to": null, "destination:to": null, "foot": null, "footway": null, "horse": null, "int_ref": null, "junction:ref": null, "lane_markings": null, "lanes": null, "layer": null, "lit": null, "maxspeed": null, "maxweight:signed": null, "maxweightrating:signed": null, "motor_vehicle": null, "name:etymology:wikidata": null, "nat_ref": null, "oneway": null, "operator": null, "operator:wikidata": null, "political_division": null, "ref": null, "segregated": null, "service": null, "sidewalk": null, "smoothness": null, "source:maxspeed": null, "surface": null, "toll": null, "tunnel": null, "turn:lanes": null, "was:name": null, "width": null, "zone:maxspeed": null, "inc_sidewalk_len": 0.0, "sidewalks_ratio": 0.0, "incident": "46" }, "geometry": { "type": "Polygon", "coordinates": [ [ [ 2.483065, 48.9093523 ], [ 2.4830972, 48.9091185 ], [ 2.4801726, 48.9093788 ], [ 2.480127, 48.909382899999983 ], [ 2.4800865, 48.909386499999989 ], [ 2.4800992, 48.909661 ], [ 2.4801022, 48.9097618 ], [ 2.4801187, 48.9098854 ], [ 2.4801468, 48.9098827 ], [ 2.4802345, 48.9098744 ], [ 2.4830411, 48.909608 ], [ 2.483065, 48.9093523 ] ] ] } },
{ "type": "Feature", "properties": { "osm_id": null, "name": null, "highway": null, "waterway": null, "aerialway": null, "barrier": null, "man_made": null, "railway": null, "z_order": null, "other_tags": null, "access": null, "bicycle": null, "boundary": null, "bridge": null, "covered": null, "cycleway": null, "cycleway:left": null, "cycleway:right": null, "destination": null, "destination:colour": null, "destination:ref": null, "destination:ref:to": null, "destination:symbol:to": null, "destination:to": null, "foot": null, "footway": null, "horse": null, "int_ref": null, "junction:ref": null, "lane_markings": null, "lanes": null, "layer": null, "lit": null, "maxspeed": null, "maxweight:signed": null, "maxweightrating:signed": null, "motor_vehicle": null, "name:etymology:wikidata": null, "nat_ref": null, "oneway": null, "operator": null, "operator:wikidata": null, "political_division": null, "ref": null, "segregated": null, "service": null, "sidewalk": null, "smoothness": null, "source:maxspeed": null, "surface": null, "toll": null, "tunnel": null, "turn:lanes": null, "was:name": null, "width": null, "zone:maxspeed": null, "inc_sidewalk_len": 0.0, "sidewalks_ratio": 0.0, "incident": "" }, "geometry": { "type": "Polygon", "coordinates": [ [ [ 2.481615, 48.908916 ], [ 2.4818025, 48.9089006 ], [ 2.4818418, 48.9088861 ], [ 2.4818846, 48.9088568 ], [ 2.4819076, 48.9088303 ], [ 2.4819196, 48.9088077 ], [ 2.4819249, 48.908783499999984 ], [ 2.4819038, 48.9086307 ], [ 2.4818981, 48.9086181 ], [ 2.4818879, 48.9086104 ], [ 2.4818718, 48.9086035 ], [ 2.4818448, 48.90859660000001 ], [ 2.4816381, 48.9086101 ], [ 2.4816161, 48.9086187 ], [ 2.4815976, 48.9086297 ], [ 2.481588, 48.9086422 ], [ 2.4815767, 48.9086644 ], [ 2.481615, 48.908916 ] ] ] } },
{ "type": "Feature", "properties": { "osm_id": null, "name": null, "highway": null, "waterway": null, "aerialway": null, "barrier": null, "man_made": null, "railway": null, "z_order": null, "other_tags": null, "access": null, "bicycle": null, "boundary": null, "bridge": null, "covered": null, "cycleway": null, "cycleway:left": null, "cycleway:right": null, "destination": null, "destination:colour": null, "destination:ref": null, "destination:ref:to": null, "destination:symbol:to": null, "destination:to": null, "foot": null, "footway": null, "horse": null, "int_ref": null, "junction:ref": null, "lane_markings": null, "lanes": null, "layer": null, "lit": null, "maxspeed": null, "maxweight:signed": null, "maxweightrating:signed": null, "motor_vehicle": null, "name:etymology:wikidata": null, "nat_ref": null, "oneway": null, "operator": null, "operator:wikidata": null, "political_division": null, "ref": null, "segregated": null, "service": null, "sidewalk": null, "smoothness": null, "source:maxspeed": null, "surface": null, "toll": null, "tunnel": null, "turn:lanes": null, "was:name": null, "width": null, "zone:maxspeed": null, "inc_sidewalk_len": 0.0, "sidewalks_ratio": 0.0, "incident": "" }, "geometry": { "type": "Polygon", "coordinates": [ [ [ 2.475409209569894, 48.910698700696699 ], [ 2.475344173377772, 48.910608621563263 ], [ 2.47519255758647, 48.910692232136533 ], [ 2.475260260406557, 48.910783233303043 ], [ 2.475409209569894, 48.910698700696699 ] ] ] } },
{ "type": "Feature", "properties": { "osm_id": null, "name": null, "highway": null, "waterway": null, "aerialway": null, "barrier": null, "man_made": null, "railway": null, "z_order": null, "other_tags": null, "access": null, "bicycle": null, "boundary": null, "bridge": null, "covered": null, "cycleway": null, "cycleway:left": null, "cycleway:right": null, "destination": null, "destination:colour": null, "destination:ref": null, "destination:ref:to": null, "destination:symbol:to": null, "destination:to": null, "foot": null, "footway": null, "horse": null, "int_ref": null, "junction:ref": null, "lane_markings": null, "lanes": null, "layer": null, "lit": null, "maxspeed": null, "maxweight:signed": null, "maxweightrating:signed": null, "motor_vehicle": null, "name:etymology:wikidata": null, "nat_ref": null, "oneway": null, "operator": null, "operator:wikidata": null, "political_division": null, "ref": null, "segregated": null, "service": null, "sidewalk": null, "smoothness": null, "source:maxspeed": null, "surface": null, "toll": null, "tunnel": null, "turn:lanes": null, "was:name": null, "width": null, "zone:maxspeed": null, "inc_sidewalk_len": 0.0, "sidewalks_ratio": 0.0, "incident": "" }, "geometry": { "type": "Polygon", "coordinates": [ [ [ 2.4746379, 48.9111861 ], [ 2.4746785, 48.9111371 ], [ 2.4747235, 48.9110906 ], [ 2.4749577, 48.9109547 ], [ 2.4747884, 48.9110174 ], [ 2.4746597, 48.911038599999983 ], [ 2.4746164, 48.9110344 ], [ 2.474546, 48.911024 ], [ 2.4746379, 48.9111861 ] ] ] } },
{ "type": "Feature", "properties": { "osm_id": null, "name": null, "highway": null, "waterway": null, "aerialway": null, "barrier": null, "man_made": null, "railway": null, "z_order": null, "other_tags": null, "access": null, "bicycle": null, "boundary": null, "bridge": null, "covered": null, "cycleway": null, "cycleway:left": null, "cycleway:right": null, "destination": null, "destination:colour": null, "destination:ref": null, "destination:ref:to": null, "destination:symbol:to": null, "destination:to": null, "foot": null, "footway": null, "horse": null, "int_ref": null, "junction:ref": null, "lane_markings": null, "lanes": null, "layer": null, "lit": null, "maxspeed": null, "maxweight:signed": null, "maxweightrating:signed": null, "motor_vehicle": null, "name:etymology:wikidata": null, "nat_ref": null, "oneway": null, "operator": null, "operator:wikidata": null, "political_division": null, "ref": null, "segregated": null, "service": null, "sidewalk": null, "smoothness": null, "source:maxspeed": null, "surface": null, "toll": null, "tunnel": null, "turn:lanes": null, "was:name": null, "width": null, "zone:maxspeed": null, "inc_sidewalk_len": 0.0, "sidewalks_ratio": 0.0, "incident": "65" }, "geometry": { "type": "Polygon", "coordinates": [ [ [ 2.4758411, 48.9095053 ], [ 2.4758606, 48.9093281 ], [ 2.4749788, 48.909298 ], [ 2.4751175, 48.909478 ], [ 2.4758411, 48.9095053 ] ] ] } },
{ "type": "Feature", "properties": { "osm_id": null, "name": null, "highway": null, "waterway": null, "aerialway": null, "barrier": null, "man_made": null, "railway": null, "z_order": null, "other_tags": null, "access": null, "bicycle": null, "boundary": null, "bridge": null, "covered": null, "cycleway": null, "cycleway:left": null, "cycleway:right": null, "destination": null, "destination:colour": null, "destination:ref": null, "destination:ref:to": null, "destination:symbol:to": null, "destination:to": null, "foot": null, "footway": null, "horse": null, "int_ref": null, "junction:ref": null, "lane_markings": null, "lanes": null, "layer": null, "lit": null, "maxspeed": null, "maxweight:signed": null, "maxweightrating:signed": null, "motor_vehicle": null, "name:etymology:wikidata": null, "nat_ref": null, "oneway": null, "operator": null, "operator:wikidata": null, "political_division": null, "ref": null, "segregated": null, "service": null, "sidewalk": null, "smoothness": null, "source:maxspeed": null, "surface": null, "toll": null, "tunnel": null, "turn:lanes": null, "was:name": null, "width": null, "zone:maxspeed": null, "inc_sidewalk_len": 0.0, "sidewalks_ratio": 0.0, "incident": "52" }, "geometry": { "type": "Polygon", "coordinates": [ [ [ 2.4787683, 48.9091447 ], [ 2.4785895, 48.909139 ], [ 2.478564, 48.9093968 ], [ 2.4789258, 48.9094085 ], [ 2.4789493, 48.9091506 ], [ 2.4787683, 48.9091447 ] ] ] } },
{ "type": "Feature", "properties": { "osm_id": null, "name": null, "highway": null, "waterway": null, "aerialway": null, "barrier": null, "man_made": null, "railway": null, "z_order": null, "other_tags": null, "access": null, "bicycle": null, "boundary": null, "bridge": null, "covered": null, "cycleway": null, "cycleway:left": null, "cycleway:right": null, "destination": null, "destination:colour": null, "destination:ref": null, "destination:ref:to": null, "destination:symbol:to": null, "destination:to": null, "foot": null, "footway": null, "horse": null, "int_ref": null, "junction:ref": null, "lane_markings": null, "lanes": null, "layer": null, "lit": null, "maxspeed": null, "maxweight:signed": null, "maxweightrating:signed": null, "motor_vehicle": null, "name:etymology:wikidata": null, "nat_ref": null, "oneway": null, "operator": null, "operator:wikidata": null, "political_division": null, "ref": null, "segregated": null, "service": null, "sidewalk": null, "smoothness": null, "source:maxspeed": null, "surface": null, "toll": null, "tunnel": null, "turn:lanes": null, "was:name": null, "width": null, "zone:maxspeed": null, "inc_sidewalk_len": 0.0, "sidewalks_ratio": 0.0, "incident": "57" }, "geometry": { "type": "Polygon", "coordinates": [ [ [ 2.477248, 48.9093435 ], [ 2.477657, 48.9093591 ], [ 2.4776401, 48.9093478 ], [ 2.4776365, 48.9093278 ], [ 2.4776575, 48.9091344 ], [ 2.4776596, 48.9091144 ], [ 2.4776389, 48.9090956 ], [ 2.4775954, 48.9090904 ], [ 2.4774902, 48.9090838 ], [ 2.4773359, 48.909081699999987 ], [ 2.4773112, 48.9090916 ], [ 2.4772996, 48.9091128 ], [ 2.4772805, 48.90931 ], [ 2.4772765, 48.909328700000017 ], [ 2.477248, 48.9093435 ] ] ] } },
{ "type": "Feature", "properties": { "osm_id": null, "name": null, "highway": null, "waterway": null, "aerialway": null, "barrier": null, "man_made": null, "railway": null, "z_order": null, "other_tags": null, "access": null, "bicycle": null, "boundary": null, "bridge": null, "covered": null, "cycleway": null, "cycleway:left": null, "cycleway:right": null, "destination": null, "destination:colour": null, "destination:ref": null, "destination:ref:to": null, "destination:symbol:to": null, "destination:to": null, "foot": null, "footway": null, "horse": null, "int_ref": null, "junction:ref": null, "lane_markings": null, "lanes": null, "layer": null, "lit": null, "maxspeed": null, "maxweight:signed": null, "maxweightrating:signed": null, "motor_vehicle": null, "name:etymology:wikidata": null, "nat_ref": null, "oneway": null, "operator": null, "operator:wikidata": null, "political_division": null, "ref": null, "segregated": null, "service": null, "sidewalk": null, "smoothness": null, "source:maxspeed": null, "surface": null, "toll": null, "tunnel": null, "turn:lanes": null, "was:name": null, "width": null, "zone:maxspeed": null, "inc_sidewalk_len": 0.0, "sidewalks_ratio": 0.0, "incident": "59" }, "geometry": { "type": "Polygon", "coordinates": [ [ [ 2.4767018, 48.91101 ], [ 2.4768341, 48.9112281 ], [ 2.4769197, 48.9113694 ], [ 2.477, 48.9115017 ], [ 2.47724, 48.9118973 ], [ 2.4775892, 48.91186 ], [ 2.4775562, 48.911729899999983 ], [ 2.477548, 48.9116975 ], [ 2.4774417, 48.9112778 ], [ 2.477422, 48.9111999 ], [ 2.4773575, 48.9109451 ], [ 2.4772553, 48.9109552 ], [ 2.4767018, 48.91101 ] ] ] } },
{ "type": "Feature", "properties": { "osm_id": null, "name": null, "highway": null, "waterway": null, "aerialway": null, "barrier": null, "man_made": null, "railway": null, "z_order": null, "other_tags": null, "access": null, "bicycle": null, "boundary": null, "bridge": null, "covered": null, "cycleway": null, "cycleway:left": null, "cycleway:right": null, "destination": null, "destination:colour": null, "destination:ref": null, "destination:ref:to": null, "destination:symbol:to": null, "destination:to": null, "foot": null, "footway": null, "horse": null, "int_ref": null, "junction:ref": null, "lane_markings": null, "lanes": null, "layer": null, "lit": null, "maxspeed": null, "maxweight:signed": null, "maxweightrating:signed": null, "motor_vehicle": null, "name:etymology:wikidata": null, "nat_ref": null, "oneway": null, "operator": null, "operator:wikidata": null, "political_division": null, "ref": null, "segregated": null, "service": null, "sidewalk": null, "smoothness": null, "source:maxspeed": null, "surface": null, "toll": null, "tunnel": null, "turn:lanes": null, "was:name": null, "width": null, "zone:maxspeed": null, "inc_sidewalk_len": 0.0, "sidewalks_ratio": 0.0, "incident": "" }, "geometry": { "type": "Polygon", "coordinates": [ [ [ 2.4785867, 48.911733099999985 ], [ 2.4785531, 48.911608799999989 ], [ 2.4775562, 48.911729899999983 ], [ 2.4775892, 48.91186 ], [ 2.4776391, 48.9118535 ], [ 2.4785867, 48.911733099999985 ] ] ] } }
]
}
